<?xml version="1.0" encoding="UTF-8"?>
<kml xmlns="http://www.opengis.net/kml/2.2" xmlns:gx="http://www.google.com/kml/ext/2.2">
<Document>
	<name>2029 University Ave · 240 units · Entitled · loop</name>
	<description><![CDATA[Standalone building loop, generated by scripts/gen_building_loop.py. Plan view 234 m -> spiral -> 1.2 turns -> eye level 88 m at radius 101 m. Altitudes derive from this building's extrusion height (78.0 m), so a corrected height re-cuts the shot. Load alongside geometry.kml.]]></description>
	<gx:Tour>
		<name>2029 University Ave · 240 units · Entitled · loop</name>
		<gx:Playlist>
			<gx:FlyTo>
				<gx:duration>0.92</gx:duration>
				<gx:flyToMode>bounce</gx:flyToMode>
				<Camera>
					<longitude>-122.2698517577</longitude>
					<latitude>37.8722665652</latitude>
					<altitude>234.0</altitude>
					<heading>0.00</heading>
					<tilt>0.0</tilt>
					<roll>0</roll>
					<altitudeMode>relativeToGround</altitudeMode>
				</Camera>
			</gx:FlyTo>
			<gx:FlyTo>
				<gx:duration>0.92</gx:duration>
				<gx:flyToMode>smooth</gx:flyToMode>
				<Camera>
					<longitude>-122.2698517577</longitude>
					<latitude>37.8722665652</latitude>
					<altitude>234.0</altitude>
					<heading>7.50</heading>
					<tilt>0.0</tilt>
					<roll>0</roll>
					<altitudeMode>relativeToGround</altitudeMode>
				</Camera>
			</gx:FlyTo>
			<gx:FlyTo>
				<gx:duration>0.92</gx:duration>
				<gx:flyToMode>smooth</gx:flyToMode>
				<Camera>
					<longitude>-122.2698517577</longitude>
					<latitude>37.8722665652</latitude>
					<altitude>234.0</altitude>
					<heading>15.00</heading>
					<tilt>0.0</tilt>
					<roll>0</roll>
					<altitudeMode>relativeToGround</altitudeMode>
				</Camera>
			</gx:FlyTo>
			<gx:FlyTo>
				<gx:duration>0.92</gx:duration>
				<gx:flyToMode>smooth</gx:flyToMode>
				<Camera>
					<longitude>-122.2698517577</longitude>
					<latitude>37.8722665652</latitude>
					<altitude>234.0</altitude>
					<heading>22.50</heading>
					<tilt>0.0</tilt>
					<roll>0</roll>
					<altitudeMode>relativeToGround</altitudeMode>
				</Camera>
			</gx:FlyTo>
			<gx:FlyTo>
				<gx:duration>0.92</gx:duration>
				<gx:flyToMode>smooth</gx:flyToMode>
				<Camera>
					<longitude>-122.2698517577</longitude>
					<latitude>37.8722665652</latitude>
					<altitude>234.0</altitude>
					<heading>30.00</heading>
					<tilt>0.0</tilt>
					<roll>0</roll>
					<altitudeMode>relativeToGround</altitudeMode>
				</Camera>
			</gx:FlyTo>
			<gx:FlyTo>
				<gx:duration>0.92</gx:duration>
				<gx:flyToMode>smooth</gx:flyToMode>
				<Camera>
					<longitude>-122.2698517577</longitude>
					<latitude>37.8722665652</latitude>
					<altitude>234.0</altitude>
					<heading>37.50</heading>
					<tilt>0.0</tilt>
					<roll>0</roll>
					<altitudeMode>relativeToGround</altitudeMode>
				</Camera>
			</gx:FlyTo>
			<gx:FlyTo>
				<gx:duration>0.92</gx:duration>
				<gx:flyToMode>smooth</gx:flyToMode>
				<Camera>
					<longitude>-122.2698517577</longitude>
					<latitude>37.8722665652</latitude>
					<altitude>234.0</altitude>
					<heading>45.00</heading>
					<tilt>0.0</tilt>
					<roll>0</roll>
					<altitudeMode>relativeToGround</altitudeMode>
				</Camera>
			</gx:FlyTo>
			<gx:FlyTo>
				<gx:duration>0.92</gx:duration>
				<gx:flyToMode>smooth</gx:flyToMode>
				<Camera>
					<longitude>-122.2698517577</longitude>
					<latitude>37.8722665652</latitude>
					<altitude>234.0</altitude>
					<heading>52.50</heading>
					<tilt>0.0</tilt>
					<roll>0</roll>
					<altitudeMode>relativeToGround</altitudeMode>
				</Camera>
			</gx:FlyTo>
			<gx:FlyTo>
				<gx:duration>0.92</gx:duration>
				<gx:flyToMode>smooth</gx:flyToMode>
				<Camera>
					<longitude>-122.2698517577</longitude>
					<latitude>37.8722665652</latitude>
					<altitude>234.0</altitude>
					<heading>60.00</heading>
					<tilt>0.0</tilt>
					<roll>0</roll>
					<altitudeMode>relativeToGround</altitudeMode>
				</Camera>
			</gx:FlyTo>
			<gx:FlyTo>
				<gx:duration>0.92</gx:duration>
				<gx:flyToMode>smooth</gx:flyToMode>
				<Camera>
					<longitude>-122.2698517577</longitude>
					<latitude>37.8722665652</latitude>
					<altitude>234.0</altitude>
					<heading>67.50</heading>
					<tilt>0.0</tilt>
					<roll>0</roll>
					<altitudeMode>relativeToGround</altitudeMode>
				</Camera>
			</gx:FlyTo>
			<gx:FlyTo>
				<gx:duration>0.92</gx:duration>
				<gx:flyToMode>smooth</gx:flyToMode>
				<Camera>
					<longitude>-122.2698517577</longitude>
					<latitude>37.8722665652</latitude>
					<altitude>234.0</altitude>
					<heading>75.00</heading>
					<tilt>0.0</tilt>
					<roll>0</roll>
					<altitudeMode>relativeToGround</altitudeMode>
				</Camera>
			</gx:FlyTo>
			<gx:FlyTo>
				<gx:duration>0.92</gx:duration>
				<gx:flyToMode>smooth</gx:flyToMode>
				<Camera>
					<longitude>-122.2698517577</longitude>
					<latitude>37.8722665652</latitude>
					<altitude>234.0</altitude>
					<heading>82.50</heading>
					<tilt>0.0</tilt>
					<roll>0</roll>
					<altitudeMode>relativeToGround</altitudeMode>
				</Camera>
			</gx:FlyTo>
			<gx:FlyTo>
				<gx:duration>0.58</gx:duration>
				<gx:flyToMode>smooth</gx:flyToMode>
				<Camera>
					<longitude>-122.2698514653</longitude>
					<latitude>37.8722678745</latitude>
					<altitude>233.8</altitude>
					<heading>190.00</heading>
					<tilt>0.1</tilt>
					<roll>0</roll>
					<altitudeMode>relativeToGround</altitudeMode>
				</Camera>
			</gx:FlyTo>
			<gx:FlyTo>
				<gx:duration>0.58</gx:duration>
				<gx:flyToMode>smooth</gx:flyToMode>
				<Camera>
					<longitude>-122.2698494883</longitude>
					<latitude>37.8722714872</latitude>
					<altitude>233.2</altitude>
					<heading>200.00</heading>
					<tilt>0.4</tilt>
					<roll>0</roll>
					<altitudeMode>relativeToGround</altitudeMode>
				</Camera>
			</gx:FlyTo>
			<gx:FlyTo>
				<gx:duration>0.58</gx:duration>
				<gx:flyToMode>smooth</gx:flyToMode>
				<Camera>
					<longitude>-122.2698444068</longitude>
					<latitude>37.8722766158</latitude>
					<altitude>232.1</altitude>
					<heading>210.00</heading>
					<tilt>0.9</tilt>
					<roll>0</roll>
					<altitudeMode>relativeToGround</altitudeMode>
				</Camera>
			</gx:FlyTo>
			<gx:FlyTo>
				<gx:duration>0.58</gx:duration>
				<gx:flyToMode>smooth</gx:flyToMode>
				<Camera>
					<longitude>-122.2698352179</longitude>
					<latitude>37.8722821250</latitude>
					<altitude>230.7</altitude>
					<heading>220.00</heading>
					<tilt>1.6</tilt>
					<roll>0</roll>
					<altitudeMode>relativeToGround</altitudeMode>
				</Camera>
			</gx:FlyTo>
			<gx:FlyTo>
				<gx:duration>0.58</gx:duration>
				<gx:flyToMode>smooth</gx:flyToMode>
				<Camera>
					<longitude>-122.2698214437</longitude>
					<latitude>37.8722866443</latitude>
					<altitude>229.0</altitude>
					<heading>230.00</heading>
					<tilt>2.5</tilt>
					<roll>0</roll>
					<altitudeMode>relativeToGround</altitudeMode>
				</Camera>
			</gx:FlyTo>
			<gx:FlyTo>
				<gx:duration>0.58</gx:duration>
				<gx:flyToMode>smooth</gx:flyToMode>
				<Camera>
					<longitude>-122.2698031977</longitude>
					<latitude>37.8722886964</latitude>
					<altitude>226.9</altitude>
					<heading>240.00</heading>
					<tilt>3.5</tilt>
					<roll>0</roll>
					<altitudeMode>relativeToGround</altitudeMode>
				</Camera>
			</gx:FlyTo>
			<gx:FlyTo>
				<gx:duration>0.58</gx:duration>
				<gx:flyToMode>smooth</gx:flyToMode>
				<Camera>
					<longitude>-122.2697812060</longitude>
					<latitude>37.8722868355</latitude>
					<altitude>224.5</altitude>
					<heading>250.00</heading>
					<tilt>4.7</tilt>
					<roll>0</roll>
					<altitudeMode>relativeToGround</altitudeMode>
				</Camera>
			</gx:FlyTo>
			<gx:FlyTo>
				<gx:duration>0.58</gx:duration>
				<gx:flyToMode>smooth</gx:flyToMode>
				<Camera>
					<longitude>-122.2697567807</longitude>
					<latitude>37.8722797850</latitude>
					<altitude>221.8</altitude>
					<heading>260.00</heading>
					<tilt>6.0</tilt>
					<roll>0</roll>
					<altitudeMode>relativeToGround</altitudeMode>
				</Camera>
			</gx:FlyTo>
			<gx:FlyTo>
				<gx:duration>0.58</gx:duration>
				<gx:flyToMode>smooth</gx:flyToMode>
				<Camera>
					<longitude>-122.2697317495</longitude>
					<latitude>37.8722665652</latitude>
					<altitude>218.8</altitude>
					<heading>270.00</heading>
					<tilt>7.5</tilt>
					<roll>0</roll>
					<altitudeMode>relativeToGround</altitudeMode>
				</Camera>
			</gx:FlyTo>
			<gx:FlyTo>
				<gx:duration>0.58</gx:duration>
				<gx:flyToMode>smooth</gx:flyToMode>
				<Camera>
					<longitude>-122.2697083444</longitude>
					<latitude>37.8722466036</latitude>
					<altitude>215.6</altitude>
					<heading>280.00</heading>
					<tilt>9.1</tilt>
					<roll>0</roll>
					<altitudeMode>relativeToGround</altitudeMode>
				</Camera>
			</gx:FlyTo>
			<gx:FlyTo>
				<gx:duration>0.58</gx:duration>
				<gx:flyToMode>smooth</gx:flyToMode>
				<Camera>
					<longitude>-122.2696890568</longitude>
					<latitude>37.8722198194</latitude>
					<altitude>212.1</altitude>
					<heading>290.00</heading>
					<tilt>10.8</tilt>
					<roll>0</roll>
					<altitudeMode>relativeToGround</altitudeMode>
				</Camera>
			</gx:FlyTo>
			<gx:FlyTo>
				<gx:duration>0.58</gx:duration>
				<gx:flyToMode>smooth</gx:flyToMode>
				<Camera>
					<longitude>-122.2696764680</longitude>
					<latitude>37.8721866770</latitude>
					<altitude>208.4</altitude>
					<heading>300.00</heading>
					<tilt>12.6</tilt>
					<roll>0</roll>
					<altitudeMode>relativeToGround</altitudeMode>
				</Camera>
			</gx:FlyTo>
			<gx:FlyTo>
				<gx:duration>0.58</gx:duration>
				<gx:flyToMode>smooth</gx:flyToMode>
				<Camera>
					<longitude>-122.2696730647</longitude>
					<latitude>37.8721482044</latitude>
					<altitude>204.5</altitude>
					<heading>310.00</heading>
					<tilt>14.6</tilt>
					<roll>0</roll>
					<altitudeMode>relativeToGround</altitudeMode>
				</Camera>
			</gx:FlyTo>
			<gx:FlyTo>
				<gx:duration>0.58</gx:duration>
				<gx:flyToMode>smooth</gx:flyToMode>
				<Camera>
					<longitude>-122.2696810522</longitude>
					<latitude>37.8721059743</latitude>
					<altitude>200.4</altitude>
					<heading>320.00</heading>
					<tilt>16.6</tilt>
					<roll>0</roll>
					<altitudeMode>relativeToGround</altitudeMode>
				</Camera>
			</gx:FlyTo>
			<gx:FlyTo>
				<gx:duration>0.58</gx:duration>
				<gx:flyToMode>smooth</gx:flyToMode>
				<Camera>
					<longitude>-122.2697021748</longitude>
					<latitude>37.8720620481</latitude>
					<altitude>196.1</altitude>
					<heading>330.00</heading>
					<tilt>18.7</tilt>
					<roll>0</roll>
					<altitudeMode>relativeToGround</altitudeMode>
				</Camera>
			</gx:FlyTo>
			<gx:FlyTo>
				<gx:duration>0.58</gx:duration>
				<gx:flyToMode>smooth</gx:flyToMode>
				<Camera>
					<longitude>-122.2697375569</longitude>
					<latitude>37.8720188856</latitude>
					<altitude>191.8</altitude>
					<heading>340.00</heading>
					<tilt>20.8</tilt>
					<roll>0</roll>
					<altitudeMode>relativeToGround</altitudeMode>
				</Camera>
			</gx:FlyTo>
			<gx:FlyTo>
				<gx:duration>0.58</gx:duration>
				<gx:flyToMode>smooth</gx:flyToMode>
				<Camera>
					<longitude>-122.2697875733</longitude>
					<latitude>37.8719792240</latitude>
					<altitude>187.2</altitude>
					<heading>350.00</heading>
					<tilt>23.1</tilt>
					<roll>0</roll>
					<altitudeMode>relativeToGround</altitudeMode>
				</Camera>
			</gx:FlyTo>
			<gx:FlyTo>
				<gx:duration>0.58</gx:duration>
				<gx:flyToMode>smooth</gx:flyToMode>
				<Camera>
					<longitude>-122.2698517577</longitude>
					<latitude>37.8719459328</latitude>
					<altitude>182.6</altitude>
					<heading>0.00</heading>
					<tilt>25.3</tilt>
					<roll>0</roll>
					<altitudeMode>relativeToGround</altitudeMode>
				</Camera>
			</gx:FlyTo>
			<gx:FlyTo>
				<gx:duration>0.58</gx:duration>
				<gx:flyToMode>smooth</gx:flyToMode>
				<Camera>
					<longitude>-122.2699287575</longitude>
					<latitude>37.8719218523</latitude>
					<altitude>177.9</altitude>
					<heading>10.00</heading>
					<tilt>27.7</tilt>
					<roll>0</roll>
					<altitudeMode>relativeToGround</altitudeMode>
				</Camera>
			</gx:FlyTo>
			<gx:FlyTo>
				<gx:duration>0.58</gx:duration>
				<gx:flyToMode>smooth</gx:flyToMode>
				<Camera>
					<longitude>-122.2700163372</longitude>
					<latitude>37.8719096241</latitude>
					<altitude>173.1</altitude>
					<heading>20.00</heading>
					<tilt>30.0</tilt>
					<roll>0</roll>
					<altitudeMode>relativeToGround</altitudeMode>
				</Camera>
			</gx:FlyTo>
			<gx:FlyTo>
				<gx:duration>0.58</gx:duration>
				<gx:flyToMode>smooth</gx:flyToMode>
				<Camera>
					<longitude>-122.2701114338</longitude>
					<latitude>37.8719115235</latitude>
					<altitude>168.3</altitude>
					<heading>30.00</heading>
					<tilt>32.4</tilt>
					<roll>0</roll>
					<altitudeMode>relativeToGround</altitudeMode>
				</Camera>
			</gx:FlyTo>
			<gx:FlyTo>
				<gx:duration>0.58</gx:duration>
				<gx:flyToMode>smooth</gx:flyToMode>
				<Camera>
					<longitude>-122.2702102622</longitude>
					<latitude>37.8719293028</latitude>
					<altitude>163.4</altitude>
					<heading>40.00</heading>
					<tilt>34.8</tilt>
					<roll>0</roll>
					<altitudeMode>relativeToGround</altitudeMode>
				</Camera>
			</gx:FlyTo>
			<gx:FlyTo>
				<gx:duration>0.58</gx:duration>
				<gx:flyToMode>smooth</gx:flyToMode>
				<Camera>
					<longitude>-122.2703084672</longitude>
					<latitude>37.8719640548</latitude>
					<altitude>158.6</altitude>
					<heading>50.00</heading>
					<tilt>37.2</tilt>
					<roll>0</roll>
					<altitudeMode>relativeToGround</altitudeMode>
				</Camera>
			</gx:FlyTo>
			<gx:FlyTo>
				<gx:duration>0.58</gx:duration>
				<gx:flyToMode>smooth</gx:flyToMode>
				<Camera>
					<longitude>-122.2704013147</longitude>
					<latitude>37.8720161049</latitude>
					<altitude>153.7</altitude>
					<heading>60.00</heading>
					<tilt>39.6</tilt>
					<roll>0</roll>
					<altitudeMode>relativeToGround</altitudeMode>
				</Camera>
			</gx:FlyTo>
			<gx:FlyTo>
				<gx:duration>0.58</gx:duration>
				<gx:flyToMode>smooth</gx:flyToMode>
				<Camera>
					<longitude>-122.2704839150</longitude>
					<latitude>37.8720849393</latitude>
					<altitude>148.9</altitude>
					<heading>70.00</heading>
					<tilt>42.0</tilt>
					<roll>0</roll>
					<altitudeMode>relativeToGround</altitudeMode>
				</Camera>
			</gx:FlyTo>
			<gx:FlyTo>
				<gx:duration>0.58</gx:duration>
				<gx:flyToMode>smooth</gx:flyToMode>
				<Camera>
					<longitude>-122.2705514654</longitude>
					<latitude>37.8721691735</latitude>
					<altitude>144.1</altitude>
					<heading>80.00</heading>
					<tilt>44.3</tilt>
					<roll>0</roll>
					<altitudeMode>relativeToGround</altitudeMode>
				</Camera>
			</gx:FlyTo>
			<gx:FlyTo>
				<gx:duration>0.58</gx:duration>
				<gx:flyToMode>smooth</gx:flyToMode>
				<Camera>
					<longitude>-122.2705995017</longitude>
					<latitude>37.8722665652</latitude>
					<altitude>139.4</altitude>
					<heading>90.00</heading>
					<tilt>46.7</tilt>
					<roll>0</roll>
					<altitudeMode>relativeToGround</altitudeMode>
				</Camera>
			</gx:FlyTo>
			<gx:FlyTo>
				<gx:duration>0.58</gx:duration>
				<gx:flyToMode>smooth</gx:flyToMode>
				<Camera>
					<longitude>-122.2706241448</longitude>
					<latitude>37.8723740732</latitude>
					<altitude>134.8</altitude>
					<heading>100.00</heading>
					<tilt>48.9</tilt>
					<roll>0</roll>
					<altitudeMode>relativeToGround</altitudeMode>
				</Camera>
			</gx:FlyTo>
			<gx:FlyTo>
				<gx:duration>0.58</gx:duration>
				<gx:flyToMode>smooth</gx:flyToMode>
				<Camera>
					<longitude>-122.2706223292</longitude>
					<latitude>37.8724879591</latitude>
					<altitude>130.2</altitude>
					<heading>110.00</heading>
					<tilt>51.2</tilt>
					<roll>0</roll>
					<altitudeMode>relativeToGround</altitudeMode>
				</Camera>
			</gx:FlyTo>
			<gx:FlyTo>
				<gx:duration>0.58</gx:duration>
				<gx:flyToMode>smooth</gx:flyToMode>
				<Camera>
					<longitude>-122.2705920015</longitude>
					<latitude>37.8726039310</latitude>
					<altitude>125.9</altitude>
					<heading>120.00</heading>
					<tilt>53.3</tilt>
					<roll>0</roll>
					<altitudeMode>relativeToGround</altitudeMode>
				</Camera>
			</gx:FlyTo>
			<gx:FlyTo>
				<gx:duration>0.58</gx:duration>
				<gx:flyToMode>smooth</gx:flyToMode>
				<Camera>
					<longitude>-122.2705322772</longitude>
					<latitude>37.8727173206</latitude>
					<altitude>121.6</altitude>
					<heading>130.00</heading>
					<tilt>55.4</tilt>
					<roll>0</roll>
					<altitudeMode>relativeToGround</altitudeMode>
				</Camera>
			</gx:FlyTo>
			<gx:FlyTo>
				<gx:duration>0.58</gx:duration>
				<gx:flyToMode>smooth</gx:flyToMode>
				<Camera>
					<longitude>-122.2704435458</longitude>
					<latitude>37.8728232886</latitude>
					<altitude>117.5</altitude>
					<heading>140.00</heading>
					<tilt>57.4</tilt>
					<roll>0</roll>
					<altitudeMode>relativeToGround</altitudeMode>
				</Camera>
			</gx:FlyTo>
			<gx:FlyTo>
				<gx:duration>0.58</gx:duration>
				<gx:flyToMode>smooth</gx:flyToMode>
				<Camera>
					<longitude>-122.2703275171</longitude>
					<latitude>37.8729170465</latitude>
					<altitude>113.6</altitude>
					<heading>150.00</heading>
					<tilt>59.4</tilt>
					<roll>0</roll>
					<altitudeMode>relativeToGround</altitudeMode>
				</Camera>
			</gx:FlyTo>
			<gx:FlyTo>
				<gx:duration>0.58</gx:duration>
				<gx:flyToMode>smooth</gx:flyToMode>
				<Camera>
					<longitude>-122.2701872053</longitude>
					<latitude>37.8729940864</latitude>
					<altitude>109.9</altitude>
					<heading>160.00</heading>
					<tilt>61.2</tilt>
					<roll>0</roll>
					<altitudeMode>relativeToGround</altitudeMode>
				</Camera>
			</gx:FlyTo>
			<gx:FlyTo>
				<gx:duration>0.58</gx:duration>
				<gx:flyToMode>smooth</gx:flyToMode>
				<Camera>
					<longitude>-122.2700268472</longitude>
					<latitude>37.8730504065</latitude>
					<altitude>106.4</altitude>
					<heading>170.00</heading>
					<tilt>62.9</tilt>
					<roll>0</roll>
					<altitudeMode>relativeToGround</altitudeMode>
				</Camera>
			</gx:FlyTo>
			<gx:FlyTo>
				<gx:duration>0.58</gx:duration>
				<gx:flyToMode>smooth</gx:flyToMode>
				<Camera>
					<longitude>-122.2698517577</longitude>
					<latitude>37.8730827204</latitude>
					<altitude>103.2</altitude>
					<heading>180.00</heading>
					<tilt>64.5</tilt>
					<roll>0</roll>
					<altitudeMode>relativeToGround</altitudeMode>
				</Camera>
			</gx:FlyTo>
			<gx:FlyTo>
				<gx:duration>0.58</gx:duration>
				<gx:flyToMode>smooth</gx:flyToMode>
				<Camera>
					<longitude>-122.2696681276</longitude>
					<latitude>37.8730886412</latitude>
					<altitude>100.2</altitude>
					<heading>190.00</heading>
					<tilt>66.0</tilt>
					<roll>0</roll>
					<altitudeMode>relativeToGround</altitudeMode>
				</Camera>
			</gx:FlyTo>
			<gx:FlyTo>
				<gx:duration>0.58</gx:duration>
				<gx:flyToMode>smooth</gx:flyToMode>
				<Camera>
					<longitude>-122.2694827706</longitude>
					<latitude>37.8730668273</latitude>
					<altitude>97.5</altitude>
					<heading>200.00</heading>
					<tilt>67.3</tilt>
					<roll>0</roll>
					<altitudeMode>relativeToGround</altitudeMode>
				</Camera>
			</gx:FlyTo>
			<gx:FlyTo>
				<gx:duration>0.58</gx:duration>
				<gx:flyToMode>smooth</gx:flyToMode>
				<Camera>
					<longitude>-122.2693028309</longitude>
					<latitude>37.8730170846</latitude>
					<altitude>95.1</altitude>
					<heading>210.00</heading>
					<tilt>68.5</tilt>
					<roll>0</roll>
					<altitudeMode>relativeToGround</altitudeMode>
				</Camera>
			</gx:FlyTo>
			<gx:FlyTo>
				<gx:duration>0.58</gx:duration>
				<gx:flyToMode>smooth</gx:flyToMode>
				<Camera>
					<longitude>-122.2691354650</longitude>
					<latitude>37.8729404162</latitude>
					<altitude>93.0</altitude>
					<heading>220.00</heading>
					<tilt>69.5</tilt>
					<roll>0</roll>
					<altitudeMode>relativeToGround</altitudeMode>
				</Camera>
			</gx:FlyTo>
			<gx:FlyTo>
				<gx:duration>0.58</gx:duration>
				<gx:flyToMode>smooth</gx:flyToMode>
				<Camera>
					<longitude>-122.2689875107</longitude>
					<latitude>37.8728390162</latitude>
					<altitude>91.3</altitude>
					<heading>230.00</heading>
					<tilt>70.4</tilt>
					<roll>0</roll>
					<altitudeMode>relativeToGround</altitudeMode>
				</Camera>
			</gx:FlyTo>
			<gx:FlyTo>
				<gx:duration>0.58</gx:duration>
				<gx:flyToMode>smooth</gx:flyToMode>
				<Camera>
					<longitude>-122.2688651608</longitude>
					<latitude>37.8727162063</latitude>
					<altitude>89.9</altitude>
					<heading>240.00</heading>
					<tilt>71.1</tilt>
					<roll>0</roll>
					<altitudeMode>relativeToGround</altitudeMode>
				</Camera>
			</gx:FlyTo>
			<gx:FlyTo>
				<gx:duration>0.58</gx:duration>
				<gx:flyToMode>smooth</gx:flyToMode>
				<Camera>
					<longitude>-122.2687736574</longitude>
					<latitude>37.8725763156</latitude>
					<altitude>88.8</altitude>
					<heading>250.00</heading>
					<tilt>71.6</tilt>
					<roll>0</roll>
					<altitudeMode>relativeToGround</altitudeMode>
				</Camera>
			</gx:FlyTo>
			<gx:FlyTo>
				<gx:duration>0.58</gx:duration>
				<gx:flyToMode>smooth</gx:flyToMode>
				<Camera>
					<longitude>-122.2687170212</longitude>
					<latitude>37.8724245083</latitude>
					<altitude>88.2</altitude>
					<heading>260.00</heading>
					<tilt>71.9</tilt>
					<roll>0</roll>
					<altitudeMode>relativeToGround</altitudeMode>
				</Camera>
			</gx:FlyTo>
			<gx:FlyTo>
				<gx:duration>0.58</gx:duration>
				<gx:flyToMode>smooth</gx:flyToMode>
				<Camera>
					<longitude>-122.2686978319</longitude>
					<latitude>37.8722665652</latitude>
					<altitude>88.0</altitude>
					<heading>270.00</heading>
					<tilt>72.0</tilt>
					<roll>0</roll>
					<altitudeMode>relativeToGround</altitudeMode>
				</Camera>
			</gx:FlyTo>
			<gx:FlyTo>
				<gx:duration>0.61</gx:duration>
				<gx:flyToMode>smooth</gx:flyToMode>
				<Camera>
					<longitude>-122.2687153626</longitude>
					<latitude>37.8721083913</latitude>
					<altitude>88.0</altitude>
					<heading>280.00</heading>
					<tilt>72.0</tilt>
					<roll>0</roll>
					<altitudeMode>relativeToGround</altitudeMode>
				</Camera>
			</gx:FlyTo>
			<gx:FlyTo>
				<gx:duration>0.61</gx:duration>
				<gx:flyToMode>smooth</gx:flyToMode>
				<Camera>
					<longitude>-122.2687674221</longitude>
					<latitude>37.8719550233</latitude>
					<altitude>88.0</altitude>
					<heading>290.00</heading>
					<tilt>72.0</tilt>
					<roll>0</roll>
					<altitudeMode>relativeToGround</altitudeMode>
				</Camera>
			</gx:FlyTo>
			<gx:FlyTo>
				<gx:duration>0.61</gx:duration>
				<gx:flyToMode>smooth</gx:flyToMode>
				<Camera>
					<longitude>-122.2688524286</longitude>
					<latitude>37.8718111215</latitude>
					<altitude>88.0</altitude>
					<heading>300.00</heading>
					<tilt>72.0</tilt>
					<roll>0</roll>
					<altitudeMode>relativeToGround</altitudeMode>
				</Camera>
			</gx:FlyTo>
			<gx:FlyTo>
				<gx:duration>0.61</gx:duration>
				<gx:flyToMode>smooth</gx:flyToMode>
				<Camera>
					<longitude>-122.2689677992</longitude>
					<latitude>37.8716810580</latitude>
					<altitude>88.0</altitude>
					<heading>310.00</heading>
					<tilt>72.0</tilt>
					<roll>0</roll>
					<altitudeMode>relativeToGround</altitudeMode>
				</Camera>
			</gx:FlyTo>
			<gx:FlyTo>
				<gx:duration>0.61</gx:duration>
				<gx:flyToMode>smooth</gx:flyToMode>
				<Camera>
					<longitude>-122.2691100285</longitude>
					<latitude>37.8715687849</latitude>
					<altitude>88.0</altitude>
					<heading>320.00</heading>
					<tilt>72.0</tilt>
					<roll>0</roll>
					<altitudeMode>relativeToGround</altitudeMode>
				</Camera>
			</gx:FlyTo>
			<gx:FlyTo>
				<gx:duration>0.61</gx:duration>
				<gx:flyToMode>smooth</gx:flyToMode>
				<Camera>
					<longitude>-122.2692747948</longitude>
					<latitude>37.8714777135</latitude>
					<altitude>88.0</altitude>
					<heading>330.00</heading>
					<tilt>72.0</tilt>
					<roll>0</roll>
					<altitudeMode>relativeToGround</altitudeMode>
				</Camera>
			</gx:FlyTo>
			<gx:FlyTo>
				<gx:duration>0.61</gx:duration>
				<gx:flyToMode>smooth</gx:flyToMode>
				<Camera>
					<longitude>-122.2694570919</longitude>
					<latitude>37.8714106109</latitude>
					<altitude>88.0</altitude>
					<heading>340.00</heading>
					<tilt>72.0</tilt>
					<roll>0</roll>
					<altitudeMode>relativeToGround</altitudeMode>
				</Camera>
			</gx:FlyTo>
			<gx:FlyTo>
				<gx:duration>0.61</gx:duration>
				<gx:flyToMode>smooth</gx:flyToMode>
				<Camera>
					<longitude>-122.2696513806</longitude>
					<latitude>37.8713695161</latitude>
					<altitude>88.0</altitude>
					<heading>350.00</heading>
					<tilt>72.0</tilt>
					<roll>0</roll>
					<altitudeMode>relativeToGround</altitudeMode>
				</Camera>
			</gx:FlyTo>
			<gx:FlyTo>
				<gx:duration>0.61</gx:duration>
				<gx:flyToMode>smooth</gx:flyToMode>
				<Camera>
					<longitude>-122.2698517577</longitude>
					<latitude>37.8713556777</latitude>
					<altitude>88.0</altitude>
					<heading>0.00</heading>
					<tilt>72.0</tilt>
					<roll>0</roll>
					<altitudeMode>relativeToGround</altitudeMode>
				</Camera>
			</gx:FlyTo>
			<gx:FlyTo>
				<gx:duration>0.61</gx:duration>
				<gx:flyToMode>smooth</gx:flyToMode>
				<Camera>
					<longitude>-122.2700521349</longitude>
					<latitude>37.8713695161</latitude>
					<altitude>88.0</altitude>
					<heading>10.00</heading>
					<tilt>72.0</tilt>
					<roll>0</roll>
					<altitudeMode>relativeToGround</altitudeMode>
				</Camera>
			</gx:FlyTo>
			<gx:FlyTo>
				<gx:duration>0.61</gx:duration>
				<gx:flyToMode>smooth</gx:flyToMode>
				<Camera>
					<longitude>-122.2702464236</longitude>
					<latitude>37.8714106109</latitude>
					<altitude>88.0</altitude>
					<heading>20.00</heading>
					<tilt>72.0</tilt>
					<roll>0</roll>
					<altitudeMode>relativeToGround</altitudeMode>
				</Camera>
			</gx:FlyTo>
			<gx:FlyTo>
				<gx:duration>0.61</gx:duration>
				<gx:flyToMode>smooth</gx:flyToMode>
				<Camera>
					<longitude>-122.2704287207</longitude>
					<latitude>37.8714777135</latitude>
					<altitude>88.0</altitude>
					<heading>30.00</heading>
					<tilt>72.0</tilt>
					<roll>0</roll>
					<altitudeMode>relativeToGround</altitudeMode>
				</Camera>
			</gx:FlyTo>
			<gx:FlyTo>
				<gx:duration>0.61</gx:duration>
				<gx:flyToMode>smooth</gx:flyToMode>
				<Camera>
					<longitude>-122.2705934870</longitude>
					<latitude>37.8715687849</latitude>
					<altitude>88.0</altitude>
					<heading>40.00</heading>
					<tilt>72.0</tilt>
					<roll>0</roll>
					<altitudeMode>relativeToGround</altitudeMode>
				</Camera>
			</gx:FlyTo>
			<gx:FlyTo>
				<gx:duration>0.61</gx:duration>
				<gx:flyToMode>smooth</gx:flyToMode>
				<Camera>
					<longitude>-122.2707357162</longitude>
					<latitude>37.8716810580</latitude>
					<altitude>88.0</altitude>
					<heading>50.00</heading>
					<tilt>72.0</tilt>
					<roll>0</roll>
					<altitudeMode>relativeToGround</altitudeMode>
				</Camera>
			</gx:FlyTo>
			<gx:FlyTo>
				<gx:duration>0.61</gx:duration>
				<gx:flyToMode>smooth</gx:flyToMode>
				<Camera>
					<longitude>-122.2708510869</longitude>
					<latitude>37.8718111215</latitude>
					<altitude>88.0</altitude>
					<heading>60.00</heading>
					<tilt>72.0</tilt>
					<roll>0</roll>
					<altitudeMode>relativeToGround</altitudeMode>
				</Camera>
			</gx:FlyTo>
			<gx:FlyTo>
				<gx:duration>0.61</gx:duration>
				<gx:flyToMode>smooth</gx:flyToMode>
				<Camera>
					<longitude>-122.2709360934</longitude>
					<latitude>37.8719550233</latitude>
					<altitude>88.0</altitude>
					<heading>70.00</heading>
					<tilt>72.0</tilt>
					<roll>0</roll>
					<altitudeMode>relativeToGround</altitudeMode>
				</Camera>
			</gx:FlyTo>
			<gx:FlyTo>
				<gx:duration>0.61</gx:duration>
				<gx:flyToMode>smooth</gx:flyToMode>
				<Camera>
					<longitude>-122.2709881529</longitude>
					<latitude>37.8721083913</latitude>
					<altitude>88.0</altitude>
					<heading>80.00</heading>
					<tilt>72.0</tilt>
					<roll>0</roll>
					<altitudeMode>relativeToGround</altitudeMode>
				</Camera>
			</gx:FlyTo>
			<gx:FlyTo>
				<gx:duration>0.61</gx:duration>
				<gx:flyToMode>smooth</gx:flyToMode>
				<Camera>
					<longitude>-122.2710056836</longitude>
					<latitude>37.8722665652</latitude>
					<altitude>88.0</altitude>
					<heading>90.00</heading>
					<tilt>72.0</tilt>
					<roll>0</roll>
					<altitudeMode>relativeToGround</altitudeMode>
				</Camera>
			</gx:FlyTo>
			<gx:FlyTo>
				<gx:duration>0.61</gx:duration>
				<gx:flyToMode>smooth</gx:flyToMode>
				<Camera>
					<longitude>-122.2709881529</longitude>
					<latitude>37.8724247392</latitude>
					<altitude>88.0</altitude>
					<heading>100.00</heading>
					<tilt>72.0</tilt>
					<roll>0</roll>
					<altitudeMode>relativeToGround</altitudeMode>
				</Camera>
			</gx:FlyTo>
			<gx:FlyTo>
				<gx:duration>0.61</gx:duration>
				<gx:flyToMode>smooth</gx:flyToMode>
				<Camera>
					<longitude>-122.2709360934</longitude>
					<latitude>37.8725781071</latitude>
					<altitude>88.0</altitude>
					<heading>110.00</heading>
					<tilt>72.0</tilt>
					<roll>0</roll>
					<altitudeMode>relativeToGround</altitudeMode>
				</Camera>
			</gx:FlyTo>
			<gx:FlyTo>
				<gx:duration>0.61</gx:duration>
				<gx:flyToMode>smooth</gx:flyToMode>
				<Camera>
					<longitude>-122.2708510869</longitude>
					<latitude>37.8727220090</latitude>
					<altitude>88.0</altitude>
					<heading>120.00</heading>
					<tilt>72.0</tilt>
					<roll>0</roll>
					<altitudeMode>relativeToGround</altitudeMode>
				</Camera>
			</gx:FlyTo>
			<gx:FlyTo>
				<gx:duration>0.61</gx:duration>
				<gx:flyToMode>smooth</gx:flyToMode>
				<Camera>
					<longitude>-122.2707357162</longitude>
					<latitude>37.8728520724</latitude>
					<altitude>88.0</altitude>
					<heading>130.00</heading>
					<tilt>72.0</tilt>
					<roll>0</roll>
					<altitudeMode>relativeToGround</altitudeMode>
				</Camera>
			</gx:FlyTo>
			<gx:FlyTo>
				<gx:duration>0.61</gx:duration>
				<gx:flyToMode>smooth</gx:flyToMode>
				<Camera>
					<longitude>-122.2705934870</longitude>
					<latitude>37.8729643455</latitude>
					<altitude>88.0</altitude>
					<heading>140.00</heading>
					<tilt>72.0</tilt>
					<roll>0</roll>
					<altitudeMode>relativeToGround</altitudeMode>
				</Camera>
			</gx:FlyTo>
			<gx:FlyTo>
				<gx:duration>0.61</gx:duration>
				<gx:flyToMode>smooth</gx:flyToMode>
				<Camera>
					<longitude>-122.2704287207</longitude>
					<latitude>37.8730554170</latitude>
					<altitude>88.0</altitude>
					<heading>150.00</heading>
					<tilt>72.0</tilt>
					<roll>0</roll>
					<altitudeMode>relativeToGround</altitudeMode>
				</Camera>
			</gx:FlyTo>
			<gx:FlyTo>
				<gx:duration>0.61</gx:duration>
				<gx:flyToMode>smooth</gx:flyToMode>
				<Camera>
					<longitude>-122.2702464236</longitude>
					<latitude>37.8731225195</latitude>
					<altitude>88.0</altitude>
					<heading>160.00</heading>
					<tilt>72.0</tilt>
					<roll>0</roll>
					<altitudeMode>relativeToGround</altitudeMode>
				</Camera>
			</gx:FlyTo>
			<gx:FlyTo>
				<gx:duration>0.61</gx:duration>
				<gx:flyToMode>smooth</gx:flyToMode>
				<Camera>
					<longitude>-122.2700521349</longitude>
					<latitude>37.8731636143</latitude>
					<altitude>88.0</altitude>
					<heading>170.00</heading>
					<tilt>72.0</tilt>
					<roll>0</roll>
					<altitudeMode>relativeToGround</altitudeMode>
				</Camera>
			</gx:FlyTo>
			<gx:FlyTo>
				<gx:duration>0.61</gx:duration>
				<gx:flyToMode>smooth</gx:flyToMode>
				<Camera>
					<longitude>-122.2698517577</longitude>
					<latitude>37.8731774527</latitude>
					<altitude>88.0</altitude>
					<heading>180.00</heading>
					<tilt>72.0</tilt>
					<roll>0</roll>
					<altitudeMode>relativeToGround</altitudeMode>
				</Camera>
			</gx:FlyTo>
			<gx:FlyTo>
				<gx:duration>0.61</gx:duration>
				<gx:flyToMode>smooth</gx:flyToMode>
				<Camera>
					<longitude>-122.2696513806</longitude>
					<latitude>37.8731636143</latitude>
					<altitude>88.0</altitude>
					<heading>190.00</heading>
					<tilt>72.0</tilt>
					<roll>0</roll>
					<altitudeMode>relativeToGround</altitudeMode>
				</Camera>
			</gx:FlyTo>
			<gx:FlyTo>
				<gx:duration>0.61</gx:duration>
				<gx:flyToMode>smooth</gx:flyToMode>
				<Camera>
					<longitude>-122.2694570919</longitude>
					<latitude>37.8731225195</latitude>
					<altitude>88.0</altitude>
					<heading>200.00</heading>
					<tilt>72.0</tilt>
					<roll>0</roll>
					<altitudeMode>relativeToGround</altitudeMode>
				</Camera>
			</gx:FlyTo>
			<gx:FlyTo>
				<gx:duration>0.61</gx:duration>
				<gx:flyToMode>smooth</gx:flyToMode>
				<Camera>
					<longitude>-122.2692747948</longitude>
					<latitude>37.8730554170</latitude>
					<altitude>88.0</altitude>
					<heading>210.00</heading>
					<tilt>72.0</tilt>
					<roll>0</roll>
					<altitudeMode>relativeToGround</altitudeMode>
				</Camera>
			</gx:FlyTo>
			<gx:FlyTo>
				<gx:duration>0.61</gx:duration>
				<gx:flyToMode>smooth</gx:flyToMode>
				<Camera>
					<longitude>-122.2691100285</longitude>
					<latitude>37.8729643455</latitude>
					<altitude>88.0</altitude>
					<heading>220.00</heading>
					<tilt>72.0</tilt>
					<roll>0</roll>
					<altitudeMode>relativeToGround</altitudeMode>
				</Camera>
			</gx:FlyTo>
			<gx:FlyTo>
				<gx:duration>0.61</gx:duration>
				<gx:flyToMode>smooth</gx:flyToMode>
				<Camera>
					<longitude>-122.2689677992</longitude>
					<latitude>37.8728520724</latitude>
					<altitude>88.0</altitude>
					<heading>230.00</heading>
					<tilt>72.0</tilt>
					<roll>0</roll>
					<altitudeMode>relativeToGround</altitudeMode>
				</Camera>
			</gx:FlyTo>
			<gx:FlyTo>
				<gx:duration>0.61</gx:duration>
				<gx:flyToMode>smooth</gx:flyToMode>
				<Camera>
					<longitude>-122.2688524286</longitude>
					<latitude>37.8727220090</latitude>
					<altitude>88.0</altitude>
					<heading>240.00</heading>
					<tilt>72.0</tilt>
					<roll>0</roll>
					<altitudeMode>relativeToGround</altitudeMode>
				</Camera>
			</gx:FlyTo>
			<gx:FlyTo>
				<gx:duration>0.61</gx:duration>
				<gx:flyToMode>smooth</gx:flyToMode>
				<Camera>
					<longitude>-122.2687674221</longitude>
					<latitude>37.8725781071</latitude>
					<altitude>88.0</altitude>
					<heading>250.00</heading>
					<tilt>72.0</tilt>
					<roll>0</roll>
					<altitudeMode>relativeToGround</altitudeMode>
				</Camera>
			</gx:FlyTo>
			<gx:FlyTo>
				<gx:duration>0.61</gx:duration>
				<gx:flyToMode>smooth</gx:flyToMode>
				<Camera>
					<longitude>-122.2687153626</longitude>
					<latitude>37.8724247392</latitude>
					<altitude>88.0</altitude>
					<heading>260.00</heading>
					<tilt>72.0</tilt>
					<roll>0</roll>
					<altitudeMode>relativeToGround</altitudeMode>
				</Camera>
			</gx:FlyTo>
			<gx:FlyTo>
				<gx:duration>0.61</gx:duration>
				<gx:flyToMode>smooth</gx:flyToMode>
				<Camera>
					<longitude>-122.2686978319</longitude>
					<latitude>37.8722665652</latitude>
					<altitude>88.0</altitude>
					<heading>270.00</heading>
					<tilt>72.0</tilt>
					<roll>0</roll>
					<altitudeMode>relativeToGround</altitudeMode>
				</Camera>
			</gx:FlyTo>
		</gx:Playlist>
	</gx:Tour>
</Document>
</kml>
