<?xml version="1.0" encoding="UTF-8"?>
<kml xmlns="http://www.opengis.net/kml/2.2" xmlns:gx="http://www.google.com/kml/ext/2.2">
<Document>
	<name>2400 Bowditch St · North · 750 units · Pre-Application · loop</name>
	<description><![CDATA[Standalone building loop, generated by scripts/gen_building_loop.py. Plan view 256 m -> spiral -> 1.2 turns -> eye level 95 m at radius 79 m. Altitudes derive from this building's extrusion height (85.3 m), so a corrected height re-cuts the shot. Load alongside geometry.kml.]]></description>
	<gx:Tour>
		<name>2400 Bowditch St · North · 750 units · Pre-Application · loop</name>
		<gx:Playlist>
			<gx:FlyTo>
				<gx:duration>0.50</gx:duration>
				<gx:flyToMode>bounce</gx:flyToMode>
				<Camera>
					<longitude>-122.2569766478</longitude>
					<latitude>37.8669391703</latitude>
					<altitude>255.9</altitude>
					<heading>0.00</heading>
					<tilt>0.0</tilt>
					<roll>0</roll>
					<altitudeMode>relativeToGround</altitudeMode>
				</Camera>
			</gx:FlyTo>
			<gx:FlyTo>
				<gx:duration>0.50</gx:duration>
				<gx:flyToMode>smooth</gx:flyToMode>
				<Camera>
					<longitude>-122.2569766478</longitude>
					<latitude>37.8669391703</latitude>
					<altitude>255.9</altitude>
					<heading>7.50</heading>
					<tilt>0.0</tilt>
					<roll>0</roll>
					<altitudeMode>relativeToGround</altitudeMode>
				</Camera>
			</gx:FlyTo>
			<gx:FlyTo>
				<gx:duration>0.50</gx:duration>
				<gx:flyToMode>smooth</gx:flyToMode>
				<Camera>
					<longitude>-122.2569766478</longitude>
					<latitude>37.8669391703</latitude>
					<altitude>255.9</altitude>
					<heading>15.00</heading>
					<tilt>0.0</tilt>
					<roll>0</roll>
					<altitudeMode>relativeToGround</altitudeMode>
				</Camera>
			</gx:FlyTo>
			<gx:FlyTo>
				<gx:duration>0.50</gx:duration>
				<gx:flyToMode>smooth</gx:flyToMode>
				<Camera>
					<longitude>-122.2569766478</longitude>
					<latitude>37.8669391703</latitude>
					<altitude>255.9</altitude>
					<heading>22.50</heading>
					<tilt>0.0</tilt>
					<roll>0</roll>
					<altitudeMode>relativeToGround</altitudeMode>
				</Camera>
			</gx:FlyTo>
			<gx:FlyTo>
				<gx:duration>0.50</gx:duration>
				<gx:flyToMode>smooth</gx:flyToMode>
				<Camera>
					<longitude>-122.2569766478</longitude>
					<latitude>37.8669391703</latitude>
					<altitude>255.9</altitude>
					<heading>30.00</heading>
					<tilt>0.0</tilt>
					<roll>0</roll>
					<altitudeMode>relativeToGround</altitudeMode>
				</Camera>
			</gx:FlyTo>
			<gx:FlyTo>
				<gx:duration>0.50</gx:duration>
				<gx:flyToMode>smooth</gx:flyToMode>
				<Camera>
					<longitude>-122.2569766478</longitude>
					<latitude>37.8669391703</latitude>
					<altitude>255.9</altitude>
					<heading>37.50</heading>
					<tilt>0.0</tilt>
					<roll>0</roll>
					<altitudeMode>relativeToGround</altitudeMode>
				</Camera>
			</gx:FlyTo>
			<gx:FlyTo>
				<gx:duration>0.50</gx:duration>
				<gx:flyToMode>smooth</gx:flyToMode>
				<Camera>
					<longitude>-122.2569766478</longitude>
					<latitude>37.8669391703</latitude>
					<altitude>255.9</altitude>
					<heading>45.00</heading>
					<tilt>0.0</tilt>
					<roll>0</roll>
					<altitudeMode>relativeToGround</altitudeMode>
				</Camera>
			</gx:FlyTo>
			<gx:FlyTo>
				<gx:duration>0.50</gx:duration>
				<gx:flyToMode>smooth</gx:flyToMode>
				<Camera>
					<longitude>-122.2569766478</longitude>
					<latitude>37.8669391703</latitude>
					<altitude>255.9</altitude>
					<heading>52.50</heading>
					<tilt>0.0</tilt>
					<roll>0</roll>
					<altitudeMode>relativeToGround</altitudeMode>
				</Camera>
			</gx:FlyTo>
			<gx:FlyTo>
				<gx:duration>0.50</gx:duration>
				<gx:flyToMode>smooth</gx:flyToMode>
				<Camera>
					<longitude>-122.2569766478</longitude>
					<latitude>37.8669391703</latitude>
					<altitude>255.9</altitude>
					<heading>60.00</heading>
					<tilt>0.0</tilt>
					<roll>0</roll>
					<altitudeMode>relativeToGround</altitudeMode>
				</Camera>
			</gx:FlyTo>
			<gx:FlyTo>
				<gx:duration>0.50</gx:duration>
				<gx:flyToMode>smooth</gx:flyToMode>
				<Camera>
					<longitude>-122.2569766478</longitude>
					<latitude>37.8669391703</latitude>
					<altitude>255.9</altitude>
					<heading>67.50</heading>
					<tilt>0.0</tilt>
					<roll>0</roll>
					<altitudeMode>relativeToGround</altitudeMode>
				</Camera>
			</gx:FlyTo>
			<gx:FlyTo>
				<gx:duration>0.50</gx:duration>
				<gx:flyToMode>smooth</gx:flyToMode>
				<Camera>
					<longitude>-122.2569766478</longitude>
					<latitude>37.8669391703</latitude>
					<altitude>255.9</altitude>
					<heading>75.00</heading>
					<tilt>0.0</tilt>
					<roll>0</roll>
					<altitudeMode>relativeToGround</altitudeMode>
				</Camera>
			</gx:FlyTo>
			<gx:FlyTo>
				<gx:duration>0.50</gx:duration>
				<gx:flyToMode>smooth</gx:flyToMode>
				<Camera>
					<longitude>-122.2569766478</longitude>
					<latitude>37.8669391703</latitude>
					<altitude>255.9</altitude>
					<heading>82.50</heading>
					<tilt>0.0</tilt>
					<roll>0</roll>
					<altitudeMode>relativeToGround</altitudeMode>
				</Camera>
			</gx:FlyTo>
			<gx:FlyTo>
				<gx:duration>0.31</gx:duration>
				<gx:flyToMode>smooth</gx:flyToMode>
				<Camera>
					<longitude>-122.2569764186</longitude>
					<latitude>37.8669401964</latitude>
					<altitude>255.7</altitude>
					<heading>190.00</heading>
					<tilt>0.1</tilt>
					<roll>0</roll>
					<altitudeMode>relativeToGround</altitudeMode>
				</Camera>
			</gx:FlyTo>
			<gx:FlyTo>
				<gx:duration>0.31</gx:duration>
				<gx:flyToMode>smooth</gx:flyToMode>
				<Camera>
					<longitude>-122.2569748693</longitude>
					<latitude>37.8669430278</latitude>
					<altitude>255.0</altitude>
					<heading>200.00</heading>
					<tilt>0.4</tilt>
					<roll>0</roll>
					<altitudeMode>relativeToGround</altitudeMode>
				</Camera>
			</gx:FlyTo>
			<gx:FlyTo>
				<gx:duration>0.31</gx:duration>
				<gx:flyToMode>smooth</gx:flyToMode>
				<Camera>
					<longitude>-122.2569708872</longitude>
					<latitude>37.8669470471</latitude>
					<altitude>253.9</altitude>
					<heading>210.00</heading>
					<tilt>0.9</tilt>
					<roll>0</roll>
					<altitudeMode>relativeToGround</altitudeMode>
				</Camera>
			</gx:FlyTo>
			<gx:FlyTo>
				<gx:duration>0.31</gx:duration>
				<gx:flyToMode>smooth</gx:flyToMode>
				<Camera>
					<longitude>-122.2569636862</longitude>
					<latitude>37.8669513648</latitude>
					<altitude>252.3</altitude>
					<heading>220.00</heading>
					<tilt>1.6</tilt>
					<roll>0</roll>
					<altitudeMode>relativeToGround</altitudeMode>
				</Camera>
			</gx:FlyTo>
			<gx:FlyTo>
				<gx:duration>0.31</gx:duration>
				<gx:flyToMode>smooth</gx:flyToMode>
				<Camera>
					<longitude>-122.2569528919</longitude>
					<latitude>37.8669549067</latitude>
					<altitude>250.4</altitude>
					<heading>230.00</heading>
					<tilt>2.5</tilt>
					<roll>0</roll>
					<altitudeMode>relativeToGround</altitudeMode>
				</Camera>
			</gx:FlyTo>
			<gx:FlyTo>
				<gx:duration>0.31</gx:duration>
				<gx:flyToMode>smooth</gx:flyToMode>
				<Camera>
					<longitude>-122.2569385933</longitude>
					<latitude>37.8669565149</latitude>
					<altitude>248.1</altitude>
					<heading>240.00</heading>
					<tilt>3.5</tilt>
					<roll>0</roll>
					<altitudeMode>relativeToGround</altitudeMode>
				</Camera>
			</gx:FlyTo>
			<gx:FlyTo>
				<gx:duration>0.31</gx:duration>
				<gx:flyToMode>smooth</gx:flyToMode>
				<Camera>
					<longitude>-122.2569213592</longitude>
					<latitude>37.8669550565</latitude>
					<altitude>245.5</altitude>
					<heading>250.00</heading>
					<tilt>4.7</tilt>
					<roll>0</roll>
					<altitudeMode>relativeToGround</altitudeMode>
				</Camera>
			</gx:FlyTo>
			<gx:FlyTo>
				<gx:duration>0.31</gx:duration>
				<gx:flyToMode>smooth</gx:flyToMode>
				<Camera>
					<longitude>-122.2569022180</longitude>
					<latitude>37.8669495309</latitude>
					<altitude>242.5</altitude>
					<heading>260.00</heading>
					<tilt>6.0</tilt>
					<roll>0</roll>
					<altitudeMode>relativeToGround</altitudeMode>
				</Camera>
			</gx:FlyTo>
			<gx:FlyTo>
				<gx:duration>0.31</gx:duration>
				<gx:flyToMode>smooth</gx:flyToMode>
				<Camera>
					<longitude>-122.2568826021</longitude>
					<latitude>37.8669391703</latitude>
					<altitude>239.2</altitude>
					<heading>270.00</heading>
					<tilt>7.5</tilt>
					<roll>0</roll>
					<altitudeMode>relativeToGround</altitudeMode>
				</Camera>
			</gx:FlyTo>
			<gx:FlyTo>
				<gx:duration>0.31</gx:duration>
				<gx:flyToMode>smooth</gx:flyToMode>
				<Camera>
					<longitude>-122.2568642604</longitude>
					<latitude>37.8669235261</latitude>
					<altitude>235.6</altitude>
					<heading>280.00</heading>
					<tilt>9.1</tilt>
					<roll>0</roll>
					<altitudeMode>relativeToGround</altitudeMode>
				</Camera>
			</gx:FlyTo>
			<gx:FlyTo>
				<gx:duration>0.31</gx:duration>
				<gx:flyToMode>smooth</gx:flyToMode>
				<Camera>
					<longitude>-122.2568491455</longitude>
					<latitude>37.8669025348</latitude>
					<altitude>231.8</altitude>
					<heading>290.00</heading>
					<tilt>10.8</tilt>
					<roll>0</roll>
					<altitudeMode>relativeToGround</altitudeMode>
				</Camera>
			</gx:FlyTo>
			<gx:FlyTo>
				<gx:duration>0.31</gx:duration>
				<gx:flyToMode>smooth</gx:flyToMode>
				<Camera>
					<longitude>-122.2568392802</longitude>
					<latitude>37.8668765606</latitude>
					<altitude>227.7</altitude>
					<heading>300.00</heading>
					<tilt>12.6</tilt>
					<roll>0</roll>
					<altitudeMode>relativeToGround</altitudeMode>
				</Camera>
			</gx:FlyTo>
			<gx:FlyTo>
				<gx:duration>0.31</gx:duration>
				<gx:flyToMode>smooth</gx:flyToMode>
				<Camera>
					<longitude>-122.2568366132</longitude>
					<latitude>37.8668464089</latitude>
					<altitude>223.4</altitude>
					<heading>310.00</heading>
					<tilt>14.6</tilt>
					<roll>0</roll>
					<altitudeMode>relativeToGround</altitudeMode>
				</Camera>
			</gx:FlyTo>
			<gx:FlyTo>
				<gx:duration>0.31</gx:duration>
				<gx:flyToMode>smooth</gx:flyToMode>
				<Camera>
					<longitude>-122.2568428726</longitude>
					<latitude>37.8668133125</latitude>
					<altitude>218.9</altitude>
					<heading>320.00</heading>
					<tilt>16.6</tilt>
					<roll>0</roll>
					<altitudeMode>relativeToGround</altitudeMode>
				</Camera>
			</gx:FlyTo>
			<gx:FlyTo>
				<gx:duration>0.31</gx:duration>
				<gx:flyToMode>smooth</gx:flyToMode>
				<Camera>
					<longitude>-122.2568594256</longitude>
					<latitude>37.8667788868</latitude>
					<altitude>214.3</altitude>
					<heading>330.00</heading>
					<tilt>18.7</tilt>
					<roll>0</roll>
					<altitudeMode>relativeToGround</altitudeMode>
				</Camera>
			</gx:FlyTo>
			<gx:FlyTo>
				<gx:duration>0.31</gx:duration>
				<gx:flyToMode>smooth</gx:flyToMode>
				<Camera>
					<longitude>-122.2568871531</longitude>
					<latitude>37.8667450596</latitude>
					<altitude>209.4</altitude>
					<heading>340.00</heading>
					<tilt>20.8</tilt>
					<roll>0</roll>
					<altitudeMode>relativeToGround</altitudeMode>
				</Camera>
			</gx:FlyTo>
			<gx:FlyTo>
				<gx:duration>0.31</gx:duration>
				<gx:flyToMode>smooth</gx:flyToMode>
				<Camera>
					<longitude>-122.2569263490</longitude>
					<latitude>37.8667139761</latitude>
					<altitude>204.5</altitude>
					<heading>350.00</heading>
					<tilt>23.1</tilt>
					<roll>0</roll>
					<altitudeMode>relativeToGround</altitudeMode>
				</Camera>
			</gx:FlyTo>
			<gx:FlyTo>
				<gx:duration>0.31</gx:duration>
				<gx:flyToMode>smooth</gx:flyToMode>
				<Camera>
					<longitude>-122.2569766478</longitude>
					<latitude>37.8666878852</latitude>
					<altitude>199.4</altitude>
					<heading>0.00</heading>
					<tilt>25.3</tilt>
					<roll>0</roll>
					<altitudeMode>relativeToGround</altitudeMode>
				</Camera>
			</gx:FlyTo>
			<gx:FlyTo>
				<gx:duration>0.31</gx:duration>
				<gx:flyToMode>smooth</gx:flyToMode>
				<Camera>
					<longitude>-122.2570369895</longitude>
					<latitude>37.8666690129</latitude>
					<altitude>194.2</altitude>
					<heading>10.00</heading>
					<tilt>27.7</tilt>
					<roll>0</roll>
					<altitudeMode>relativeToGround</altitudeMode>
				</Camera>
			</gx:FlyTo>
			<gx:FlyTo>
				<gx:duration>0.31</gx:duration>
				<gx:flyToMode>smooth</gx:flyToMode>
				<Camera>
					<longitude>-122.2571056222</longitude>
					<latitude>37.8666594294</latitude>
					<altitude>188.9</altitude>
					<heading>20.00</heading>
					<tilt>30.0</tilt>
					<roll>0</roll>
					<altitudeMode>relativeToGround</altitudeMode>
				</Camera>
			</gx:FlyTo>
			<gx:FlyTo>
				<gx:duration>0.31</gx:duration>
				<gx:flyToMode>smooth</gx:flyToMode>
				<Camera>
					<longitude>-122.2571801457</longitude>
					<latitude>37.8666609181</latitude>
					<altitude>183.6</altitude>
					<heading>30.00</heading>
					<tilt>32.4</tilt>
					<roll>0</roll>
					<altitudeMode>relativeToGround</altitudeMode>
				</Camera>
			</gx:FlyTo>
			<gx:FlyTo>
				<gx:duration>0.31</gx:duration>
				<gx:flyToMode>smooth</gx:flyToMode>
				<Camera>
					<longitude>-122.2572575936</longitude>
					<latitude>37.8666748520</latitude>
					<altitude>178.3</altitude>
					<heading>40.00</heading>
					<tilt>34.8</tilt>
					<roll>0</roll>
					<altitudeMode>relativeToGround</altitudeMode>
				</Camera>
			</gx:FlyTo>
			<gx:FlyTo>
				<gx:duration>0.31</gx:duration>
				<gx:flyToMode>smooth</gx:flyToMode>
				<Camera>
					<longitude>-122.2573345530</longitude>
					<latitude>37.8667020877</latitude>
					<altitude>172.9</altitude>
					<heading>50.00</heading>
					<tilt>37.2</tilt>
					<roll>0</roll>
					<altitudeMode>relativeToGround</altitudeMode>
				</Camera>
			</gx:FlyTo>
			<gx:FlyTo>
				<gx:duration>0.31</gx:duration>
				<gx:flyToMode>smooth</gx:flyToMode>
				<Camera>
					<longitude>-122.2574073139</longitude>
					<latitude>37.8667428803</latitude>
					<altitude>167.6</altitude>
					<heading>60.00</heading>
					<tilt>39.6</tilt>
					<roll>0</roll>
					<altitudeMode>relativeToGround</altitudeMode>
				</Camera>
			</gx:FlyTo>
			<gx:FlyTo>
				<gx:duration>0.31</gx:duration>
				<gx:flyToMode>smooth</gx:flyToMode>
				<Camera>
					<longitude>-122.2574720445</longitude>
					<latitude>37.8667968270</latitude>
					<altitude>162.3</altitude>
					<heading>70.00</heading>
					<tilt>42.0</tilt>
					<roll>0</roll>
					<altitudeMode>relativeToGround</altitudeMode>
				</Camera>
			</gx:FlyTo>
			<gx:FlyTo>
				<gx:duration>0.31</gx:duration>
				<gx:flyToMode>smooth</gx:flyToMode>
				<Camera>
					<longitude>-122.2575249810</longitude>
					<latitude>37.8668628427</latitude>
					<altitude>157.0</altitude>
					<heading>80.00</heading>
					<tilt>44.3</tilt>
					<roll>0</roll>
					<altitudeMode>relativeToGround</altitudeMode>
				</Camera>
			</gx:FlyTo>
			<gx:FlyTo>
				<gx:duration>0.31</gx:duration>
				<gx:flyToMode>smooth</gx:flyToMode>
				<Camera>
					<longitude>-122.2575626252</longitude>
					<latitude>37.8669391703</latitude>
					<altitude>151.8</altitude>
					<heading>90.00</heading>
					<tilt>46.7</tilt>
					<roll>0</roll>
					<altitudeMode>relativeToGround</altitudeMode>
				</Camera>
			</gx:FlyTo>
			<gx:FlyTo>
				<gx:duration>0.31</gx:duration>
				<gx:flyToMode>smooth</gx:flyToMode>
				<Camera>
					<longitude>-122.2575819370</longitude>
					<latitude>37.8670234262</latitude>
					<altitude>146.7</altitude>
					<heading>100.00</heading>
					<tilt>48.9</tilt>
					<roll>0</roll>
					<altitudeMode>relativeToGround</altitudeMode>
				</Camera>
			</gx:FlyTo>
			<gx:FlyTo>
				<gx:duration>0.31</gx:duration>
				<gx:flyToMode>smooth</gx:flyToMode>
				<Camera>
					<longitude>-122.2575805142</longitude>
					<latitude>37.8671126805</latitude>
					<altitude>141.8</altitude>
					<heading>110.00</heading>
					<tilt>51.2</tilt>
					<roll>0</roll>
					<altitudeMode>relativeToGround</altitudeMode>
				</Camera>
			</gx:FlyTo>
			<gx:FlyTo>
				<gx:duration>0.31</gx:duration>
				<gx:flyToMode>smooth</gx:flyToMode>
				<Camera>
					<longitude>-122.2575567476</longitude>
					<latitude>37.8672035697</latitude>
					<altitude>136.9</altitude>
					<heading>120.00</heading>
					<tilt>53.3</tilt>
					<roll>0</roll>
					<altitudeMode>relativeToGround</altitudeMode>
				</Camera>
			</gx:FlyTo>
			<gx:FlyTo>
				<gx:duration>0.31</gx:duration>
				<gx:flyToMode>smooth</gx:flyToMode>
				<Camera>
					<longitude>-122.2575099441</longitude>
					<latitude>37.8672924351</latitude>
					<altitude>132.3</altitude>
					<heading>130.00</heading>
					<tilt>55.4</tilt>
					<roll>0</roll>
					<altitudeMode>relativeToGround</altitudeMode>
				</Camera>
			</gx:FlyTo>
			<gx:FlyTo>
				<gx:duration>0.31</gx:duration>
				<gx:flyToMode>smooth</gx:flyToMode>
				<Camera>
					<longitude>-122.2574404087</longitude>
					<latitude>37.8673754840</latitude>
					<altitude>127.8</altitude>
					<heading>140.00</heading>
					<tilt>57.4</tilt>
					<roll>0</roll>
					<altitudeMode>relativeToGround</altitudeMode>
				</Camera>
			</gx:FlyTo>
			<gx:FlyTo>
				<gx:duration>0.31</gx:duration>
				<gx:flyToMode>smooth</gx:flyToMode>
				<Camera>
					<longitude>-122.2573494816</longitude>
					<latitude>37.8674489637</latitude>
					<altitude>123.5</altitude>
					<heading>150.00</heading>
					<tilt>59.4</tilt>
					<roll>0</roll>
					<altitudeMode>relativeToGround</altitudeMode>
				</Camera>
			</gx:FlyTo>
			<gx:FlyTo>
				<gx:duration>0.31</gx:duration>
				<gx:flyToMode>smooth</gx:flyToMode>
				<Camera>
					<longitude>-122.2572395248</longitude>
					<latitude>37.8675093412</latitude>
					<altitude>119.4</altitude>
					<heading>160.00</heading>
					<tilt>61.2</tilt>
					<roll>0</roll>
					<altitudeMode>relativeToGround</altitudeMode>
				</Camera>
			</gx:FlyTo>
			<gx:FlyTo>
				<gx:duration>0.31</gx:duration>
				<gx:flyToMode>smooth</gx:flyToMode>
				<Camera>
					<longitude>-122.2571138585</longitude>
					<latitude>37.8675534802</latitude>
					<altitude>115.6</altitude>
					<heading>170.00</heading>
					<tilt>62.9</tilt>
					<roll>0</roll>
					<altitudeMode>relativeToGround</altitudeMode>
				</Camera>
			</gx:FlyTo>
			<gx:FlyTo>
				<gx:duration>0.31</gx:duration>
				<gx:flyToMode>smooth</gx:flyToMode>
				<Camera>
					<longitude>-122.2569766478</longitude>
					<latitude>37.8675788052</latitude>
					<altitude>112.0</altitude>
					<heading>180.00</heading>
					<tilt>64.5</tilt>
					<roll>0</roll>
					<altitudeMode>relativeToGround</altitudeMode>
				</Camera>
			</gx:FlyTo>
			<gx:FlyTo>
				<gx:duration>0.31</gx:duration>
				<gx:flyToMode>smooth</gx:flyToMode>
				<Camera>
					<longitude>-122.2568327442</longitude>
					<latitude>37.8675834454</latitude>
					<altitude>108.7</altitude>
					<heading>190.00</heading>
					<tilt>66.0</tilt>
					<roll>0</roll>
					<altitudeMode>relativeToGround</altitudeMode>
				</Camera>
			</gx:FlyTo>
			<gx:FlyTo>
				<gx:duration>0.31</gx:duration>
				<gx:flyToMode>smooth</gx:flyToMode>
				<Camera>
					<longitude>-122.2566874872</longitude>
					<latitude>37.8675663494</latitude>
					<altitude>105.7</altitude>
					<heading>200.00</heading>
					<tilt>67.3</tilt>
					<roll>0</roll>
					<altitudeMode>relativeToGround</altitudeMode>
				</Camera>
			</gx:FlyTo>
			<gx:FlyTo>
				<gx:duration>0.31</gx:duration>
				<gx:flyToMode>smooth</gx:flyToMode>
				<Camera>
					<longitude>-122.2565464756</longitude>
					<latitude>37.8675273652</latitude>
					<altitude>103.1</altitude>
					<heading>210.00</heading>
					<tilt>68.5</tilt>
					<roll>0</roll>
					<altitudeMode>relativeToGround</altitudeMode>
				</Camera>
			</gx:FlyTo>
			<gx:FlyTo>
				<gx:duration>0.31</gx:duration>
				<gx:flyToMode>smooth</gx:flyToMode>
				<Camera>
					<longitude>-122.2564153175</longitude>
					<latitude>37.8674672789</latitude>
					<altitude>100.8</altitude>
					<heading>220.00</heading>
					<tilt>69.5</tilt>
					<roll>0</roll>
					<altitudeMode>relativeToGround</altitudeMode>
				</Camera>
			</gx:FlyTo>
			<gx:FlyTo>
				<gx:duration>0.31</gx:duration>
				<gx:flyToMode>smooth</gx:flyToMode>
				<Camera>
					<longitude>-122.2562993716</longitude>
					<latitude>37.8673878100</latitude>
					<altitude>98.9</altitude>
					<heading>230.00</heading>
					<tilt>70.4</tilt>
					<roll>0</roll>
					<altitudeMode>relativeToGround</altitudeMode>
				</Camera>
			</gx:FlyTo>
			<gx:FlyTo>
				<gx:duration>0.31</gx:duration>
				<gx:flyToMode>smooth</gx:flyToMode>
				<Camera>
					<longitude>-122.2562034908</longitude>
					<latitude>37.8672915617</latitude>
					<altitude>97.3</altitude>
					<heading>240.00</heading>
					<tilt>71.1</tilt>
					<roll>0</roll>
					<altitudeMode>relativeToGround</altitudeMode>
				</Camera>
			</gx:FlyTo>
			<gx:FlyTo>
				<gx:duration>0.31</gx:duration>
				<gx:flyToMode>smooth</gx:flyToMode>
				<Camera>
					<longitude>-122.2561317832</longitude>
					<latitude>37.8671819270</latitude>
					<altitude>96.2</altitude>
					<heading>250.00</heading>
					<tilt>71.6</tilt>
					<roll>0</roll>
					<altitudeMode>relativeToGround</altitudeMode>
				</Camera>
			</gx:FlyTo>
			<gx:FlyTo>
				<gx:duration>0.31</gx:duration>
				<gx:flyToMode>smooth</gx:flyToMode>
				<Camera>
					<longitude>-122.2560873997</longitude>
					<latitude>37.8670629530</latitude>
					<altitude>95.5</altitude>
					<heading>260.00</heading>
					<tilt>71.9</tilt>
					<roll>0</roll>
					<altitudeMode>relativeToGround</altitudeMode>
				</Camera>
			</gx:FlyTo>
			<gx:FlyTo>
				<gx:duration>0.31</gx:duration>
				<gx:flyToMode>smooth</gx:flyToMode>
				<Camera>
					<longitude>-122.2560723617</longitude>
					<latitude>37.8669391703</latitude>
					<altitude>95.3</altitude>
					<heading>270.00</heading>
					<tilt>72.0</tilt>
					<roll>0</roll>
					<altitudeMode>relativeToGround</altitudeMode>
				</Camera>
			</gx:FlyTo>
			<gx:FlyTo>
				<gx:duration>0.33</gx:duration>
				<gx:flyToMode>smooth</gx:flyToMode>
				<Camera>
					<longitude>-122.2560860999</longitude>
					<latitude>37.8668152067</latitude>
					<altitude>95.3</altitude>
					<heading>280.00</heading>
					<tilt>72.0</tilt>
					<roll>0</roll>
					<altitudeMode>relativeToGround</altitudeMode>
				</Camera>
			</gx:FlyTo>
			<gx:FlyTo>
				<gx:duration>0.33</gx:duration>
				<gx:flyToMode>smooth</gx:flyToMode>
				<Camera>
					<longitude>-122.2561268969</longitude>
					<latitude>37.8666950096</latitude>
					<altitude>95.3</altitude>
					<heading>290.00</heading>
					<tilt>72.0</tilt>
					<roll>0</roll>
					<altitudeMode>relativeToGround</altitudeMode>
				</Camera>
			</gx:FlyTo>
			<gx:FlyTo>
				<gx:duration>0.33</gx:duration>
				<gx:flyToMode>smooth</gx:flyToMode>
				<Camera>
					<longitude>-122.2561935131</longitude>
					<latitude>37.8665822313</latitude>
					<altitude>95.3</altitude>
					<heading>300.00</heading>
					<tilt>72.0</tilt>
					<roll>0</roll>
					<altitudeMode>relativeToGround</altitudeMode>
				</Camera>
			</gx:FlyTo>
			<gx:FlyTo>
				<gx:duration>0.33</gx:duration>
				<gx:flyToMode>smooth</gx:flyToMode>
				<Camera>
					<longitude>-122.2562839245</longitude>
					<latitude>37.8664802983</latitude>
					<altitude>95.3</altitude>
					<heading>310.00</heading>
					<tilt>72.0</tilt>
					<roll>0</roll>
					<altitudeMode>relativeToGround</altitudeMode>
				</Camera>
			</gx:FlyTo>
			<gx:FlyTo>
				<gx:duration>0.33</gx:duration>
				<gx:flyToMode>smooth</gx:flyToMode>
				<Camera>
					<longitude>-122.2563953839</longitude>
					<latitude>37.8663923079</latitude>
					<altitude>95.3</altitude>
					<heading>320.00</heading>
					<tilt>72.0</tilt>
					<roll>0</roll>
					<altitudeMode>relativeToGround</altitudeMode>
				</Camera>
			</gx:FlyTo>
			<gx:FlyTo>
				<gx:duration>0.33</gx:duration>
				<gx:flyToMode>smooth</gx:flyToMode>
				<Camera>
					<longitude>-122.2565245048</longitude>
					<latitude>37.8663209337</latitude>
					<altitude>95.3</altitude>
					<heading>330.00</heading>
					<tilt>72.0</tilt>
					<roll>0</roll>
					<altitudeMode>relativeToGround</altitudeMode>
				</Camera>
			</gx:FlyTo>
			<gx:FlyTo>
				<gx:duration>0.33</gx:duration>
				<gx:flyToMode>smooth</gx:flyToMode>
				<Camera>
					<longitude>-122.2566673638</longitude>
					<latitude>37.8662683443</latitude>
					<altitude>95.3</altitude>
					<heading>340.00</heading>
					<tilt>72.0</tilt>
					<roll>0</roll>
					<altitudeMode>relativeToGround</altitudeMode>
				</Camera>
			</gx:FlyTo>
			<gx:FlyTo>
				<gx:duration>0.33</gx:duration>
				<gx:flyToMode>smooth</gx:flyToMode>
				<Camera>
					<longitude>-122.2568196202</longitude>
					<latitude>37.8662361376</latitude>
					<altitude>95.3</altitude>
					<heading>350.00</heading>
					<tilt>72.0</tilt>
					<roll>0</roll>
					<altitudeMode>relativeToGround</altitudeMode>
				</Camera>
			</gx:FlyTo>
			<gx:FlyTo>
				<gx:duration>0.33</gx:duration>
				<gx:flyToMode>smooth</gx:flyToMode>
				<Camera>
					<longitude>-122.2569766478</longitude>
					<latitude>37.8662252922</latitude>
					<altitude>95.3</altitude>
					<heading>0.00</heading>
					<tilt>72.0</tilt>
					<roll>0</roll>
					<altitudeMode>relativeToGround</altitudeMode>
				</Camera>
			</gx:FlyTo>
			<gx:FlyTo>
				<gx:duration>0.33</gx:duration>
				<gx:flyToMode>smooth</gx:flyToMode>
				<Camera>
					<longitude>-122.2571336754</longitude>
					<latitude>37.8662361376</latitude>
					<altitude>95.3</altitude>
					<heading>10.00</heading>
					<tilt>72.0</tilt>
					<roll>0</roll>
					<altitudeMode>relativeToGround</altitudeMode>
				</Camera>
			</gx:FlyTo>
			<gx:FlyTo>
				<gx:duration>0.33</gx:duration>
				<gx:flyToMode>smooth</gx:flyToMode>
				<Camera>
					<longitude>-122.2572859319</longitude>
					<latitude>37.8662683443</latitude>
					<altitude>95.3</altitude>
					<heading>20.00</heading>
					<tilt>72.0</tilt>
					<roll>0</roll>
					<altitudeMode>relativeToGround</altitudeMode>
				</Camera>
			</gx:FlyTo>
			<gx:FlyTo>
				<gx:duration>0.33</gx:duration>
				<gx:flyToMode>smooth</gx:flyToMode>
				<Camera>
					<longitude>-122.2574287909</longitude>
					<latitude>37.8663209337</latitude>
					<altitude>95.3</altitude>
					<heading>30.00</heading>
					<tilt>72.0</tilt>
					<roll>0</roll>
					<altitudeMode>relativeToGround</altitudeMode>
				</Camera>
			</gx:FlyTo>
			<gx:FlyTo>
				<gx:duration>0.33</gx:duration>
				<gx:flyToMode>smooth</gx:flyToMode>
				<Camera>
					<longitude>-122.2575579117</longitude>
					<latitude>37.8663923079</latitude>
					<altitude>95.3</altitude>
					<heading>40.00</heading>
					<tilt>72.0</tilt>
					<roll>0</roll>
					<altitudeMode>relativeToGround</altitudeMode>
				</Camera>
			</gx:FlyTo>
			<gx:FlyTo>
				<gx:duration>0.33</gx:duration>
				<gx:flyToMode>smooth</gx:flyToMode>
				<Camera>
					<longitude>-122.2576693711</longitude>
					<latitude>37.8664802983</latitude>
					<altitude>95.3</altitude>
					<heading>50.00</heading>
					<tilt>72.0</tilt>
					<roll>0</roll>
					<altitudeMode>relativeToGround</altitudeMode>
				</Camera>
			</gx:FlyTo>
			<gx:FlyTo>
				<gx:duration>0.33</gx:duration>
				<gx:flyToMode>smooth</gx:flyToMode>
				<Camera>
					<longitude>-122.2577597825</longitude>
					<latitude>37.8665822313</latitude>
					<altitude>95.3</altitude>
					<heading>60.00</heading>
					<tilt>72.0</tilt>
					<roll>0</roll>
					<altitudeMode>relativeToGround</altitudeMode>
				</Camera>
			</gx:FlyTo>
			<gx:FlyTo>
				<gx:duration>0.33</gx:duration>
				<gx:flyToMode>smooth</gx:flyToMode>
				<Camera>
					<longitude>-122.2578263988</longitude>
					<latitude>37.8666950096</latitude>
					<altitude>95.3</altitude>
					<heading>70.00</heading>
					<tilt>72.0</tilt>
					<roll>0</roll>
					<altitudeMode>relativeToGround</altitudeMode>
				</Camera>
			</gx:FlyTo>
			<gx:FlyTo>
				<gx:duration>0.33</gx:duration>
				<gx:flyToMode>smooth</gx:flyToMode>
				<Camera>
					<longitude>-122.2578671958</longitude>
					<latitude>37.8668152067</latitude>
					<altitude>95.3</altitude>
					<heading>80.00</heading>
					<tilt>72.0</tilt>
					<roll>0</roll>
					<altitudeMode>relativeToGround</altitudeMode>
				</Camera>
			</gx:FlyTo>
			<gx:FlyTo>
				<gx:duration>0.33</gx:duration>
				<gx:flyToMode>smooth</gx:flyToMode>
				<Camera>
					<longitude>-122.2578809339</longitude>
					<latitude>37.8669391703</latitude>
					<altitude>95.3</altitude>
					<heading>90.00</heading>
					<tilt>72.0</tilt>
					<roll>0</roll>
					<altitudeMode>relativeToGround</altitudeMode>
				</Camera>
			</gx:FlyTo>
			<gx:FlyTo>
				<gx:duration>0.33</gx:duration>
				<gx:flyToMode>smooth</gx:flyToMode>
				<Camera>
					<longitude>-122.2578671958</longitude>
					<latitude>37.8670631340</latitude>
					<altitude>95.3</altitude>
					<heading>100.00</heading>
					<tilt>72.0</tilt>
					<roll>0</roll>
					<altitudeMode>relativeToGround</altitudeMode>
				</Camera>
			</gx:FlyTo>
			<gx:FlyTo>
				<gx:duration>0.33</gx:duration>
				<gx:flyToMode>smooth</gx:flyToMode>
				<Camera>
					<longitude>-122.2578263988</longitude>
					<latitude>37.8671833310</latitude>
					<altitude>95.3</altitude>
					<heading>110.00</heading>
					<tilt>72.0</tilt>
					<roll>0</roll>
					<altitudeMode>relativeToGround</altitudeMode>
				</Camera>
			</gx:FlyTo>
			<gx:FlyTo>
				<gx:duration>0.33</gx:duration>
				<gx:flyToMode>smooth</gx:flyToMode>
				<Camera>
					<longitude>-122.2577597825</longitude>
					<latitude>37.8672961094</latitude>
					<altitude>95.3</altitude>
					<heading>120.00</heading>
					<tilt>72.0</tilt>
					<roll>0</roll>
					<altitudeMode>relativeToGround</altitudeMode>
				</Camera>
			</gx:FlyTo>
			<gx:FlyTo>
				<gx:duration>0.33</gx:duration>
				<gx:flyToMode>smooth</gx:flyToMode>
				<Camera>
					<longitude>-122.2576693711</longitude>
					<latitude>37.8673980424</latitude>
					<altitude>95.3</altitude>
					<heading>130.00</heading>
					<tilt>72.0</tilt>
					<roll>0</roll>
					<altitudeMode>relativeToGround</altitudeMode>
				</Camera>
			</gx:FlyTo>
			<gx:FlyTo>
				<gx:duration>0.33</gx:duration>
				<gx:flyToMode>smooth</gx:flyToMode>
				<Camera>
					<longitude>-122.2575579117</longitude>
					<latitude>37.8674860327</latitude>
					<altitude>95.3</altitude>
					<heading>140.00</heading>
					<tilt>72.0</tilt>
					<roll>0</roll>
					<altitudeMode>relativeToGround</altitudeMode>
				</Camera>
			</gx:FlyTo>
			<gx:FlyTo>
				<gx:duration>0.33</gx:duration>
				<gx:flyToMode>smooth</gx:flyToMode>
				<Camera>
					<longitude>-122.2574287909</longitude>
					<latitude>37.8675574070</latitude>
					<altitude>95.3</altitude>
					<heading>150.00</heading>
					<tilt>72.0</tilt>
					<roll>0</roll>
					<altitudeMode>relativeToGround</altitudeMode>
				</Camera>
			</gx:FlyTo>
			<gx:FlyTo>
				<gx:duration>0.33</gx:duration>
				<gx:flyToMode>smooth</gx:flyToMode>
				<Camera>
					<longitude>-122.2572859319</longitude>
					<latitude>37.8676099964</latitude>
					<altitude>95.3</altitude>
					<heading>160.00</heading>
					<tilt>72.0</tilt>
					<roll>0</roll>
					<altitudeMode>relativeToGround</altitudeMode>
				</Camera>
			</gx:FlyTo>
			<gx:FlyTo>
				<gx:duration>0.33</gx:duration>
				<gx:flyToMode>smooth</gx:flyToMode>
				<Camera>
					<longitude>-122.2571336754</longitude>
					<latitude>37.8676422031</latitude>
					<altitude>95.3</altitude>
					<heading>170.00</heading>
					<tilt>72.0</tilt>
					<roll>0</roll>
					<altitudeMode>relativeToGround</altitudeMode>
				</Camera>
			</gx:FlyTo>
			<gx:FlyTo>
				<gx:duration>0.33</gx:duration>
				<gx:flyToMode>smooth</gx:flyToMode>
				<Camera>
					<longitude>-122.2569766478</longitude>
					<latitude>37.8676530485</latitude>
					<altitude>95.3</altitude>
					<heading>180.00</heading>
					<tilt>72.0</tilt>
					<roll>0</roll>
					<altitudeMode>relativeToGround</altitudeMode>
				</Camera>
			</gx:FlyTo>
			<gx:FlyTo>
				<gx:duration>0.33</gx:duration>
				<gx:flyToMode>smooth</gx:flyToMode>
				<Camera>
					<longitude>-122.2568196202</longitude>
					<latitude>37.8676422031</latitude>
					<altitude>95.3</altitude>
					<heading>190.00</heading>
					<tilt>72.0</tilt>
					<roll>0</roll>
					<altitudeMode>relativeToGround</altitudeMode>
				</Camera>
			</gx:FlyTo>
			<gx:FlyTo>
				<gx:duration>0.33</gx:duration>
				<gx:flyToMode>smooth</gx:flyToMode>
				<Camera>
					<longitude>-122.2566673638</longitude>
					<latitude>37.8676099964</latitude>
					<altitude>95.3</altitude>
					<heading>200.00</heading>
					<tilt>72.0</tilt>
					<roll>0</roll>
					<altitudeMode>relativeToGround</altitudeMode>
				</Camera>
			</gx:FlyTo>
			<gx:FlyTo>
				<gx:duration>0.33</gx:duration>
				<gx:flyToMode>smooth</gx:flyToMode>
				<Camera>
					<longitude>-122.2565245048</longitude>
					<latitude>37.8675574070</latitude>
					<altitude>95.3</altitude>
					<heading>210.00</heading>
					<tilt>72.0</tilt>
					<roll>0</roll>
					<altitudeMode>relativeToGround</altitudeMode>
				</Camera>
			</gx:FlyTo>
			<gx:FlyTo>
				<gx:duration>0.33</gx:duration>
				<gx:flyToMode>smooth</gx:flyToMode>
				<Camera>
					<longitude>-122.2563953839</longitude>
					<latitude>37.8674860327</latitude>
					<altitude>95.3</altitude>
					<heading>220.00</heading>
					<tilt>72.0</tilt>
					<roll>0</roll>
					<altitudeMode>relativeToGround</altitudeMode>
				</Camera>
			</gx:FlyTo>
			<gx:FlyTo>
				<gx:duration>0.33</gx:duration>
				<gx:flyToMode>smooth</gx:flyToMode>
				<Camera>
					<longitude>-122.2562839245</longitude>
					<latitude>37.8673980424</latitude>
					<altitude>95.3</altitude>
					<heading>230.00</heading>
					<tilt>72.0</tilt>
					<roll>0</roll>
					<altitudeMode>relativeToGround</altitudeMode>
				</Camera>
			</gx:FlyTo>
			<gx:FlyTo>
				<gx:duration>0.33</gx:duration>
				<gx:flyToMode>smooth</gx:flyToMode>
				<Camera>
					<longitude>-122.2561935131</longitude>
					<latitude>37.8672961094</latitude>
					<altitude>95.3</altitude>
					<heading>240.00</heading>
					<tilt>72.0</tilt>
					<roll>0</roll>
					<altitudeMode>relativeToGround</altitudeMode>
				</Camera>
			</gx:FlyTo>
			<gx:FlyTo>
				<gx:duration>0.33</gx:duration>
				<gx:flyToMode>smooth</gx:flyToMode>
				<Camera>
					<longitude>-122.2561268969</longitude>
					<latitude>37.8671833310</latitude>
					<altitude>95.3</altitude>
					<heading>250.00</heading>
					<tilt>72.0</tilt>
					<roll>0</roll>
					<altitudeMode>relativeToGround</altitudeMode>
				</Camera>
			</gx:FlyTo>
			<gx:FlyTo>
				<gx:duration>0.33</gx:duration>
				<gx:flyToMode>smooth</gx:flyToMode>
				<Camera>
					<longitude>-122.2560860999</longitude>
					<latitude>37.8670631340</latitude>
					<altitude>95.3</altitude>
					<heading>260.00</heading>
					<tilt>72.0</tilt>
					<roll>0</roll>
					<altitudeMode>relativeToGround</altitudeMode>
				</Camera>
			</gx:FlyTo>
			<gx:FlyTo>
				<gx:duration>0.33</gx:duration>
				<gx:flyToMode>smooth</gx:flyToMode>
				<Camera>
					<longitude>-122.2560723617</longitude>
					<latitude>37.8669391703</latitude>
					<altitude>95.3</altitude>
					<heading>270.00</heading>
					<tilt>72.0</tilt>
					<roll>0</roll>
					<altitudeMode>relativeToGround</altitudeMode>
				</Camera>
			</gx:FlyTo>
		</gx:Playlist>
	</gx:Tour>
</Document>
</kml>
