<?xml version="1.0" encoding="UTF-8"?>
<kml xmlns="http://www.opengis.net/kml/2.2" xmlns:gx="http://www.google.com/kml/ext/2.2">
<Document>
	<name>2601 San Pablo Ave · 223 units · In Review · loop</name>
	<description><![CDATA[Standalone building loop, generated by scripts/gen_building_loop.py. Plan view 180 m -> spiral -> 1.2 turns -> eye level 38 m at radius 69 m. Altitudes derive from this building's extrusion height (28.0 m), so a corrected height re-cuts the shot. Load alongside geometry.kml.]]></description>
	<gx:Tour>
		<name>2601 San Pablo Ave · 223 units · In Review · loop</name>
		<gx:Playlist>
			<gx:FlyTo>
				<gx:duration>0.92</gx:duration>
				<gx:flyToMode>bounce</gx:flyToMode>
				<Camera>
					<longitude>-122.2886732268</longitude>
					<latitude>37.8592731240</latitude>
					<altitude>180.0</altitude>
					<heading>0.00</heading>
					<tilt>0.0</tilt>
					<roll>0</roll>
					<altitudeMode>relativeToGround</altitudeMode>
				</Camera>
			</gx:FlyTo>
			<gx:FlyTo>
				<gx:duration>0.92</gx:duration>
				<gx:flyToMode>smooth</gx:flyToMode>
				<Camera>
					<longitude>-122.2886732268</longitude>
					<latitude>37.8592731240</latitude>
					<altitude>180.0</altitude>
					<heading>7.50</heading>
					<tilt>0.0</tilt>
					<roll>0</roll>
					<altitudeMode>relativeToGround</altitudeMode>
				</Camera>
			</gx:FlyTo>
			<gx:FlyTo>
				<gx:duration>0.92</gx:duration>
				<gx:flyToMode>smooth</gx:flyToMode>
				<Camera>
					<longitude>-122.2886732268</longitude>
					<latitude>37.8592731240</latitude>
					<altitude>180.0</altitude>
					<heading>15.00</heading>
					<tilt>0.0</tilt>
					<roll>0</roll>
					<altitudeMode>relativeToGround</altitudeMode>
				</Camera>
			</gx:FlyTo>
			<gx:FlyTo>
				<gx:duration>0.92</gx:duration>
				<gx:flyToMode>smooth</gx:flyToMode>
				<Camera>
					<longitude>-122.2886732268</longitude>
					<latitude>37.8592731240</latitude>
					<altitude>180.0</altitude>
					<heading>22.50</heading>
					<tilt>0.0</tilt>
					<roll>0</roll>
					<altitudeMode>relativeToGround</altitudeMode>
				</Camera>
			</gx:FlyTo>
			<gx:FlyTo>
				<gx:duration>0.92</gx:duration>
				<gx:flyToMode>smooth</gx:flyToMode>
				<Camera>
					<longitude>-122.2886732268</longitude>
					<latitude>37.8592731240</latitude>
					<altitude>180.0</altitude>
					<heading>30.00</heading>
					<tilt>0.0</tilt>
					<roll>0</roll>
					<altitudeMode>relativeToGround</altitudeMode>
				</Camera>
			</gx:FlyTo>
			<gx:FlyTo>
				<gx:duration>0.92</gx:duration>
				<gx:flyToMode>smooth</gx:flyToMode>
				<Camera>
					<longitude>-122.2886732268</longitude>
					<latitude>37.8592731240</latitude>
					<altitude>180.0</altitude>
					<heading>37.50</heading>
					<tilt>0.0</tilt>
					<roll>0</roll>
					<altitudeMode>relativeToGround</altitudeMode>
				</Camera>
			</gx:FlyTo>
			<gx:FlyTo>
				<gx:duration>0.92</gx:duration>
				<gx:flyToMode>smooth</gx:flyToMode>
				<Camera>
					<longitude>-122.2886732268</longitude>
					<latitude>37.8592731240</latitude>
					<altitude>180.0</altitude>
					<heading>45.00</heading>
					<tilt>0.0</tilt>
					<roll>0</roll>
					<altitudeMode>relativeToGround</altitudeMode>
				</Camera>
			</gx:FlyTo>
			<gx:FlyTo>
				<gx:duration>0.92</gx:duration>
				<gx:flyToMode>smooth</gx:flyToMode>
				<Camera>
					<longitude>-122.2886732268</longitude>
					<latitude>37.8592731240</latitude>
					<altitude>180.0</altitude>
					<heading>52.50</heading>
					<tilt>0.0</tilt>
					<roll>0</roll>
					<altitudeMode>relativeToGround</altitudeMode>
				</Camera>
			</gx:FlyTo>
			<gx:FlyTo>
				<gx:duration>0.92</gx:duration>
				<gx:flyToMode>smooth</gx:flyToMode>
				<Camera>
					<longitude>-122.2886732268</longitude>
					<latitude>37.8592731240</latitude>
					<altitude>180.0</altitude>
					<heading>60.00</heading>
					<tilt>0.0</tilt>
					<roll>0</roll>
					<altitudeMode>relativeToGround</altitudeMode>
				</Camera>
			</gx:FlyTo>
			<gx:FlyTo>
				<gx:duration>0.92</gx:duration>
				<gx:flyToMode>smooth</gx:flyToMode>
				<Camera>
					<longitude>-122.2886732268</longitude>
					<latitude>37.8592731240</latitude>
					<altitude>180.0</altitude>
					<heading>67.50</heading>
					<tilt>0.0</tilt>
					<roll>0</roll>
					<altitudeMode>relativeToGround</altitudeMode>
				</Camera>
			</gx:FlyTo>
			<gx:FlyTo>
				<gx:duration>0.92</gx:duration>
				<gx:flyToMode>smooth</gx:flyToMode>
				<Camera>
					<longitude>-122.2886732268</longitude>
					<latitude>37.8592731240</latitude>
					<altitude>180.0</altitude>
					<heading>75.00</heading>
					<tilt>0.0</tilt>
					<roll>0</roll>
					<altitudeMode>relativeToGround</altitudeMode>
				</Camera>
			</gx:FlyTo>
			<gx:FlyTo>
				<gx:duration>0.92</gx:duration>
				<gx:flyToMode>smooth</gx:flyToMode>
				<Camera>
					<longitude>-122.2886732268</longitude>
					<latitude>37.8592731240</latitude>
					<altitude>180.0</altitude>
					<heading>82.50</heading>
					<tilt>0.0</tilt>
					<roll>0</roll>
					<altitudeMode>relativeToGround</altitudeMode>
				</Camera>
			</gx:FlyTo>
			<gx:FlyTo>
				<gx:duration>0.58</gx:duration>
				<gx:flyToMode>smooth</gx:flyToMode>
				<Camera>
					<longitude>-122.2886730291</longitude>
					<latitude>37.8592740093</latitude>
					<altitude>179.8</altitude>
					<heading>190.00</heading>
					<tilt>0.1</tilt>
					<roll>0</roll>
					<altitudeMode>relativeToGround</altitudeMode>
				</Camera>
			</gx:FlyTo>
			<gx:FlyTo>
				<gx:duration>0.58</gx:duration>
				<gx:flyToMode>smooth</gx:flyToMode>
				<Camera>
					<longitude>-122.2886716926</longitude>
					<latitude>37.8592764521</latitude>
					<altitude>179.2</altitude>
					<heading>200.00</heading>
					<tilt>0.4</tilt>
					<roll>0</roll>
					<altitudeMode>relativeToGround</altitudeMode>
				</Camera>
			</gx:FlyTo>
			<gx:FlyTo>
				<gx:duration>0.58</gx:duration>
				<gx:flyToMode>smooth</gx:flyToMode>
				<Camera>
					<longitude>-122.2886682572</longitude>
					<latitude>37.8592799199</latitude>
					<altitude>178.2</altitude>
					<heading>210.00</heading>
					<tilt>0.9</tilt>
					<roll>0</roll>
					<altitudeMode>relativeToGround</altitudeMode>
				</Camera>
			</gx:FlyTo>
			<gx:FlyTo>
				<gx:duration>0.58</gx:duration>
				<gx:flyToMode>smooth</gx:flyToMode>
				<Camera>
					<longitude>-122.2886620451</longitude>
					<latitude>37.8592836450</latitude>
					<altitude>176.8</altitude>
					<heading>220.00</heading>
					<tilt>1.6</tilt>
					<roll>0</roll>
					<altitudeMode>relativeToGround</altitudeMode>
				</Camera>
			</gx:FlyTo>
			<gx:FlyTo>
				<gx:duration>0.58</gx:duration>
				<gx:flyToMode>smooth</gx:flyToMode>
				<Camera>
					<longitude>-122.2886527331</longitude>
					<latitude>37.8592867008</latitude>
					<altitude>175.1</altitude>
					<heading>230.00</heading>
					<tilt>2.5</tilt>
					<roll>0</roll>
					<altitudeMode>relativeToGround</altitudeMode>
				</Camera>
			</gx:FlyTo>
			<gx:FlyTo>
				<gx:duration>0.58</gx:duration>
				<gx:flyToMode>smooth</gx:flyToMode>
				<Camera>
					<longitude>-122.2886403980</longitude>
					<latitude>37.8592880884</latitude>
					<altitude>173.1</altitude>
					<heading>240.00</heading>
					<tilt>3.5</tilt>
					<roll>0</roll>
					<altitudeMode>relativeToGround</altitudeMode>
				</Camera>
			</gx:FlyTo>
			<gx:FlyTo>
				<gx:duration>0.58</gx:duration>
				<gx:flyToMode>smooth</gx:flyToMode>
				<Camera>
					<longitude>-122.2886255306</longitude>
					<latitude>37.8592868301</latitude>
					<altitude>170.8</altitude>
					<heading>250.00</heading>
					<tilt>4.7</tilt>
					<roll>0</roll>
					<altitudeMode>relativeToGround</altitudeMode>
				</Camera>
			</gx:FlyTo>
			<gx:FlyTo>
				<gx:duration>0.58</gx:duration>
				<gx:flyToMode>smooth</gx:flyToMode>
				<Camera>
					<longitude>-122.2886090179</longitude>
					<latitude>37.8592820628</latitude>
					<altitude>168.1</altitude>
					<heading>260.00</heading>
					<tilt>6.0</tilt>
					<roll>0</roll>
					<altitudeMode>relativeToGround</altitudeMode>
				</Camera>
			</gx:FlyTo>
			<gx:FlyTo>
				<gx:duration>0.58</gx:duration>
				<gx:flyToMode>smooth</gx:flyToMode>
				<Camera>
					<longitude>-122.2885920956</longitude>
					<latitude>37.8592731240</latitude>
					<altitude>165.2</altitude>
					<heading>270.00</heading>
					<tilt>7.5</tilt>
					<roll>0</roll>
					<altitudeMode>relativeToGround</altitudeMode>
				</Camera>
			</gx:FlyTo>
			<gx:FlyTo>
				<gx:duration>0.58</gx:duration>
				<gx:flyToMode>smooth</gx:flyToMode>
				<Camera>
					<longitude>-122.2885762727</longitude>
					<latitude>37.8592596267</latitude>
					<altitude>162.1</altitude>
					<heading>280.00</heading>
					<tilt>9.1</tilt>
					<roll>0</roll>
					<altitudeMode>relativeToGround</altitudeMode>
				</Camera>
			</gx:FlyTo>
			<gx:FlyTo>
				<gx:duration>0.58</gx:duration>
				<gx:flyToMode>smooth</gx:flyToMode>
				<Camera>
					<longitude>-122.2885632334</longitude>
					<latitude>37.8592415161</latitude>
					<altitude>158.7</altitude>
					<heading>290.00</heading>
					<tilt>10.8</tilt>
					<roll>0</roll>
					<altitudeMode>relativeToGround</altitudeMode>
				</Camera>
			</gx:FlyTo>
			<gx:FlyTo>
				<gx:duration>0.58</gx:duration>
				<gx:flyToMode>smooth</gx:flyToMode>
				<Camera>
					<longitude>-122.2885547228</longitude>
					<latitude>37.8592191063</latitude>
					<altitude>155.1</altitude>
					<heading>300.00</heading>
					<tilt>12.6</tilt>
					<roll>0</roll>
					<altitudeMode>relativeToGround</altitudeMode>
				</Camera>
			</gx:FlyTo>
			<gx:FlyTo>
				<gx:duration>0.58</gx:duration>
				<gx:flyToMode>smooth</gx:flyToMode>
				<Camera>
					<longitude>-122.2885524220</longitude>
					<latitude>37.8591930925</latitude>
					<altitude>151.3</altitude>
					<heading>310.00</heading>
					<tilt>14.6</tilt>
					<roll>0</roll>
					<altitudeMode>relativeToGround</altitudeMode>
				</Camera>
			</gx:FlyTo>
			<gx:FlyTo>
				<gx:duration>0.58</gx:duration>
				<gx:flyToMode>smooth</gx:flyToMode>
				<Camera>
					<longitude>-122.2885578219</longitude>
					<latitude>37.8591645379</latitude>
					<altitude>147.3</altitude>
					<heading>320.00</heading>
					<tilt>16.6</tilt>
					<roll>0</roll>
					<altitudeMode>relativeToGround</altitudeMode>
				</Camera>
			</gx:FlyTo>
			<gx:FlyTo>
				<gx:duration>0.58</gx:duration>
				<gx:flyToMode>smooth</gx:flyToMode>
				<Camera>
					<longitude>-122.2885721017</longitude>
					<latitude>37.8591348365</latitude>
					<altitude>143.2</altitude>
					<heading>330.00</heading>
					<tilt>18.7</tilt>
					<roll>0</roll>
					<altitudeMode>relativeToGround</altitudeMode>
				</Camera>
			</gx:FlyTo>
			<gx:FlyTo>
				<gx:duration>0.58</gx:duration>
				<gx:flyToMode>smooth</gx:flyToMode>
				<Camera>
					<longitude>-122.2885960217</longitude>
					<latitude>37.8591056515</latitude>
					<altitude>138.9</altitude>
					<heading>340.00</heading>
					<tilt>20.8</tilt>
					<roll>0</roll>
					<altitudeMode>relativeToGround</altitudeMode>
				</Camera>
			</gx:FlyTo>
			<gx:FlyTo>
				<gx:duration>0.58</gx:duration>
				<gx:flyToMode>smooth</gx:flyToMode>
				<Camera>
					<longitude>-122.2886298351</longitude>
					<latitude>37.8590788337</latitude>
					<altitude>134.5</altitude>
					<heading>350.00</heading>
					<tilt>23.1</tilt>
					<roll>0</roll>
					<altitudeMode>relativeToGround</altitudeMode>
				</Camera>
			</gx:FlyTo>
			<gx:FlyTo>
				<gx:duration>0.58</gx:duration>
				<gx:flyToMode>smooth</gx:flyToMode>
				<Camera>
					<longitude>-122.2886732268</longitude>
					<latitude>37.8590563233</latitude>
					<altitude>130.0</altitude>
					<heading>0.00</heading>
					<tilt>25.3</tilt>
					<roll>0</roll>
					<altitudeMode>relativeToGround</altitudeMode>
				</Camera>
			</gx:FlyTo>
			<gx:FlyTo>
				<gx:duration>0.58</gx:duration>
				<gx:flyToMode>smooth</gx:flyToMode>
				<Camera>
					<longitude>-122.2887252823</longitude>
					<latitude>37.8590400409</latitude>
					<altitude>125.4</altitude>
					<heading>10.00</heading>
					<tilt>27.7</tilt>
					<roll>0</roll>
					<altitudeMode>relativeToGround</altitudeMode>
				</Camera>
			</gx:FlyTo>
			<gx:FlyTo>
				<gx:duration>0.58</gx:duration>
				<gx:flyToMode>smooth</gx:flyToMode>
				<Camera>
					<longitude>-122.2887844902</longitude>
					<latitude>37.8590317726</latitude>
					<altitude>120.8</altitude>
					<heading>20.00</heading>
					<tilt>30.0</tilt>
					<roll>0</roll>
					<altitudeMode>relativeToGround</altitudeMode>
				</Camera>
			</gx:FlyTo>
			<gx:FlyTo>
				<gx:duration>0.58</gx:duration>
				<gx:flyToMode>smooth</gx:flyToMode>
				<Camera>
					<longitude>-122.2888487800</longitude>
					<latitude>37.8590330569</latitude>
					<altitude>116.1</altitude>
					<heading>30.00</heading>
					<tilt>32.4</tilt>
					<roll>0</roll>
					<altitudeMode>relativeToGround</altitudeMode>
				</Camera>
			</gx:FlyTo>
			<gx:FlyTo>
				<gx:duration>0.58</gx:duration>
				<gx:flyToMode>smooth</gx:flyToMode>
				<Camera>
					<longitude>-122.2889155926</longitude>
					<latitude>37.8590450787</latitude>
					<altitude>111.4</altitude>
					<heading>40.00</heading>
					<tilt>34.8</tilt>
					<roll>0</roll>
					<altitudeMode>relativeToGround</altitudeMode>
				</Camera>
			</gx:FlyTo>
			<gx:FlyTo>
				<gx:duration>0.58</gx:duration>
				<gx:flyToMode>smooth</gx:flyToMode>
				<Camera>
					<longitude>-122.2889819837</longitude>
					<latitude>37.8590685768</latitude>
					<altitude>106.6</altitude>
					<heading>50.00</heading>
					<tilt>37.2</tilt>
					<roll>0</roll>
					<altitudeMode>relativeToGround</altitudeMode>
				</Camera>
			</gx:FlyTo>
			<gx:FlyTo>
				<gx:duration>0.58</gx:duration>
				<gx:flyToMode>smooth</gx:flyToMode>
				<Camera>
					<longitude>-122.2890447530</longitude>
					<latitude>37.8591037713</latitude>
					<altitude>101.9</altitude>
					<heading>60.00</heading>
					<tilt>39.6</tilt>
					<roll>0</roll>
					<altitudeMode>relativeToGround</altitudeMode>
				</Camera>
			</gx:FlyTo>
			<gx:FlyTo>
				<gx:duration>0.58</gx:duration>
				<gx:flyToMode>smooth</gx:flyToMode>
				<Camera>
					<longitude>-122.2891005946</longitude>
					<latitude>37.8591503148</latitude>
					<altitude>97.2</altitude>
					<heading>70.00</heading>
					<tilt>42.0</tilt>
					<roll>0</roll>
					<altitudeMode>relativeToGround</altitudeMode>
				</Camera>
			</gx:FlyTo>
			<gx:FlyTo>
				<gx:duration>0.58</gx:duration>
				<gx:flyToMode>smooth</gx:flyToMode>
				<Camera>
					<longitude>-122.2891462619</longitude>
					<latitude>37.8592072710</latitude>
					<altitude>92.6</altitude>
					<heading>80.00</heading>
					<tilt>44.3</tilt>
					<roll>0</roll>
					<altitudeMode>relativeToGround</altitudeMode>
				</Camera>
			</gx:FlyTo>
			<gx:FlyTo>
				<gx:duration>0.58</gx:duration>
				<gx:flyToMode>smooth</gx:flyToMode>
				<Camera>
					<longitude>-122.2891787366</longitude>
					<latitude>37.8592731240</latitude>
					<altitude>88.0</altitude>
					<heading>90.00</heading>
					<tilt>46.7</tilt>
					<roll>0</roll>
					<altitudeMode>relativeToGround</altitudeMode>
				</Camera>
			</gx:FlyTo>
			<gx:FlyTo>
				<gx:duration>0.58</gx:duration>
				<gx:flyToMode>smooth</gx:flyToMode>
				<Camera>
					<longitude>-122.2891953965</longitude>
					<latitude>37.8593458172</latitude>
					<altitude>83.5</altitude>
					<heading>100.00</heading>
					<tilt>48.9</tilt>
					<roll>0</roll>
					<altitudeMode>relativeToGround</altitudeMode>
				</Camera>
			</gx:FlyTo>
			<gx:FlyTo>
				<gx:duration>0.58</gx:duration>
				<gx:flyToMode>smooth</gx:flyToMode>
				<Camera>
					<longitude>-122.2891941691</longitude>
					<latitude>37.8594228230</latitude>
					<altitude>79.1</altitude>
					<heading>110.00</heading>
					<tilt>51.2</tilt>
					<roll>0</roll>
					<altitudeMode>relativeToGround</altitudeMode>
				</Camera>
			</gx:FlyTo>
			<gx:FlyTo>
				<gx:duration>0.58</gx:duration>
				<gx:flyToMode>smooth</gx:flyToMode>
				<Camera>
					<longitude>-122.2891736662</longitude>
					<latitude>37.8595012392</latitude>
					<altitude>74.8</altitude>
					<heading>120.00</heading>
					<tilt>53.3</tilt>
					<roll>0</roll>
					<altitudeMode>relativeToGround</altitudeMode>
				</Camera>
			</gx:FlyTo>
			<gx:FlyTo>
				<gx:duration>0.58</gx:duration>
				<gx:flyToMode>smooth</gx:flyToMode>
				<Camera>
					<longitude>-122.2891332898</longitude>
					<latitude>37.8595779095</latitude>
					<altitude>70.7</altitude>
					<heading>130.00</heading>
					<tilt>55.4</tilt>
					<roll>0</roll>
					<altitudeMode>relativeToGround</altitudeMode>
				</Camera>
			</gx:FlyTo>
			<gx:FlyTo>
				<gx:duration>0.58</gx:duration>
				<gx:flyToMode>smooth</gx:flyToMode>
				<Camera>
					<longitude>-122.2890733032</longitude>
					<latitude>37.8596495614</latitude>
					<altitude>66.7</altitude>
					<heading>140.00</heading>
					<tilt>57.4</tilt>
					<roll>0</roll>
					<altitudeMode>relativeToGround</altitudeMode>
				</Camera>
			</gx:FlyTo>
			<gx:FlyTo>
				<gx:duration>0.58</gx:duration>
				<gx:flyToMode>smooth</gx:flyToMode>
				<Camera>
					<longitude>-122.2889948624</longitude>
					<latitude>37.8597129573</latitude>
					<altitude>62.9</altitude>
					<heading>150.00</heading>
					<tilt>59.4</tilt>
					<roll>0</roll>
					<altitudeMode>relativeToGround</altitudeMode>
				</Camera>
			</gx:FlyTo>
			<gx:FlyTo>
				<gx:duration>0.58</gx:duration>
				<gx:flyToMode>smooth</gx:flyToMode>
				<Camera>
					<longitude>-122.2889000051</longitude>
					<latitude>37.8597650491</latitude>
					<altitude>59.3</altitude>
					<heading>160.00</heading>
					<tilt>61.2</tilt>
					<roll>0</roll>
					<altitudeMode>relativeToGround</altitudeMode>
				</Camera>
			</gx:FlyTo>
			<gx:FlyTo>
				<gx:duration>0.58</gx:duration>
				<gx:flyToMode>smooth</gx:flyToMode>
				<Camera>
					<longitude>-122.2887915955</longitude>
					<latitude>37.8598031308</latitude>
					<altitude>55.9</altitude>
					<heading>170.00</heading>
					<tilt>62.9</tilt>
					<roll>0</roll>
					<altitudeMode>relativeToGround</altitudeMode>
				</Camera>
			</gx:FlyTo>
			<gx:FlyTo>
				<gx:duration>0.58</gx:duration>
				<gx:flyToMode>smooth</gx:flyToMode>
				<Camera>
					<longitude>-122.2886732268</longitude>
					<latitude>37.8598249804</latitude>
					<altitude>52.8</altitude>
					<heading>180.00</heading>
					<tilt>64.5</tilt>
					<roll>0</roll>
					<altitudeMode>relativeToGround</altitudeMode>
				</Camera>
			</gx:FlyTo>
			<gx:FlyTo>
				<gx:duration>0.58</gx:duration>
				<gx:flyToMode>smooth</gx:flyToMode>
				<Camera>
					<longitude>-122.2885490843</longitude>
					<latitude>37.8598289838</latitude>
					<altitude>49.9</altitude>
					<heading>190.00</heading>
					<tilt>66.0</tilt>
					<roll>0</roll>
					<altitudeMode>relativeToGround</altitudeMode>
				</Camera>
			</gx:FlyTo>
			<gx:FlyTo>
				<gx:duration>0.58</gx:duration>
				<gx:flyToMode>smooth</gx:flyToMode>
				<Camera>
					<longitude>-122.2884237743</longitude>
					<latitude>37.8598142340</latitude>
					<altitude>47.2</altitude>
					<heading>200.00</heading>
					<tilt>67.3</tilt>
					<roll>0</roll>
					<altitudeMode>relativeToGround</altitudeMode>
				</Camera>
			</gx:FlyTo>
			<gx:FlyTo>
				<gx:duration>0.58</gx:duration>
				<gx:flyToMode>smooth</gx:flyToMode>
				<Camera>
					<longitude>-122.2883021267</longitude>
					<latitude>37.8597805996</latitude>
					<altitude>44.9</altitude>
					<heading>210.00</heading>
					<tilt>68.5</tilt>
					<roll>0</roll>
					<altitudeMode>relativeToGround</altitudeMode>
				</Camera>
			</gx:FlyTo>
			<gx:FlyTo>
				<gx:duration>0.58</gx:duration>
				<gx:flyToMode>smooth</gx:flyToMode>
				<Camera>
					<longitude>-122.2881889795</longitude>
					<latitude>37.8597287591</latitude>
					<altitude>42.9</altitude>
					<heading>220.00</heading>
					<tilt>69.5</tilt>
					<roll>0</roll>
					<altitudeMode>relativeToGround</altitudeMode>
				</Camera>
			</gx:FlyTo>
			<gx:FlyTo>
				<gx:duration>0.58</gx:duration>
				<gx:flyToMode>smooth</gx:flyToMode>
				<Camera>
					<longitude>-122.2880889555</longitude>
					<latitude>37.8596601958</latitude>
					<altitude>41.2</altitude>
					<heading>230.00</heading>
					<tilt>70.4</tilt>
					<roll>0</roll>
					<altitudeMode>relativeToGround</altitudeMode>
				</Camera>
			</gx:FlyTo>
			<gx:FlyTo>
				<gx:duration>0.58</gx:duration>
				<gx:flyToMode>smooth</gx:flyToMode>
				<Camera>
					<longitude>-122.2880062412</longitude>
					<latitude>37.8595771560</latitude>
					<altitude>39.8</altitude>
					<heading>240.00</heading>
					<tilt>71.1</tilt>
					<roll>0</roll>
					<altitudeMode>relativeToGround</altitudeMode>
				</Camera>
			</gx:FlyTo>
			<gx:FlyTo>
				<gx:duration>0.58</gx:duration>
				<gx:flyToMode>smooth</gx:flyToMode>
				<Camera>
					<longitude>-122.2879443807</longitude>
					<latitude>37.8594825667</latitude>
					<altitude>38.8</altitude>
					<heading>250.00</heading>
					<tilt>71.6</tilt>
					<roll>0</roll>
					<altitudeMode>relativeToGround</altitudeMode>
				</Camera>
			</gx:FlyTo>
			<gx:FlyTo>
				<gx:duration>0.58</gx:duration>
				<gx:flyToMode>smooth</gx:flyToMode>
				<Camera>
					<longitude>-122.2879060919</longitude>
					<latitude>37.8593799198</latitude>
					<altitude>38.2</altitude>
					<heading>260.00</heading>
					<tilt>71.9</tilt>
					<roll>0</roll>
					<altitudeMode>relativeToGround</altitudeMode>
				</Camera>
			</gx:FlyTo>
			<gx:FlyTo>
				<gx:duration>0.58</gx:duration>
				<gx:flyToMode>smooth</gx:flyToMode>
				<Camera>
					<longitude>-122.2878931191</longitude>
					<latitude>37.8592731240</latitude>
					<altitude>38.0</altitude>
					<heading>270.00</heading>
					<tilt>72.0</tilt>
					<roll>0</roll>
					<altitudeMode>relativeToGround</altitudeMode>
				</Camera>
			</gx:FlyTo>
			<gx:FlyTo>
				<gx:duration>0.61</gx:duration>
				<gx:flyToMode>smooth</gx:flyToMode>
				<Camera>
					<longitude>-122.2879049707</longitude>
					<latitude>37.8591661722</latitude>
					<altitude>38.0</altitude>
					<heading>280.00</heading>
					<tilt>72.0</tilt>
					<roll>0</roll>
					<altitudeMode>relativeToGround</altitudeMode>
				</Camera>
			</gx:FlyTo>
			<gx:FlyTo>
				<gx:duration>0.61</gx:duration>
				<gx:flyToMode>smooth</gx:flyToMode>
				<Camera>
					<longitude>-122.2879401653</longitude>
					<latitude>37.8590624700</latitude>
					<altitude>38.0</altitude>
					<heading>290.00</heading>
					<tilt>72.0</tilt>
					<roll>0</roll>
					<altitudeMode>relativeToGround</altitudeMode>
				</Camera>
			</gx:FlyTo>
			<gx:FlyTo>
				<gx:duration>0.61</gx:duration>
				<gx:flyToMode>smooth</gx:flyToMode>
				<Camera>
					<longitude>-122.2879976337</longitude>
					<latitude>37.8589651685</latitude>
					<altitude>38.0</altitude>
					<heading>300.00</heading>
					<tilt>72.0</tilt>
					<roll>0</roll>
					<altitudeMode>relativeToGround</altitudeMode>
				</Camera>
			</gx:FlyTo>
			<gx:FlyTo>
				<gx:duration>0.61</gx:duration>
				<gx:flyToMode>smooth</gx:flyToMode>
				<Camera>
					<longitude>-122.2880756296</longitude>
					<latitude>37.8588772240</latitude>
					<altitude>38.0</altitude>
					<heading>310.00</heading>
					<tilt>72.0</tilt>
					<roll>0</roll>
					<altitudeMode>relativeToGround</altitudeMode>
				</Camera>
			</gx:FlyTo>
			<gx:FlyTo>
				<gx:duration>0.61</gx:duration>
				<gx:flyToMode>smooth</gx:flyToMode>
				<Camera>
					<longitude>-122.2881717832</longitude>
					<latitude>37.8588013088</latitude>
					<altitude>38.0</altitude>
					<heading>320.00</heading>
					<tilt>72.0</tilt>
					<roll>0</roll>
					<altitudeMode>relativeToGround</altitudeMode>
				</Camera>
			</gx:FlyTo>
			<gx:FlyTo>
				<gx:duration>0.61</gx:duration>
				<gx:flyToMode>smooth</gx:flyToMode>
				<Camera>
					<longitude>-122.2882831729</longitude>
					<latitude>37.8587397294</latitude>
					<altitude>38.0</altitude>
					<heading>330.00</heading>
					<tilt>72.0</tilt>
					<roll>0</roll>
					<altitudeMode>relativeToGround</altitudeMode>
				</Camera>
			</gx:FlyTo>
			<gx:FlyTo>
				<gx:duration>0.61</gx:duration>
				<gx:flyToMode>smooth</gx:flyToMode>
				<Camera>
					<longitude>-122.2884064143</longitude>
					<latitude>37.8586943569</latitude>
					<altitude>38.0</altitude>
					<heading>340.00</heading>
					<tilt>72.0</tilt>
					<roll>0</roll>
					<altitudeMode>relativeToGround</altitudeMode>
				</Camera>
			</gx:FlyTo>
			<gx:FlyTo>
				<gx:duration>0.61</gx:duration>
				<gx:flyToMode>smooth</gx:flyToMode>
				<Camera>
					<longitude>-122.2885377625</longitude>
					<latitude>37.8586665700</latitude>
					<altitude>38.0</altitude>
					<heading>350.00</heading>
					<tilt>72.0</tilt>
					<roll>0</roll>
					<altitudeMode>relativeToGround</altitudeMode>
				</Camera>
			</gx:FlyTo>
			<gx:FlyTo>
				<gx:duration>0.61</gx:duration>
				<gx:flyToMode>smooth</gx:flyToMode>
				<Camera>
					<longitude>-122.2886732268</longitude>
					<latitude>37.8586572129</latitude>
					<altitude>38.0</altitude>
					<heading>0.00</heading>
					<tilt>72.0</tilt>
					<roll>0</roll>
					<altitudeMode>relativeToGround</altitudeMode>
				</Camera>
			</gx:FlyTo>
			<gx:FlyTo>
				<gx:duration>0.61</gx:duration>
				<gx:flyToMode>smooth</gx:flyToMode>
				<Camera>
					<longitude>-122.2888086911</longitude>
					<latitude>37.8586665700</latitude>
					<altitude>38.0</altitude>
					<heading>10.00</heading>
					<tilt>72.0</tilt>
					<roll>0</roll>
					<altitudeMode>relativeToGround</altitudeMode>
				</Camera>
			</gx:FlyTo>
			<gx:FlyTo>
				<gx:duration>0.61</gx:duration>
				<gx:flyToMode>smooth</gx:flyToMode>
				<Camera>
					<longitude>-122.2889400394</longitude>
					<latitude>37.8586943569</latitude>
					<altitude>38.0</altitude>
					<heading>20.00</heading>
					<tilt>72.0</tilt>
					<roll>0</roll>
					<altitudeMode>relativeToGround</altitudeMode>
				</Camera>
			</gx:FlyTo>
			<gx:FlyTo>
				<gx:duration>0.61</gx:duration>
				<gx:flyToMode>smooth</gx:flyToMode>
				<Camera>
					<longitude>-122.2890632807</longitude>
					<latitude>37.8587397294</latitude>
					<altitude>38.0</altitude>
					<heading>30.00</heading>
					<tilt>72.0</tilt>
					<roll>0</roll>
					<altitudeMode>relativeToGround</altitudeMode>
				</Camera>
			</gx:FlyTo>
			<gx:FlyTo>
				<gx:duration>0.61</gx:duration>
				<gx:flyToMode>smooth</gx:flyToMode>
				<Camera>
					<longitude>-122.2891746704</longitude>
					<latitude>37.8588013088</latitude>
					<altitude>38.0</altitude>
					<heading>40.00</heading>
					<tilt>72.0</tilt>
					<roll>0</roll>
					<altitudeMode>relativeToGround</altitudeMode>
				</Camera>
			</gx:FlyTo>
			<gx:FlyTo>
				<gx:duration>0.61</gx:duration>
				<gx:flyToMode>smooth</gx:flyToMode>
				<Camera>
					<longitude>-122.2892708240</longitude>
					<latitude>37.8588772240</latitude>
					<altitude>38.0</altitude>
					<heading>50.00</heading>
					<tilt>72.0</tilt>
					<roll>0</roll>
					<altitudeMode>relativeToGround</altitudeMode>
				</Camera>
			</gx:FlyTo>
			<gx:FlyTo>
				<gx:duration>0.61</gx:duration>
				<gx:flyToMode>smooth</gx:flyToMode>
				<Camera>
					<longitude>-122.2893488200</longitude>
					<latitude>37.8589651685</latitude>
					<altitude>38.0</altitude>
					<heading>60.00</heading>
					<tilt>72.0</tilt>
					<roll>0</roll>
					<altitudeMode>relativeToGround</altitudeMode>
				</Camera>
			</gx:FlyTo>
			<gx:FlyTo>
				<gx:duration>0.61</gx:duration>
				<gx:flyToMode>smooth</gx:flyToMode>
				<Camera>
					<longitude>-122.2894062883</longitude>
					<latitude>37.8590624700</latitude>
					<altitude>38.0</altitude>
					<heading>70.00</heading>
					<tilt>72.0</tilt>
					<roll>0</roll>
					<altitudeMode>relativeToGround</altitudeMode>
				</Camera>
			</gx:FlyTo>
			<gx:FlyTo>
				<gx:duration>0.61</gx:duration>
				<gx:flyToMode>smooth</gx:flyToMode>
				<Camera>
					<longitude>-122.2894414830</longitude>
					<latitude>37.8591661722</latitude>
					<altitude>38.0</altitude>
					<heading>80.00</heading>
					<tilt>72.0</tilt>
					<roll>0</roll>
					<altitudeMode>relativeToGround</altitudeMode>
				</Camera>
			</gx:FlyTo>
			<gx:FlyTo>
				<gx:duration>0.61</gx:duration>
				<gx:flyToMode>smooth</gx:flyToMode>
				<Camera>
					<longitude>-122.2894533346</longitude>
					<latitude>37.8592731240</latitude>
					<altitude>38.0</altitude>
					<heading>90.00</heading>
					<tilt>72.0</tilt>
					<roll>0</roll>
					<altitudeMode>relativeToGround</altitudeMode>
				</Camera>
			</gx:FlyTo>
			<gx:FlyTo>
				<gx:duration>0.61</gx:duration>
				<gx:flyToMode>smooth</gx:flyToMode>
				<Camera>
					<longitude>-122.2894414830</longitude>
					<latitude>37.8593800759</latitude>
					<altitude>38.0</altitude>
					<heading>100.00</heading>
					<tilt>72.0</tilt>
					<roll>0</roll>
					<altitudeMode>relativeToGround</altitudeMode>
				</Camera>
			</gx:FlyTo>
			<gx:FlyTo>
				<gx:duration>0.61</gx:duration>
				<gx:flyToMode>smooth</gx:flyToMode>
				<Camera>
					<longitude>-122.2894062883</longitude>
					<latitude>37.8594837780</latitude>
					<altitude>38.0</altitude>
					<heading>110.00</heading>
					<tilt>72.0</tilt>
					<roll>0</roll>
					<altitudeMode>relativeToGround</altitudeMode>
				</Camera>
			</gx:FlyTo>
			<gx:FlyTo>
				<gx:duration>0.61</gx:duration>
				<gx:flyToMode>smooth</gx:flyToMode>
				<Camera>
					<longitude>-122.2893488200</longitude>
					<latitude>37.8595810796</latitude>
					<altitude>38.0</altitude>
					<heading>120.00</heading>
					<tilt>72.0</tilt>
					<roll>0</roll>
					<altitudeMode>relativeToGround</altitudeMode>
				</Camera>
			</gx:FlyTo>
			<gx:FlyTo>
				<gx:duration>0.61</gx:duration>
				<gx:flyToMode>smooth</gx:flyToMode>
				<Camera>
					<longitude>-122.2892708240</longitude>
					<latitude>37.8596690240</latitude>
					<altitude>38.0</altitude>
					<heading>130.00</heading>
					<tilt>72.0</tilt>
					<roll>0</roll>
					<altitudeMode>relativeToGround</altitudeMode>
				</Camera>
			</gx:FlyTo>
			<gx:FlyTo>
				<gx:duration>0.61</gx:duration>
				<gx:flyToMode>smooth</gx:flyToMode>
				<Camera>
					<longitude>-122.2891746704</longitude>
					<latitude>37.8597449393</latitude>
					<altitude>38.0</altitude>
					<heading>140.00</heading>
					<tilt>72.0</tilt>
					<roll>0</roll>
					<altitudeMode>relativeToGround</altitudeMode>
				</Camera>
			</gx:FlyTo>
			<gx:FlyTo>
				<gx:duration>0.61</gx:duration>
				<gx:flyToMode>smooth</gx:flyToMode>
				<Camera>
					<longitude>-122.2890632807</longitude>
					<latitude>37.8598065187</latitude>
					<altitude>38.0</altitude>
					<heading>150.00</heading>
					<tilt>72.0</tilt>
					<roll>0</roll>
					<altitudeMode>relativeToGround</altitudeMode>
				</Camera>
			</gx:FlyTo>
			<gx:FlyTo>
				<gx:duration>0.61</gx:duration>
				<gx:flyToMode>smooth</gx:flyToMode>
				<Camera>
					<longitude>-122.2889400394</longitude>
					<latitude>37.8598518911</latitude>
					<altitude>38.0</altitude>
					<heading>160.00</heading>
					<tilt>72.0</tilt>
					<roll>0</roll>
					<altitudeMode>relativeToGround</altitudeMode>
				</Camera>
			</gx:FlyTo>
			<gx:FlyTo>
				<gx:duration>0.61</gx:duration>
				<gx:flyToMode>smooth</gx:flyToMode>
				<Camera>
					<longitude>-122.2888086911</longitude>
					<latitude>37.8598796780</latitude>
					<altitude>38.0</altitude>
					<heading>170.00</heading>
					<tilt>72.0</tilt>
					<roll>0</roll>
					<altitudeMode>relativeToGround</altitudeMode>
				</Camera>
			</gx:FlyTo>
			<gx:FlyTo>
				<gx:duration>0.61</gx:duration>
				<gx:flyToMode>smooth</gx:flyToMode>
				<Camera>
					<longitude>-122.2886732268</longitude>
					<latitude>37.8598890351</latitude>
					<altitude>38.0</altitude>
					<heading>180.00</heading>
					<tilt>72.0</tilt>
					<roll>0</roll>
					<altitudeMode>relativeToGround</altitudeMode>
				</Camera>
			</gx:FlyTo>
			<gx:FlyTo>
				<gx:duration>0.61</gx:duration>
				<gx:flyToMode>smooth</gx:flyToMode>
				<Camera>
					<longitude>-122.2885377625</longitude>
					<latitude>37.8598796780</latitude>
					<altitude>38.0</altitude>
					<heading>190.00</heading>
					<tilt>72.0</tilt>
					<roll>0</roll>
					<altitudeMode>relativeToGround</altitudeMode>
				</Camera>
			</gx:FlyTo>
			<gx:FlyTo>
				<gx:duration>0.61</gx:duration>
				<gx:flyToMode>smooth</gx:flyToMode>
				<Camera>
					<longitude>-122.2884064143</longitude>
					<latitude>37.8598518911</latitude>
					<altitude>38.0</altitude>
					<heading>200.00</heading>
					<tilt>72.0</tilt>
					<roll>0</roll>
					<altitudeMode>relativeToGround</altitudeMode>
				</Camera>
			</gx:FlyTo>
			<gx:FlyTo>
				<gx:duration>0.61</gx:duration>
				<gx:flyToMode>smooth</gx:flyToMode>
				<Camera>
					<longitude>-122.2882831729</longitude>
					<latitude>37.8598065187</latitude>
					<altitude>38.0</altitude>
					<heading>210.00</heading>
					<tilt>72.0</tilt>
					<roll>0</roll>
					<altitudeMode>relativeToGround</altitudeMode>
				</Camera>
			</gx:FlyTo>
			<gx:FlyTo>
				<gx:duration>0.61</gx:duration>
				<gx:flyToMode>smooth</gx:flyToMode>
				<Camera>
					<longitude>-122.2881717832</longitude>
					<latitude>37.8597449393</latitude>
					<altitude>38.0</altitude>
					<heading>220.00</heading>
					<tilt>72.0</tilt>
					<roll>0</roll>
					<altitudeMode>relativeToGround</altitudeMode>
				</Camera>
			</gx:FlyTo>
			<gx:FlyTo>
				<gx:duration>0.61</gx:duration>
				<gx:flyToMode>smooth</gx:flyToMode>
				<Camera>
					<longitude>-122.2880756296</longitude>
					<latitude>37.8596690240</latitude>
					<altitude>38.0</altitude>
					<heading>230.00</heading>
					<tilt>72.0</tilt>
					<roll>0</roll>
					<altitudeMode>relativeToGround</altitudeMode>
				</Camera>
			</gx:FlyTo>
			<gx:FlyTo>
				<gx:duration>0.61</gx:duration>
				<gx:flyToMode>smooth</gx:flyToMode>
				<Camera>
					<longitude>-122.2879976337</longitude>
					<latitude>37.8595810796</latitude>
					<altitude>38.0</altitude>
					<heading>240.00</heading>
					<tilt>72.0</tilt>
					<roll>0</roll>
					<altitudeMode>relativeToGround</altitudeMode>
				</Camera>
			</gx:FlyTo>
			<gx:FlyTo>
				<gx:duration>0.61</gx:duration>
				<gx:flyToMode>smooth</gx:flyToMode>
				<Camera>
					<longitude>-122.2879401653</longitude>
					<latitude>37.8594837780</latitude>
					<altitude>38.0</altitude>
					<heading>250.00</heading>
					<tilt>72.0</tilt>
					<roll>0</roll>
					<altitudeMode>relativeToGround</altitudeMode>
				</Camera>
			</gx:FlyTo>
			<gx:FlyTo>
				<gx:duration>0.61</gx:duration>
				<gx:flyToMode>smooth</gx:flyToMode>
				<Camera>
					<longitude>-122.2879049707</longitude>
					<latitude>37.8593800759</latitude>
					<altitude>38.0</altitude>
					<heading>260.00</heading>
					<tilt>72.0</tilt>
					<roll>0</roll>
					<altitudeMode>relativeToGround</altitudeMode>
				</Camera>
			</gx:FlyTo>
			<gx:FlyTo>
				<gx:duration>0.61</gx:duration>
				<gx:flyToMode>smooth</gx:flyToMode>
				<Camera>
					<longitude>-122.2878931191</longitude>
					<latitude>37.8592731240</latitude>
					<altitude>38.0</altitude>
					<heading>270.00</heading>
					<tilt>72.0</tilt>
					<roll>0</roll>
					<altitudeMode>relativeToGround</altitudeMode>
				</Camera>
			</gx:FlyTo>
		</gx:Playlist>
	</gx:Tour>
</Document>
</kml>
