<?xml version="1.0" encoding="UTF-8"?>
<kml xmlns="http://www.opengis.net/kml/2.2"
     xmlns:gx="http://www.google.com/kml/ext/2.2">
  <Document>
    <name>Berkeley Housing Pipeline - Extended Dramatic Tour</name>
    <open>1</open>
    <gx:Tour>
      <name>Berkeley Housing Pipeline - Extended Dramatic Tour</name>
      <gx:Playlist>

        <gx:FlyTo><gx:duration>6</gx:duration><gx:flyToMode>bounce</gx:flyToMode><Camera>
          <longitude>-122.2733</longitude><latitude>37.8700</latitude><altitude>240</altitude>
          <heading>88</heading><tilt>80</tilt><roll>0</roll><altitudeMode>absolute</altitudeMode>
        </Camera></gx:FlyTo>
        <gx:Wait><gx:duration>4</gx:duration></gx:Wait>

        <gx:FlyTo><gx:duration>5</gx:duration><gx:flyToMode>smooth</gx:flyToMode><Camera>
          <longitude>-122.2618</longitude><latitude>37.8654</latitude><altitude>210</altitude>
          <heading>118</heading><tilt>82</tilt><roll>0</roll><altitudeMode>absolute</altitudeMode>
        </Camera></gx:FlyTo>
        <gx:FlyTo><gx:duration>4</gx:duration><gx:flyToMode>smooth</gx:flyToMode><Camera>
          <longitude>-122.2598</longitude><latitude>37.8656</latitude><altitude>205</altitude>
          <heading>180</heading><tilt>82</tilt><roll>0</roll><altitudeMode>absolute</altitudeMode>
        </Camera></gx:FlyTo>
        <gx:FlyTo><gx:duration>4</gx:duration><gx:flyToMode>smooth</gx:flyToMode><Camera>
          <longitude>-122.2598</longitude><latitude>37.8656</latitude><altitude>205</altitude>
          <heading>300</heading><tilt>82</tilt><roll>0</roll><altitudeMode>absolute</altitudeMode>
        </Camera></gx:FlyTo>
        <gx:Wait><gx:duration>5</gx:duration></gx:Wait>

        <gx:FlyTo><gx:duration>5</gx:duration><gx:flyToMode>smooth</gx:flyToMode><Camera>
          <longitude>-122.2691</longitude><latitude>37.8538</latitude><altitude>182.88</altitude>
          <heading>336</heading><tilt>80</tilt><roll>0</roll><altitudeMode>absolute</altitudeMode>
        </Camera></gx:FlyTo>
        <gx:FlyTo><gx:duration>7</gx:duration><gx:flyToMode>smooth</gx:flyToMode><Camera>
          <longitude>-122.2689</longitude><latitude>37.8607</latitude><altitude>182.88</altitude>
          <heading>348</heading><tilt>80</tilt><roll>0</roll><altitudeMode>absolute</altitudeMode>
        </Camera></gx:FlyTo>
        <gx:FlyTo><gx:duration>8</gx:duration><gx:flyToMode>smooth</gx:flyToMode><Camera>
          <longitude>-122.2684</longitude><latitude>37.8772</latitude><altitude>182.88</altitude>
          <heading>2</heading><tilt>79</tilt><roll>0</roll><altitudeMode>absolute</altitudeMode>
        </Camera></gx:FlyTo>
        <gx:FlyTo><gx:duration>4</gx:duration><gx:flyToMode>smooth</gx:flyToMode><Camera>
          <longitude>-122.2684</longitude><latitude>37.8772</latitude><altitude>182.88</altitude>
          <heading>182</heading><tilt>77</tilt><roll>0</roll><altitudeMode>absolute</altitudeMode>
        </Camera></gx:FlyTo>
        <gx:Wait><gx:duration>10</gx:duration></gx:Wait>

        <gx:FlyTo><gx:duration>5</gx:duration><gx:flyToMode>smooth</gx:flyToMode><Camera>
          <longitude>-122.2850</longitude><latitude>37.8707</latitude><altitude>195</altitude>
          <heading>88</heading><tilt>81</tilt><roll>0</roll><altitudeMode>absolute</altitudeMode>
        </Camera></gx:FlyTo>
        <gx:Wait><gx:duration>5</gx:duration></gx:Wait>

        <gx:FlyTo><gx:duration>5</gx:duration><gx:flyToMode>smooth</gx:flyToMode><Camera>
          <longitude>-122.2802</longitude><latitude>37.8707</latitude><altitude>195</altitude>
          <heading>88</heading><tilt>81</tilt><roll>0</roll><altitudeMode>absolute</altitudeMode>
        </Camera></gx:FlyTo>
        <gx:Wait><gx:duration>5</gx:duration></gx:Wait>

        <gx:FlyTo><gx:duration>5</gx:duration><gx:flyToMode>smooth</gx:flyToMode><Camera>
          <longitude>-122.2756</longitude><latitude>37.8707</latitude><altitude>195</altitude>
          <heading>88</heading><tilt>81</tilt><roll>0</roll><altitudeMode>absolute</altitudeMode>
        </Camera></gx:FlyTo>
        <gx:Wait><gx:duration>5</gx:duration></gx:Wait>

        <gx:FlyTo><gx:duration>5</gx:duration><gx:flyToMode>smooth</gx:flyToMode><Camera>
          <longitude>-122.2709</longitude><latitude>37.8706</latitude><altitude>195</altitude>
          <heading>88</heading><tilt>81</tilt><roll>0</roll><altitudeMode>absolute</altitudeMode>
        </Camera></gx:FlyTo>
        <gx:Wait><gx:duration>5</gx:duration></gx:Wait>

        <gx:FlyTo><gx:duration>5</gx:duration><gx:flyToMode>smooth</gx:flyToMode><Camera>
          <longitude>-122.2679</longitude><latitude>37.8706</latitude><altitude>195</altitude>
          <heading>88</heading><tilt>81</tilt><roll>0</roll><altitudeMode>absolute</altitudeMode>
        </Camera></gx:FlyTo>
        <gx:Wait><gx:duration>5</gx:duration></gx:Wait>

        <gx:FlyTo><gx:duration>5</gx:duration><gx:flyToMode>smooth</gx:flyToMode><Camera>
          <longitude>-122.2642</longitude><latitude>37.8706</latitude><altitude>195</altitude>
          <heading>88</heading><tilt>81</tilt><roll>0</roll><altitudeMode>absolute</altitudeMode>
        </Camera></gx:FlyTo>
        <gx:Wait><gx:duration>5</gx:duration></gx:Wait>

        <gx:FlyTo><gx:duration>4</gx:duration><gx:flyToMode>smooth</gx:flyToMode><Camera>
          <longitude>-122.2732</longitude><latitude>37.8700</latitude><altitude>210</altitude>
          <heading>90</heading><tilt>80</tilt><roll>0</roll><altitudeMode>absolute</altitudeMode>
        </Camera></gx:FlyTo>
        <gx:Wait><gx:duration>8</gx:duration></gx:Wait>

      </gx:Playlist>
    </gx:Tour>
  </Document>
</kml>
