<?xml version="1.0" encoding="UTF-8"?>
<kml xmlns="http://www.opengis.net/kml/2.2">
<Document>
	<name>Durant street labels · scale 2.5 · 20 m</name>
	<open>1</open>
	<Style id="cross"><IconStyle><scale>0.4</scale><Icon><href>transparent-1x1.png</href></Icon><hotSpot x="0.5" y="0.5" xunits="fraction" yunits="fraction"/></IconStyle><LabelStyle><scale>1.5</scale><color>ff50c4ff</color></LabelStyle></Style>
	<Style id="own"><IconStyle><scale>0.4</scale><Icon><href>transparent-1x1.png</href></Icon><hotSpot x="0.5" y="0.5" xunits="fraction" yunits="fraction"/></IconStyle><LabelStyle><scale>1.875</scale><color>ff50c4ff</color></LabelStyle></Style>
	<Placemark><name>Durant</name><styleUrl>#own</styleUrl><Point><altitudeMode>relativeToGround</altitudeMode><coordinates>-122.270061172471,37.86638853933225,20.0</coordinates></Point></Placemark>
	<Placemark><name>Durant</name><styleUrl>#own</styleUrl><Point><altitudeMode>relativeToGround</altitudeMode><coordinates>-122.2568374921786,37.86809550034905,20.0</coordinates></Point></Placemark>
	<Placemark><name>Durant</name><styleUrl>#own</styleUrl><Point><altitudeMode>relativeToGround</altitudeMode><coordinates>-122.2523699325399,37.86866404388398,20.0</coordinates></Point></Placemark>
	<Placemark><name>Shattuck Ave</name><styleUrl>#cross</styleUrl><Point><altitudeMode>relativeToGround</altitudeMode><coordinates>-122.26801921761272,37.86665212233366,20.0</coordinates></Point></Placemark>
	<Placemark><name>Fulton St</name><styleUrl>#cross</styleUrl><Point><altitudeMode>relativeToGround</altitudeMode><coordinates>-122.26614424626159,37.86689415049324,20.0</coordinates></Point></Placemark>
	<Placemark><name>Ellsworth St</name><styleUrl>#cross</styleUrl><Point><altitudeMode>relativeToGround</altitudeMode><coordinates>-122.26381883598795,37.86719432295638,20.0</coordinates></Point></Placemark>
	<Placemark><name>Telegraph Ave</name><styleUrl>#cross</styleUrl><Point><altitudeMode>relativeToGround</altitudeMode><coordinates>-122.25924915846065,37.867784193644866,20.0</coordinates></Point></Placemark>
	<Placemark><name>Bowditch St</name><styleUrl>#cross</styleUrl><Point><altitudeMode>relativeToGround</altitudeMode><coordinates>-122.2569012960401,37.868087264313246,20.0</coordinates></Point></Placemark>
	<Placemark><name>College Ave</name><styleUrl>#cross</styleUrl><Point><altitudeMode>relativeToGround</altitudeMode><coordinates>-122.25405660183245,37.868360676269475,20.0</coordinates></Point></Placemark>
	<Placemark><name>Piedmont Ave</name><styleUrl>#cross</styleUrl><Point><altitudeMode>relativeToGround</altitudeMode><coordinates>-122.2524545837398,37.868646973228394,20.0</coordinates></Point></Placemark>
</Document>
</kml>
