<?xml version="1.0" encoding="UTF-8"?>
<kml xmlns="http://www.opengis.net/kml/2.2">
<Document>
	<name>University street labels · scale 2.5 · 20 m</name>
	<open>1</open>
	<Style id="cross"><IconStyle><scale>0.4</scale><Icon><href>transparent-1x1.png</href></Icon><hotSpot x="0.5" y="0.5" xunits="fraction" yunits="fraction"/></IconStyle><LabelStyle><scale>1.5</scale><color>ff50c4ff</color></LabelStyle></Style>
	<Style id="own"><IconStyle><scale>0.4</scale><Icon><href>transparent-1x1.png</href></Icon><hotSpot x="0.5" y="0.5" xunits="fraction" yunits="fraction"/></IconStyle><LabelStyle><scale>1.875</scale><color>ff50c4ff</color></LabelStyle></Style>
	<Placemark><name>University</name><styleUrl>#own</styleUrl><Point><altitudeMode>relativeToGround</altitudeMode><coordinates>-122.3149,37.86679098260025,20.0</coordinates></Point></Placemark>
	<Placemark><name>University</name><styleUrl>#own</styleUrl><Point><altitudeMode>relativeToGround</altitudeMode><coordinates>-122.3095,37.86695892260026,20.0</coordinates></Point></Placemark>
	<Placemark><name>University</name><styleUrl>#own</styleUrl><Point><altitudeMode>relativeToGround</altitudeMode><coordinates>-122.304,37.86712997260027,20.0</coordinates></Point></Placemark>
	<Placemark><name>University</name><styleUrl>#own</styleUrl><Point><altitudeMode>relativeToGround</altitudeMode><coordinates>-122.2978609924434,37.86796871450524,20.0</coordinates></Point></Placemark>
	<Placemark><name>University</name><styleUrl>#own</styleUrl><Point><altitudeMode>relativeToGround</altitudeMode><coordinates>-122.2923682109498,37.86908188917249,20.0</coordinates></Point></Placemark>
	<Placemark><name>University</name><styleUrl>#own</styleUrl><Point><altitudeMode>relativeToGround</altitudeMode><coordinates>-122.2821524276693,37.87040996253675,20.0</coordinates></Point></Placemark>
	<Placemark><name>University</name><styleUrl>#own</styleUrl><Point><altitudeMode>relativeToGround</altitudeMode><coordinates>-122.2708919431159,37.87183486403305,20.0</coordinates></Point></Placemark>
	<Placemark><name>University</name><styleUrl>#own</styleUrl><Point><altitudeMode>relativeToGround</altitudeMode><coordinates>-122.2659577552181,37.87246523450535,20.0</coordinates></Point></Placemark>
	<Placemark><name>2Nd St</name><styleUrl>#cross</styleUrl><Point><altitudeMode>relativeToGround</altitudeMode><coordinates>-122.30269683224526,37.867170501117435,20.0</coordinates></Point></Placemark>
	<Placemark><name>4Th St</name><styleUrl>#cross</styleUrl><Point><altitudeMode>relativeToGround</altitudeMode><coordinates>-122.29961001165374,37.867615374480025,20.0</coordinates></Point></Placemark>
	<Placemark><name>5Th St</name><styleUrl>#cross</styleUrl><Point><altitudeMode>relativeToGround</altitudeMode><coordinates>-122.29930304281984,37.86767738887922,20.0</coordinates></Point></Placemark>
	<Placemark><name>6Th St</name><styleUrl>#cross</styleUrl><Point><altitudeMode>relativeToGround</altitudeMode><coordinates>-122.2973285491654,37.86807662019373,20.0</coordinates></Point></Placemark>
	<Placemark><name>7Th St</name><styleUrl>#cross</styleUrl><Point><altitudeMode>relativeToGround</altitudeMode><coordinates>-122.29688401023644,37.86816671106571,20.0</coordinates></Point></Placemark>
	<Placemark><name>8Th St</name><styleUrl>#cross</styleUrl><Point><altitudeMode>relativeToGround</altitudeMode><coordinates>-122.29536461475149,37.868474633848614,20.0</coordinates></Point></Placemark>
	<Placemark><name>9Th St</name><styleUrl>#cross</styleUrl><Point><altitudeMode>relativeToGround</altitudeMode><coordinates>-122.29405201192668,37.86874064774602,20.0</coordinates></Point></Placemark>
	<Placemark><name>10Th St</name><styleUrl>#cross</styleUrl><Point><altitudeMode>relativeToGround</altitudeMode><coordinates>-122.29357740851452,37.868836831527595,20.0</coordinates></Point></Placemark>
	<Placemark><name>San Pablo Ave</name><styleUrl>#cross</styleUrl><Point><altitudeMode>relativeToGround</altitudeMode><coordinates>-122.29167389534089,37.86917215166547,20.0</coordinates></Point></Placemark>
	<Placemark><name>Acton St</name><styleUrl>#cross</styleUrl><Point><altitudeMode>relativeToGround</altitudeMode><coordinates>-122.28470632503009,37.8700779504955,20.0</coordinates></Point></Placemark>
	<Placemark><name>Sacramento St</name><styleUrl>#cross</styleUrl><Point><altitudeMode>relativeToGround</altitudeMode><coordinates>-122.28235763476366,37.870383285181845,20.0</coordinates></Point></Placemark>
	<Placemark><name>California St</name><styleUrl>#cross</styleUrl><Point><altitudeMode>relativeToGround</altitudeMode><coordinates>-122.27992388925728,37.87069196174404,20.0</coordinates></Point></Placemark>
	<Placemark><name>Mcgee Ave</name><styleUrl>#cross</styleUrl><Point><altitudeMode>relativeToGround</altitudeMode><coordinates>-122.27721749213212,37.87103442918361,20.0</coordinates></Point></Placemark>
	<Placemark><name>Grant St</name><styleUrl>#cross</styleUrl><Point><altitudeMode>relativeToGround</altitudeMode><coordinates>-122.27558845860563,37.87124056705436,20.0</coordinates></Point></Placemark>
	<Placemark><name>Martin Luther King Jr Way</name><styleUrl>#cross</styleUrl><Point><altitudeMode>relativeToGround</altitudeMode><coordinates>-122.27315733803934,37.87154820100351,20.0</coordinates></Point></Placemark>
	<Placemark><name>Milvia St</name><styleUrl>#cross</styleUrl><Point><altitudeMode>relativeToGround</altitudeMode><coordinates>-122.27093649946247,37.87182922587382,20.0</coordinates></Point></Placemark>
	<Placemark><name>Shattuck Ave</name><styleUrl>#cross</styleUrl><Point><altitudeMode>relativeToGround</altitudeMode><coordinates>-122.26808391400617,37.87219360566851,20.0</coordinates></Point></Placemark>
</Document>
</kml>
