<?xml version="1.0" encoding="UTF-8"?>
<kml xmlns="http://www.opengis.net/kml/2.2" xmlns:gx="http://www.google.com/kml/ext/2.2">
<Document>
  <name>Patrick Kennedy / Panoramic Interests — Berkeley Portfolio 1990–2028</name><open>1</open>
  <Style id="e_1990s"><LineStyle><color>ff00d7ff</color><width>2</width></LineStyle><PolyStyle><color>8c00d7ff</color></PolyStyle><LabelStyle><scale>1.8</scale><color>ff00d7ff</color></LabelStyle><IconStyle><scale>0</scale></IconStyle></Style>
  <Style id="e_2000s"><LineStyle><color>ff007fff</color><width>2</width></LineStyle><PolyStyle><color>8c007fff</color></PolyStyle><LabelStyle><scale>1.8</scale><color>ff2896ff</color></LabelStyle><IconStyle><scale>0</scale></IconStyle></Style>
  <Style id="e_recent"><LineStyle><color>ffe3c800</color><width>2</width></LineStyle><PolyStyle><color>8ce3c800</color></PolyStyle><LabelStyle><scale>1.8</scale><color>fff0dc50</color></LabelStyle><IconStyle><scale>0</scale></IconStyle></Style>
  <Style id="e_proposed"><LineStyle><color>ff78eb78</color><width>2</width></LineStyle><PolyStyle><color>4d78eb78</color></PolyStyle><LabelStyle><scale>1.8</scale><color>ff96f596</color></LabelStyle><IconStyle><scale>0</scale></IconStyle></Style>
  <gx:Tour><name>▶ Play: Kennedy/Panoramic 1990→2028</name><gx:Playlist>
      <gx:FlyTo><gx:duration>4.0</gx:duration><gx:flyToMode>smooth</gx:flyToMode>
        <Camera><longitude>-122.287746</longitude><latitude>37.877936</latitude><altitude>900</altitude>
          <heading>120.0</heading><tilt>63.4</tilt><altitudeMode>relativeToGround</altitudeMode></Camera></gx:FlyTo>
      <gx:Wait><gx:duration>1.0</gx:duration></gx:Wait>
      <gx:FlyTo><gx:duration>2.8</gx:duration><gx:flyToMode>smooth</gx:flyToMode>
        <Camera><longitude>-122.271558</longitude><latitude>37.880334</latitude><altitude>200</altitude>
          <heading>120.0</heading><tilt>36.9</tilt><altitudeMode>relativeToGround</altitudeMode></Camera></gx:FlyTo>
      <gx:FlyTo><gx:duration>2.6</gx:duration><gx:flyToMode>smooth</gx:flyToMode>
        <Camera><longitude>-122.270770</longitude><latitude>37.879974</latitude><altitude>61</altitude>
          <heading>120.0</heading><tilt>48.9</tilt><altitudeMode>relativeToGround</altitudeMode></Camera></gx:FlyTo>
      <gx:Wait><gx:duration>2.0</gx:duration></gx:Wait>
      <gx:FlyTo><gx:duration>2.8</gx:duration><gx:flyToMode>smooth</gx:flyToMode>
        <Camera><longitude>-122.291534</longitude><latitude>37.858066</latitude><altitude>200</altitude>
          <heading>160.0</heading><tilt>36.9</tilt><altitudeMode>relativeToGround</altitudeMode></Camera></gx:FlyTo>
      <gx:FlyTo><gx:duration>2.6</gx:duration><gx:flyToMode>smooth</gx:flyToMode>
        <Camera><longitude>-122.291222</longitude><latitude>37.857391</latitude><altitude>61</altitude>
          <heading>160.0</heading><tilt>48.9</tilt><altitudeMode>relativeToGround</altitudeMode></Camera></gx:FlyTo>
      <gx:Wait><gx:duration>2.0</gx:duration></gx:Wait>
      <gx:FlyTo><gx:duration>2.8</gx:duration><gx:flyToMode>smooth</gx:flyToMode>
        <Camera><longitude>-122.267776</longitude><latitude>37.875436</latitude><altitude>200</altitude>
          <heading>200.0</heading><tilt>36.9</tilt><altitudeMode>relativeToGround</altitudeMode></Camera></gx:FlyTo>
      <gx:FlyTo><gx:duration>2.6</gx:duration><gx:flyToMode>smooth</gx:flyToMode>
        <Camera><longitude>-122.268088</longitude><latitude>37.874761</latitude><altitude>61</altitude>
          <heading>200.0</heading><tilt>48.9</tilt><altitudeMode>relativeToGround</altitudeMode></Camera></gx:FlyTo>
      <gx:Wait><gx:duration>2.0</gx:duration></gx:Wait>
      <gx:FlyTo><gx:duration>2.8</gx:duration><gx:flyToMode>smooth</gx:flyToMode>
        <Camera><longitude>-122.273502</longitude><latitude>37.872334</latitude><altitude>200</altitude>
          <heading>240.0</heading><tilt>36.9</tilt><altitudeMode>relativeToGround</altitudeMode></Camera></gx:FlyTo>
      <gx:FlyTo><gx:duration>2.6</gx:duration><gx:flyToMode>smooth</gx:flyToMode>
        <Camera><longitude>-122.274290</longitude><latitude>37.871974</latitude><altitude>61</altitude>
          <heading>240.0</heading><tilt>48.9</tilt><altitudeMode>relativeToGround</altitudeMode></Camera></gx:FlyTo>
      <gx:Wait><gx:duration>2.0</gx:duration></gx:Wait>
      <gx:FlyTo><gx:duration>2.8</gx:duration><gx:flyToMode>smooth</gx:flyToMode>
        <Camera><longitude>-122.264909</longitude><latitude>37.873276</latitude><altitude>200</altitude>
          <heading>280.0</heading><tilt>36.9</tilt><altitudeMode>relativeToGround</altitudeMode></Camera></gx:FlyTo>
      <gx:FlyTo><gx:duration>2.6</gx:duration><gx:flyToMode>smooth</gx:flyToMode>
        <Camera><longitude>-122.265805</longitude><latitude>37.873401</latitude><altitude>61</altitude>
          <heading>280.0</heading><tilt>48.9</tilt><altitudeMode>relativeToGround</altitudeMode></Camera></gx:FlyTo>
      <gx:FlyTo><gx:duration>1.5</gx:duration><gx:flyToMode>smooth</gx:flyToMode>
        <Camera><longitude>-122.265357</longitude><latitude>37.873338</latitude><altitude>61</altitude>
          <heading>280.0</heading><tilt>61.0</tilt><altitudeMode>relativeToGround</altitudeMode></Camera></gx:FlyTo>
      <gx:FlyTo><gx:duration>1.5</gx:duration><gx:flyToMode>smooth</gx:flyToMode>
        <Camera><longitude>-122.265631</longitude><latitude>37.872875</latitude><altitude>61</altitude>
          <heading>310.0</heading><tilt>61.0</tilt><altitudeMode>relativeToGround</altitudeMode></Camera></gx:FlyTo>
      <gx:FlyTo><gx:duration>1.5</gx:duration><gx:flyToMode>smooth</gx:flyToMode>
        <Camera><longitude>-122.266162</longitude><latitude>37.872581</latitude><altitude>61</altitude>
          <heading>340.0</heading><tilt>61.0</tilt><altitudeMode>relativeToGround</altitudeMode></Camera></gx:FlyTo>
      <gx:FlyTo><gx:duration>1.5</gx:duration><gx:flyToMode>smooth</gx:flyToMode>
        <Camera><longitude>-122.266807</longitude><latitude>37.872537</latitude><altitude>61</altitude>
          <heading>10.0</heading><tilt>61.0</tilt><altitudeMode>relativeToGround</altitudeMode></Camera></gx:FlyTo>
      <gx:FlyTo><gx:duration>1.5</gx:duration><gx:flyToMode>smooth</gx:flyToMode>
        <Camera><longitude>-122.267395</longitude><latitude>37.872753</latitude><altitude>61</altitude>
          <heading>40.0</heading><tilt>61.0</tilt><altitudeMode>relativeToGround</altitudeMode></Camera></gx:FlyTo>
      <gx:FlyTo><gx:duration>1.5</gx:duration><gx:flyToMode>smooth</gx:flyToMode>
        <Camera><longitude>-122.267766</longitude><latitude>37.873172</latitude><altitude>61</altitude>
          <heading>70.0</heading><tilt>61.0</tilt><altitudeMode>relativeToGround</altitudeMode></Camera></gx:FlyTo>
      <gx:FlyTo><gx:duration>1.5</gx:duration><gx:flyToMode>smooth</gx:flyToMode>
        <Camera><longitude>-122.267823</longitude><latitude>37.873682</latitude><altitude>61</altitude>
          <heading>100.0</heading><tilt>61.0</tilt><altitudeMode>relativeToGround</altitudeMode></Camera></gx:FlyTo>
      <gx:FlyTo><gx:duration>1.5</gx:duration><gx:flyToMode>smooth</gx:flyToMode>
        <Camera><longitude>-122.267549</longitude><latitude>37.874145</latitude><altitude>61</altitude>
          <heading>130.0</heading><tilt>61.0</tilt><altitudeMode>relativeToGround</altitudeMode></Camera></gx:FlyTo>
      <gx:FlyTo><gx:duration>1.5</gx:duration><gx:flyToMode>smooth</gx:flyToMode>
        <Camera><longitude>-122.267018</longitude><latitude>37.874439</latitude><altitude>61</altitude>
          <heading>160.0</heading><tilt>61.0</tilt><altitudeMode>relativeToGround</altitudeMode></Camera></gx:FlyTo>
      <gx:FlyTo><gx:duration>1.5</gx:duration><gx:flyToMode>smooth</gx:flyToMode>
        <Camera><longitude>-122.266373</longitude><latitude>37.874483</latitude><altitude>61</altitude>
          <heading>190.0</heading><tilt>61.0</tilt><altitudeMode>relativeToGround</altitudeMode></Camera></gx:FlyTo>
      <gx:FlyTo><gx:duration>1.5</gx:duration><gx:flyToMode>smooth</gx:flyToMode>
        <Camera><longitude>-122.265785</longitude><latitude>37.874267</latitude><altitude>61</altitude>
          <heading>220.0</heading><tilt>61.0</tilt><altitudeMode>relativeToGround</altitudeMode></Camera></gx:FlyTo>
      <gx:FlyTo><gx:duration>1.5</gx:duration><gx:flyToMode>smooth</gx:flyToMode>
        <Camera><longitude>-122.265414</longitude><latitude>37.873848</latitude><altitude>61</altitude>
          <heading>250.0</heading><tilt>61.0</tilt><altitudeMode>relativeToGround</altitudeMode></Camera></gx:FlyTo>
      <gx:FlyTo><gx:duration>1.5</gx:duration><gx:flyToMode>smooth</gx:flyToMode>
        <Camera><longitude>-122.265357</longitude><latitude>37.873338</latitude><altitude>61</altitude>
          <heading>280.0</heading><tilt>61.0</tilt><altitudeMode>relativeToGround</altitudeMode></Camera></gx:FlyTo>
      <gx:FlyTo><gx:duration>2.8</gx:duration><gx:flyToMode>smooth</gx:flyToMode>
        <Camera><longitude>-122.265903</longitude><latitude>37.868158</latitude><altitude>200</altitude>
          <heading>320.0</heading><tilt>36.9</tilt><altitudeMode>relativeToGround</altitudeMode></Camera></gx:FlyTo>
      <gx:FlyTo><gx:duration>2.6</gx:duration><gx:flyToMode>smooth</gx:flyToMode>
        <Camera><longitude>-122.266488</longitude><latitude>37.868708</latitude><altitude>61</altitude>
          <heading>320.0</heading><tilt>48.9</tilt><altitudeMode>relativeToGround</altitudeMode></Camera></gx:FlyTo>
      <gx:FlyTo><gx:duration>1.5</gx:duration><gx:flyToMode>smooth</gx:flyToMode>
        <Camera><longitude>-122.266195</longitude><latitude>37.868433</latitude><altitude>61</altitude>
          <heading>320.0</heading><tilt>61.0</tilt><altitudeMode>relativeToGround</altitudeMode></Camera></gx:FlyTo>
      <gx:FlyTo><gx:duration>1.5</gx:duration><gx:flyToMode>smooth</gx:flyToMode>
        <Camera><longitude>-122.266783</longitude><latitude>37.868217</latitude><altitude>61</altitude>
          <heading>350.0</heading><tilt>61.0</tilt><altitudeMode>relativeToGround</altitudeMode></Camera></gx:FlyTo>
      <gx:FlyTo><gx:duration>1.5</gx:duration><gx:flyToMode>smooth</gx:flyToMode>
        <Camera><longitude>-122.267428</longitude><latitude>37.868261</latitude><altitude>61</altitude>
          <heading>20.0</heading><tilt>61.0</tilt><altitudeMode>relativeToGround</altitudeMode></Camera></gx:FlyTo>
      <gx:FlyTo><gx:duration>1.5</gx:duration><gx:flyToMode>smooth</gx:flyToMode>
        <Camera><longitude>-122.267959</longitude><latitude>37.868555</latitude><altitude>61</altitude>
          <heading>50.0</heading><tilt>61.0</tilt><altitudeMode>relativeToGround</altitudeMode></Camera></gx:FlyTo>
      <gx:FlyTo><gx:duration>1.5</gx:duration><gx:flyToMode>smooth</gx:flyToMode>
        <Camera><longitude>-122.268233</longitude><latitude>37.869018</latitude><altitude>61</altitude>
          <heading>80.0</heading><tilt>61.0</tilt><altitudeMode>relativeToGround</altitudeMode></Camera></gx:FlyTo>
      <gx:FlyTo><gx:duration>1.5</gx:duration><gx:flyToMode>smooth</gx:flyToMode>
        <Camera><longitude>-122.268176</longitude><latitude>37.869528</latitude><altitude>61</altitude>
          <heading>110.0</heading><tilt>61.0</tilt><altitudeMode>relativeToGround</altitudeMode></Camera></gx:FlyTo>
      <gx:FlyTo><gx:duration>1.5</gx:duration><gx:flyToMode>smooth</gx:flyToMode>
        <Camera><longitude>-122.267805</longitude><latitude>37.869947</latitude><altitude>61</altitude>
          <heading>140.0</heading><tilt>61.0</tilt><altitudeMode>relativeToGround</altitudeMode></Camera></gx:FlyTo>
      <gx:FlyTo><gx:duration>1.5</gx:duration><gx:flyToMode>smooth</gx:flyToMode>
        <Camera><longitude>-122.267217</longitude><latitude>37.870163</latitude><altitude>61</altitude>
          <heading>170.0</heading><tilt>61.0</tilt><altitudeMode>relativeToGround</altitudeMode></Camera></gx:FlyTo>
      <gx:FlyTo><gx:duration>1.5</gx:duration><gx:flyToMode>smooth</gx:flyToMode>
        <Camera><longitude>-122.266572</longitude><latitude>37.870119</latitude><altitude>61</altitude>
          <heading>200.0</heading><tilt>61.0</tilt><altitudeMode>relativeToGround</altitudeMode></Camera></gx:FlyTo>
      <gx:FlyTo><gx:duration>1.5</gx:duration><gx:flyToMode>smooth</gx:flyToMode>
        <Camera><longitude>-122.266041</longitude><latitude>37.869825</latitude><altitude>61</altitude>
          <heading>230.0</heading><tilt>61.0</tilt><altitudeMode>relativeToGround</altitudeMode></Camera></gx:FlyTo>
      <gx:FlyTo><gx:duration>1.5</gx:duration><gx:flyToMode>smooth</gx:flyToMode>
        <Camera><longitude>-122.265767</longitude><latitude>37.869362</latitude><altitude>61</altitude>
          <heading>260.0</heading><tilt>61.0</tilt><altitudeMode>relativeToGround</altitudeMode></Camera></gx:FlyTo>
      <gx:FlyTo><gx:duration>1.5</gx:duration><gx:flyToMode>smooth</gx:flyToMode>
        <Camera><longitude>-122.265824</longitude><latitude>37.868852</latitude><altitude>61</altitude>
          <heading>290.0</heading><tilt>61.0</tilt><altitudeMode>relativeToGround</altitudeMode></Camera></gx:FlyTo>
      <gx:FlyTo><gx:duration>1.5</gx:duration><gx:flyToMode>smooth</gx:flyToMode>
        <Camera><longitude>-122.266195</longitude><latitude>37.868433</latitude><altitude>61</altitude>
          <heading>320.0</heading><tilt>61.0</tilt><altitudeMode>relativeToGround</altitudeMode></Camera></gx:FlyTo>
      <gx:FlyTo><gx:duration>2.8</gx:duration><gx:flyToMode>smooth</gx:flyToMode>
        <Camera><longitude>-122.270370</longitude><latitude>37.869933</latitude><altitude>200</altitude>
          <heading>0.0</heading><tilt>36.9</tilt><altitudeMode>relativeToGround</altitudeMode></Camera></gx:FlyTo>
      <gx:FlyTo><gx:duration>2.6</gx:duration><gx:flyToMode>smooth</gx:flyToMode>
        <Camera><longitude>-122.270370</longitude><latitude>37.870651</latitude><altitude>61</altitude>
          <heading>0.0</heading><tilt>48.9</tilt><altitudeMode>relativeToGround</altitudeMode></Camera></gx:FlyTo>
      <gx:Wait><gx:duration>2.0</gx:duration></gx:Wait>
      <gx:FlyTo><gx:duration>2.8</gx:duration><gx:flyToMode>smooth</gx:flyToMode>
        <Camera><longitude>-122.286007</longitude><latitude>37.869288</latitude><altitude>200</altitude>
          <heading>40.0</heading><tilt>36.9</tilt><altitudeMode>relativeToGround</altitudeMode></Camera></gx:FlyTo>
      <gx:FlyTo><gx:duration>2.6</gx:duration><gx:flyToMode>smooth</gx:flyToMode>
        <Camera><longitude>-122.285422</longitude><latitude>37.869838</latitude><altitude>61</altitude>
          <heading>40.0</heading><tilt>48.9</tilt><altitudeMode>relativeToGround</altitudeMode></Camera></gx:FlyTo>
      <gx:FlyTo><gx:duration>1.5</gx:duration><gx:flyToMode>smooth</gx:flyToMode>
        <Camera><longitude>-122.285715</longitude><latitude>37.869563</latitude><altitude>61</altitude>
          <heading>40.0</heading><tilt>61.0</tilt><altitudeMode>relativeToGround</altitudeMode></Camera></gx:FlyTo>
      <gx:FlyTo><gx:duration>1.5</gx:duration><gx:flyToMode>smooth</gx:flyToMode>
        <Camera><longitude>-122.286086</longitude><latitude>37.869982</latitude><altitude>61</altitude>
          <heading>70.0</heading><tilt>61.0</tilt><altitudeMode>relativeToGround</altitudeMode></Camera></gx:FlyTo>
      <gx:FlyTo><gx:duration>1.5</gx:duration><gx:flyToMode>smooth</gx:flyToMode>
        <Camera><longitude>-122.286143</longitude><latitude>37.870492</latitude><altitude>61</altitude>
          <heading>100.0</heading><tilt>61.0</tilt><altitudeMode>relativeToGround</altitudeMode></Camera></gx:FlyTo>
      <gx:FlyTo><gx:duration>1.5</gx:duration><gx:flyToMode>smooth</gx:flyToMode>
        <Camera><longitude>-122.285869</longitude><latitude>37.870955</latitude><altitude>61</altitude>
          <heading>130.0</heading><tilt>61.0</tilt><altitudeMode>relativeToGround</altitudeMode></Camera></gx:FlyTo>
      <gx:FlyTo><gx:duration>1.5</gx:duration><gx:flyToMode>smooth</gx:flyToMode>
        <Camera><longitude>-122.285338</longitude><latitude>37.871249</latitude><altitude>61</altitude>
          <heading>160.0</heading><tilt>61.0</tilt><altitudeMode>relativeToGround</altitudeMode></Camera></gx:FlyTo>
      <gx:FlyTo><gx:duration>1.5</gx:duration><gx:flyToMode>smooth</gx:flyToMode>
        <Camera><longitude>-122.284693</longitude><latitude>37.871293</latitude><altitude>61</altitude>
          <heading>190.0</heading><tilt>61.0</tilt><altitudeMode>relativeToGround</altitudeMode></Camera></gx:FlyTo>
      <gx:FlyTo><gx:duration>1.5</gx:duration><gx:flyToMode>smooth</gx:flyToMode>
        <Camera><longitude>-122.284105</longitude><latitude>37.871077</latitude><altitude>61</altitude>
          <heading>220.0</heading><tilt>61.0</tilt><altitudeMode>relativeToGround</altitudeMode></Camera></gx:FlyTo>
      <gx:FlyTo><gx:duration>1.5</gx:duration><gx:flyToMode>smooth</gx:flyToMode>
        <Camera><longitude>-122.283734</longitude><latitude>37.870658</latitude><altitude>61</altitude>
          <heading>250.0</heading><tilt>61.0</tilt><altitudeMode>relativeToGround</altitudeMode></Camera></gx:FlyTo>
      <gx:FlyTo><gx:duration>1.5</gx:duration><gx:flyToMode>smooth</gx:flyToMode>
        <Camera><longitude>-122.283677</longitude><latitude>37.870148</latitude><altitude>61</altitude>
          <heading>280.0</heading><tilt>61.0</tilt><altitudeMode>relativeToGround</altitudeMode></Camera></gx:FlyTo>
      <gx:FlyTo><gx:duration>1.5</gx:duration><gx:flyToMode>smooth</gx:flyToMode>
        <Camera><longitude>-122.283951</longitude><latitude>37.869685</latitude><altitude>61</altitude>
          <heading>310.0</heading><tilt>61.0</tilt><altitudeMode>relativeToGround</altitudeMode></Camera></gx:FlyTo>
      <gx:FlyTo><gx:duration>1.5</gx:duration><gx:flyToMode>smooth</gx:flyToMode>
        <Camera><longitude>-122.284482</longitude><latitude>37.869391</latitude><altitude>61</altitude>
          <heading>340.0</heading><tilt>61.0</tilt><altitudeMode>relativeToGround</altitudeMode></Camera></gx:FlyTo>
      <gx:FlyTo><gx:duration>1.5</gx:duration><gx:flyToMode>smooth</gx:flyToMode>
        <Camera><longitude>-122.285127</longitude><latitude>37.869347</latitude><altitude>61</altitude>
          <heading>10.0</heading><tilt>61.0</tilt><altitudeMode>relativeToGround</altitudeMode></Camera></gx:FlyTo>
      <gx:FlyTo><gx:duration>1.5</gx:duration><gx:flyToMode>smooth</gx:flyToMode>
        <Camera><longitude>-122.285715</longitude><latitude>37.869563</latitude><altitude>61</altitude>
          <heading>40.0</heading><tilt>61.0</tilt><altitudeMode>relativeToGround</altitudeMode></Camera></gx:FlyTo>
      <gx:FlyTo><gx:duration>2.8</gx:duration><gx:flyToMode>smooth</gx:flyToMode>
        <Camera><longitude>-122.268411</longitude><latitude>37.865056</latitude><altitude>200</altitude>
          <heading>80.0</heading><tilt>36.9</tilt><altitudeMode>relativeToGround</altitudeMode></Camera></gx:FlyTo>
      <gx:FlyTo><gx:duration>2.6</gx:duration><gx:flyToMode>smooth</gx:flyToMode>
        <Camera><longitude>-122.267514</longitude><latitude>37.865181</latitude><altitude>61</altitude>
          <heading>80.0</heading><tilt>48.9</tilt><altitudeMode>relativeToGround</altitudeMode></Camera></gx:FlyTo>
      <gx:FlyTo><gx:duration>1.5</gx:duration><gx:flyToMode>smooth</gx:flyToMode>
        <Camera><longitude>-122.267963</longitude><latitude>37.865118</latitude><altitude>61</altitude>
          <heading>80.0</heading><tilt>61.0</tilt><altitudeMode>relativeToGround</altitudeMode></Camera></gx:FlyTo>
      <gx:FlyTo><gx:duration>1.5</gx:duration><gx:flyToMode>smooth</gx:flyToMode>
        <Camera><longitude>-122.267906</longitude><latitude>37.865628</latitude><altitude>61</altitude>
          <heading>110.0</heading><tilt>61.0</tilt><altitudeMode>relativeToGround</altitudeMode></Camera></gx:FlyTo>
      <gx:FlyTo><gx:duration>1.5</gx:duration><gx:flyToMode>smooth</gx:flyToMode>
        <Camera><longitude>-122.267535</longitude><latitude>37.866047</latitude><altitude>61</altitude>
          <heading>140.0</heading><tilt>61.0</tilt><altitudeMode>relativeToGround</altitudeMode></Camera></gx:FlyTo>
      <gx:FlyTo><gx:duration>1.5</gx:duration><gx:flyToMode>smooth</gx:flyToMode>
        <Camera><longitude>-122.266947</longitude><latitude>37.866263</latitude><altitude>61</altitude>
          <heading>170.0</heading><tilt>61.0</tilt><altitudeMode>relativeToGround</altitudeMode></Camera></gx:FlyTo>
      <gx:FlyTo><gx:duration>1.5</gx:duration><gx:flyToMode>smooth</gx:flyToMode>
        <Camera><longitude>-122.266302</longitude><latitude>37.866219</latitude><altitude>61</altitude>
          <heading>200.0</heading><tilt>61.0</tilt><altitudeMode>relativeToGround</altitudeMode></Camera></gx:FlyTo>
      <gx:FlyTo><gx:duration>1.5</gx:duration><gx:flyToMode>smooth</gx:flyToMode>
        <Camera><longitude>-122.265771</longitude><latitude>37.865925</latitude><altitude>61</altitude>
          <heading>230.0</heading><tilt>61.0</tilt><altitudeMode>relativeToGround</altitudeMode></Camera></gx:FlyTo>
      <gx:FlyTo><gx:duration>1.5</gx:duration><gx:flyToMode>smooth</gx:flyToMode>
        <Camera><longitude>-122.265497</longitude><latitude>37.865462</latitude><altitude>61</altitude>
          <heading>260.0</heading><tilt>61.0</tilt><altitudeMode>relativeToGround</altitudeMode></Camera></gx:FlyTo>
      <gx:FlyTo><gx:duration>1.5</gx:duration><gx:flyToMode>smooth</gx:flyToMode>
        <Camera><longitude>-122.265554</longitude><latitude>37.864952</latitude><altitude>61</altitude>
          <heading>290.0</heading><tilt>61.0</tilt><altitudeMode>relativeToGround</altitudeMode></Camera></gx:FlyTo>
      <gx:FlyTo><gx:duration>1.5</gx:duration><gx:flyToMode>smooth</gx:flyToMode>
        <Camera><longitude>-122.265925</longitude><latitude>37.864533</latitude><altitude>61</altitude>
          <heading>320.0</heading><tilt>61.0</tilt><altitudeMode>relativeToGround</altitudeMode></Camera></gx:FlyTo>
      <gx:FlyTo><gx:duration>1.5</gx:duration><gx:flyToMode>smooth</gx:flyToMode>
        <Camera><longitude>-122.266513</longitude><latitude>37.864317</latitude><altitude>61</altitude>
          <heading>350.0</heading><tilt>61.0</tilt><altitudeMode>relativeToGround</altitudeMode></Camera></gx:FlyTo>
      <gx:FlyTo><gx:duration>1.5</gx:duration><gx:flyToMode>smooth</gx:flyToMode>
        <Camera><longitude>-122.267158</longitude><latitude>37.864361</latitude><altitude>61</altitude>
          <heading>20.0</heading><tilt>61.0</tilt><altitudeMode>relativeToGround</altitudeMode></Camera></gx:FlyTo>
      <gx:FlyTo><gx:duration>1.5</gx:duration><gx:flyToMode>smooth</gx:flyToMode>
        <Camera><longitude>-122.267689</longitude><latitude>37.864655</latitude><altitude>61</altitude>
          <heading>50.0</heading><tilt>61.0</tilt><altitudeMode>relativeToGround</altitudeMode></Camera></gx:FlyTo>
      <gx:FlyTo><gx:duration>1.5</gx:duration><gx:flyToMode>smooth</gx:flyToMode>
        <Camera><longitude>-122.267963</longitude><latitude>37.865118</latitude><altitude>61</altitude>
          <heading>80.0</heading><tilt>61.0</tilt><altitudeMode>relativeToGround</altitudeMode></Camera></gx:FlyTo>
      <gx:FlyTo><gx:duration>2.8</gx:duration><gx:flyToMode>smooth</gx:flyToMode>
        <Camera><longitude>-122.271798</longitude><latitude>37.872184</latitude><altitude>200</altitude>
          <heading>120.0</heading><tilt>36.9</tilt><altitudeMode>relativeToGround</altitudeMode></Camera></gx:FlyTo>
      <gx:FlyTo><gx:duration>2.6</gx:duration><gx:flyToMode>smooth</gx:flyToMode>
        <Camera><longitude>-122.271010</longitude><latitude>37.871824</latitude><altitude>61</altitude>
          <heading>120.0</heading><tilt>48.9</tilt><altitudeMode>relativeToGround</altitudeMode></Camera></gx:FlyTo>
      <gx:Wait><gx:duration>2.0</gx:duration></gx:Wait>
      <gx:FlyTo><gx:duration>2.8</gx:duration><gx:flyToMode>smooth</gx:flyToMode>
        <Camera><longitude>-122.268274</longitude><latitude>37.874056</latitude><altitude>200</altitude>
          <heading>160.0</heading><tilt>36.9</tilt><altitudeMode>relativeToGround</altitudeMode></Camera></gx:FlyTo>
      <gx:FlyTo><gx:duration>2.6</gx:duration><gx:flyToMode>smooth</gx:flyToMode>
        <Camera><longitude>-122.267962</longitude><latitude>37.873381</latitude><altitude>61</altitude>
          <heading>160.0</heading><tilt>48.9</tilt><altitudeMode>relativeToGround</altitudeMode></Camera></gx:FlyTo>
      <gx:FlyTo><gx:duration>1.5</gx:duration><gx:flyToMode>smooth</gx:flyToMode>
        <Camera><longitude>-122.268118</longitude><latitude>37.873719</latitude><altitude>61</altitude>
          <heading>160.0</heading><tilt>61.0</tilt><altitudeMode>relativeToGround</altitudeMode></Camera></gx:FlyTo>
      <gx:FlyTo><gx:duration>1.5</gx:duration><gx:flyToMode>smooth</gx:flyToMode>
        <Camera><longitude>-122.267473</longitude><latitude>37.873763</latitude><altitude>61</altitude>
          <heading>190.0</heading><tilt>61.0</tilt><altitudeMode>relativeToGround</altitudeMode></Camera></gx:FlyTo>
      <gx:FlyTo><gx:duration>1.5</gx:duration><gx:flyToMode>smooth</gx:flyToMode>
        <Camera><longitude>-122.266885</longitude><latitude>37.873547</latitude><altitude>61</altitude>
          <heading>220.0</heading><tilt>61.0</tilt><altitudeMode>relativeToGround</altitudeMode></Camera></gx:FlyTo>
      <gx:FlyTo><gx:duration>1.5</gx:duration><gx:flyToMode>smooth</gx:flyToMode>
        <Camera><longitude>-122.266514</longitude><latitude>37.873128</latitude><altitude>61</altitude>
          <heading>250.0</heading><tilt>61.0</tilt><altitudeMode>relativeToGround</altitudeMode></Camera></gx:FlyTo>
      <gx:FlyTo><gx:duration>1.5</gx:duration><gx:flyToMode>smooth</gx:flyToMode>
        <Camera><longitude>-122.266457</longitude><latitude>37.872618</latitude><altitude>61</altitude>
          <heading>280.0</heading><tilt>61.0</tilt><altitudeMode>relativeToGround</altitudeMode></Camera></gx:FlyTo>
      <gx:FlyTo><gx:duration>1.5</gx:duration><gx:flyToMode>smooth</gx:flyToMode>
        <Camera><longitude>-122.266731</longitude><latitude>37.872155</latitude><altitude>61</altitude>
          <heading>310.0</heading><tilt>61.0</tilt><altitudeMode>relativeToGround</altitudeMode></Camera></gx:FlyTo>
      <gx:FlyTo><gx:duration>1.5</gx:duration><gx:flyToMode>smooth</gx:flyToMode>
        <Camera><longitude>-122.267262</longitude><latitude>37.871861</latitude><altitude>61</altitude>
          <heading>340.0</heading><tilt>61.0</tilt><altitudeMode>relativeToGround</altitudeMode></Camera></gx:FlyTo>
      <gx:FlyTo><gx:duration>1.5</gx:duration><gx:flyToMode>smooth</gx:flyToMode>
        <Camera><longitude>-122.267907</longitude><latitude>37.871817</latitude><altitude>61</altitude>
          <heading>10.0</heading><tilt>61.0</tilt><altitudeMode>relativeToGround</altitudeMode></Camera></gx:FlyTo>
      <gx:FlyTo><gx:duration>1.5</gx:duration><gx:flyToMode>smooth</gx:flyToMode>
        <Camera><longitude>-122.268495</longitude><latitude>37.872033</latitude><altitude>61</altitude>
          <heading>40.0</heading><tilt>61.0</tilt><altitudeMode>relativeToGround</altitudeMode></Camera></gx:FlyTo>
      <gx:FlyTo><gx:duration>1.5</gx:duration><gx:flyToMode>smooth</gx:flyToMode>
        <Camera><longitude>-122.268866</longitude><latitude>37.872452</latitude><altitude>61</altitude>
          <heading>70.0</heading><tilt>61.0</tilt><altitudeMode>relativeToGround</altitudeMode></Camera></gx:FlyTo>
      <gx:FlyTo><gx:duration>1.5</gx:duration><gx:flyToMode>smooth</gx:flyToMode>
        <Camera><longitude>-122.268923</longitude><latitude>37.872962</latitude><altitude>61</altitude>
          <heading>100.0</heading><tilt>61.0</tilt><altitudeMode>relativeToGround</altitudeMode></Camera></gx:FlyTo>
      <gx:FlyTo><gx:duration>1.5</gx:duration><gx:flyToMode>smooth</gx:flyToMode>
        <Camera><longitude>-122.268649</longitude><latitude>37.873425</latitude><altitude>61</altitude>
          <heading>130.0</heading><tilt>61.0</tilt><altitudeMode>relativeToGround</altitudeMode></Camera></gx:FlyTo>
      <gx:FlyTo><gx:duration>1.5</gx:duration><gx:flyToMode>smooth</gx:flyToMode>
        <Camera><longitude>-122.268118</longitude><latitude>37.873719</latitude><altitude>61</altitude>
          <heading>160.0</heading><tilt>61.0</tilt><altitudeMode>relativeToGround</altitudeMode></Camera></gx:FlyTo>
      <gx:FlyTo><gx:duration>2.8</gx:duration><gx:flyToMode>smooth</gx:flyToMode>
        <Camera><longitude>-122.266096</longitude><latitude>37.860946</latitude><altitude>200</altitude>
          <heading>200.0</heading><tilt>36.9</tilt><altitudeMode>relativeToGround</altitudeMode></Camera></gx:FlyTo>
      <gx:FlyTo><gx:duration>2.6</gx:duration><gx:flyToMode>smooth</gx:flyToMode>
        <Camera><longitude>-122.266408</longitude><latitude>37.860271</latitude><altitude>61</altitude>
          <heading>200.0</heading><tilt>48.9</tilt><altitudeMode>relativeToGround</altitudeMode></Camera></gx:FlyTo>
      <gx:Wait><gx:duration>2.0</gx:duration></gx:Wait>
      <gx:FlyTo><gx:duration>2.8</gx:duration><gx:flyToMode>smooth</gx:flyToMode>
        <Camera><longitude>-122.265542</longitude><latitude>37.870794</latitude><altitude>200</altitude>
          <heading>240.0</heading><tilt>36.9</tilt><altitudeMode>relativeToGround</altitudeMode></Camera></gx:FlyTo>
      <gx:FlyTo><gx:duration>2.6</gx:duration><gx:flyToMode>smooth</gx:flyToMode>
        <Camera><longitude>-122.266330</longitude><latitude>37.870434</latitude><altitude>61</altitude>
          <heading>240.0</heading><tilt>48.9</tilt><altitudeMode>relativeToGround</altitudeMode></Camera></gx:FlyTo>
      <gx:Wait><gx:duration>2.0</gx:duration></gx:Wait>
      <gx:FlyTo><gx:duration>2.8</gx:duration><gx:flyToMode>smooth</gx:flyToMode>
        <Camera><longitude>-122.264929</longitude><latitude>37.859646</latitude><altitude>200</altitude>
          <heading>280.0</heading><tilt>36.9</tilt><altitudeMode>relativeToGround</altitudeMode></Camera></gx:FlyTo>
      <gx:FlyTo><gx:duration>2.6</gx:duration><gx:flyToMode>smooth</gx:flyToMode>
        <Camera><longitude>-122.265826</longitude><latitude>37.859771</latitude><altitude>61</altitude>
          <heading>280.0</heading><tilt>48.9</tilt><altitudeMode>relativeToGround</altitudeMode></Camera></gx:FlyTo>
      <gx:Wait><gx:duration>2.0</gx:duration></gx:Wait>
      <gx:FlyTo><gx:duration>2.8</gx:duration><gx:flyToMode>smooth</gx:flyToMode>
        <Camera><longitude>-122.257013</longitude><latitude>37.863198</latitude><altitude>200</altitude>
          <heading>320.0</heading><tilt>36.9</tilt><altitudeMode>relativeToGround</altitudeMode></Camera></gx:FlyTo>
      <gx:FlyTo><gx:duration>2.6</gx:duration><gx:flyToMode>smooth</gx:flyToMode>
        <Camera><longitude>-122.257598</longitude><latitude>37.863748</latitude><altitude>61</altitude>
          <heading>320.0</heading><tilt>48.9</tilt><altitudeMode>relativeToGround</altitudeMode></Camera></gx:FlyTo>
      <gx:FlyTo><gx:duration>1.5</gx:duration><gx:flyToMode>smooth</gx:flyToMode>
        <Camera><longitude>-122.257305</longitude><latitude>37.863473</latitude><altitude>61</altitude>
          <heading>320.0</heading><tilt>61.0</tilt><altitudeMode>relativeToGround</altitudeMode></Camera></gx:FlyTo>
      <gx:FlyTo><gx:duration>1.5</gx:duration><gx:flyToMode>smooth</gx:flyToMode>
        <Camera><longitude>-122.257893</longitude><latitude>37.863257</latitude><altitude>61</altitude>
          <heading>350.0</heading><tilt>61.0</tilt><altitudeMode>relativeToGround</altitudeMode></Camera></gx:FlyTo>
      <gx:FlyTo><gx:duration>1.5</gx:duration><gx:flyToMode>smooth</gx:flyToMode>
        <Camera><longitude>-122.258538</longitude><latitude>37.863301</latitude><altitude>61</altitude>
          <heading>20.0</heading><tilt>61.0</tilt><altitudeMode>relativeToGround</altitudeMode></Camera></gx:FlyTo>
      <gx:FlyTo><gx:duration>1.5</gx:duration><gx:flyToMode>smooth</gx:flyToMode>
        <Camera><longitude>-122.259069</longitude><latitude>37.863595</latitude><altitude>61</altitude>
          <heading>50.0</heading><tilt>61.0</tilt><altitudeMode>relativeToGround</altitudeMode></Camera></gx:FlyTo>
      <gx:FlyTo><gx:duration>1.5</gx:duration><gx:flyToMode>smooth</gx:flyToMode>
        <Camera><longitude>-122.259343</longitude><latitude>37.864058</latitude><altitude>61</altitude>
          <heading>80.0</heading><tilt>61.0</tilt><altitudeMode>relativeToGround</altitudeMode></Camera></gx:FlyTo>
      <gx:FlyTo><gx:duration>1.5</gx:duration><gx:flyToMode>smooth</gx:flyToMode>
        <Camera><longitude>-122.259286</longitude><latitude>37.864568</latitude><altitude>61</altitude>
          <heading>110.0</heading><tilt>61.0</tilt><altitudeMode>relativeToGround</altitudeMode></Camera></gx:FlyTo>
      <gx:FlyTo><gx:duration>1.5</gx:duration><gx:flyToMode>smooth</gx:flyToMode>
        <Camera><longitude>-122.258915</longitude><latitude>37.864987</latitude><altitude>61</altitude>
          <heading>140.0</heading><tilt>61.0</tilt><altitudeMode>relativeToGround</altitudeMode></Camera></gx:FlyTo>
      <gx:FlyTo><gx:duration>1.5</gx:duration><gx:flyToMode>smooth</gx:flyToMode>
        <Camera><longitude>-122.258327</longitude><latitude>37.865203</latitude><altitude>61</altitude>
          <heading>170.0</heading><tilt>61.0</tilt><altitudeMode>relativeToGround</altitudeMode></Camera></gx:FlyTo>
      <gx:FlyTo><gx:duration>1.5</gx:duration><gx:flyToMode>smooth</gx:flyToMode>
        <Camera><longitude>-122.257682</longitude><latitude>37.865159</latitude><altitude>61</altitude>
          <heading>200.0</heading><tilt>61.0</tilt><altitudeMode>relativeToGround</altitudeMode></Camera></gx:FlyTo>
      <gx:FlyTo><gx:duration>1.5</gx:duration><gx:flyToMode>smooth</gx:flyToMode>
        <Camera><longitude>-122.257151</longitude><latitude>37.864865</latitude><altitude>61</altitude>
          <heading>230.0</heading><tilt>61.0</tilt><altitudeMode>relativeToGround</altitudeMode></Camera></gx:FlyTo>
      <gx:FlyTo><gx:duration>1.5</gx:duration><gx:flyToMode>smooth</gx:flyToMode>
        <Camera><longitude>-122.256877</longitude><latitude>37.864402</latitude><altitude>61</altitude>
          <heading>260.0</heading><tilt>61.0</tilt><altitudeMode>relativeToGround</altitudeMode></Camera></gx:FlyTo>
      <gx:FlyTo><gx:duration>1.5</gx:duration><gx:flyToMode>smooth</gx:flyToMode>
        <Camera><longitude>-122.256934</longitude><latitude>37.863892</latitude><altitude>61</altitude>
          <heading>290.0</heading><tilt>61.0</tilt><altitudeMode>relativeToGround</altitudeMode></Camera></gx:FlyTo>
      <gx:FlyTo><gx:duration>1.5</gx:duration><gx:flyToMode>smooth</gx:flyToMode>
        <Camera><longitude>-122.257305</longitude><latitude>37.863473</latitude><altitude>61</altitude>
          <heading>320.0</heading><tilt>61.0</tilt><altitudeMode>relativeToGround</altitudeMode></Camera></gx:FlyTo>
      <gx:FlyTo><gx:duration>2.8</gx:duration><gx:flyToMode>smooth</gx:flyToMode>
        <Camera><longitude>-122.282960</longitude><latitude>37.869193</latitude><altitude>200</altitude>
          <heading>0.0</heading><tilt>36.9</tilt><altitudeMode>relativeToGround</altitudeMode></Camera></gx:FlyTo>
      <gx:FlyTo><gx:duration>2.6</gx:duration><gx:flyToMode>smooth</gx:flyToMode>
        <Camera><longitude>-122.282960</longitude><latitude>37.869911</latitude><altitude>61</altitude>
          <heading>0.0</heading><tilt>48.9</tilt><altitudeMode>relativeToGround</altitudeMode></Camera></gx:FlyTo>
      <gx:Wait><gx:duration>2.0</gx:duration></gx:Wait>
      <gx:FlyTo><gx:duration>2.8</gx:duration><gx:flyToMode>smooth</gx:flyToMode>
        <Camera><longitude>-122.254627</longitude><latitude>37.863078</latitude><altitude>200</altitude>
          <heading>40.0</heading><tilt>36.9</tilt><altitudeMode>relativeToGround</altitudeMode></Camera></gx:FlyTo>
      <gx:FlyTo><gx:duration>2.6</gx:duration><gx:flyToMode>smooth</gx:flyToMode>
        <Camera><longitude>-122.254042</longitude><latitude>37.863628</latitude><altitude>61</altitude>
          <heading>40.0</heading><tilt>48.9</tilt><altitudeMode>relativeToGround</altitudeMode></Camera></gx:FlyTo>
      <gx:Wait><gx:duration>2.0</gx:duration></gx:Wait>
      <gx:FlyTo><gx:duration>2.8</gx:duration><gx:flyToMode>smooth</gx:flyToMode>
        <Camera><longitude>-122.270811</longitude><latitude>37.875126</latitude><altitude>200</altitude>
          <heading>80.0</heading><tilt>36.9</tilt><altitudeMode>relativeToGround</altitudeMode></Camera></gx:FlyTo>
      <gx:FlyTo><gx:duration>2.6</gx:duration><gx:flyToMode>smooth</gx:flyToMode>
        <Camera><longitude>-122.269915</longitude><latitude>37.875251</latitude><altitude>61</altitude>
          <heading>80.0</heading><tilt>48.9</tilt><altitudeMode>relativeToGround</altitudeMode></Camera></gx:FlyTo>
      <gx:FlyTo><gx:duration>1.5</gx:duration><gx:flyToMode>smooth</gx:flyToMode>
        <Camera><longitude>-122.270363</longitude><latitude>37.875188</latitude><altitude>61</altitude>
          <heading>80.0</heading><tilt>61.0</tilt><altitudeMode>relativeToGround</altitudeMode></Camera></gx:FlyTo>
      <gx:FlyTo><gx:duration>1.5</gx:duration><gx:flyToMode>smooth</gx:flyToMode>
        <Camera><longitude>-122.270306</longitude><latitude>37.875698</latitude><altitude>61</altitude>
          <heading>110.0</heading><tilt>61.0</tilt><altitudeMode>relativeToGround</altitudeMode></Camera></gx:FlyTo>
      <gx:FlyTo><gx:duration>1.5</gx:duration><gx:flyToMode>smooth</gx:flyToMode>
        <Camera><longitude>-122.269935</longitude><latitude>37.876117</latitude><altitude>61</altitude>
          <heading>140.0</heading><tilt>61.0</tilt><altitudeMode>relativeToGround</altitudeMode></Camera></gx:FlyTo>
      <gx:FlyTo><gx:duration>1.5</gx:duration><gx:flyToMode>smooth</gx:flyToMode>
        <Camera><longitude>-122.269347</longitude><latitude>37.876333</latitude><altitude>61</altitude>
          <heading>170.0</heading><tilt>61.0</tilt><altitudeMode>relativeToGround</altitudeMode></Camera></gx:FlyTo>
      <gx:FlyTo><gx:duration>1.5</gx:duration><gx:flyToMode>smooth</gx:flyToMode>
        <Camera><longitude>-122.268702</longitude><latitude>37.876289</latitude><altitude>61</altitude>
          <heading>200.0</heading><tilt>61.0</tilt><altitudeMode>relativeToGround</altitudeMode></Camera></gx:FlyTo>
      <gx:FlyTo><gx:duration>1.5</gx:duration><gx:flyToMode>smooth</gx:flyToMode>
        <Camera><longitude>-122.268171</longitude><latitude>37.875995</latitude><altitude>61</altitude>
          <heading>230.0</heading><tilt>61.0</tilt><altitudeMode>relativeToGround</altitudeMode></Camera></gx:FlyTo>
      <gx:FlyTo><gx:duration>1.5</gx:duration><gx:flyToMode>smooth</gx:flyToMode>
        <Camera><longitude>-122.267897</longitude><latitude>37.875532</latitude><altitude>61</altitude>
          <heading>260.0</heading><tilt>61.0</tilt><altitudeMode>relativeToGround</altitudeMode></Camera></gx:FlyTo>
      <gx:FlyTo><gx:duration>1.5</gx:duration><gx:flyToMode>smooth</gx:flyToMode>
        <Camera><longitude>-122.267954</longitude><latitude>37.875022</latitude><altitude>61</altitude>
          <heading>290.0</heading><tilt>61.0</tilt><altitudeMode>relativeToGround</altitudeMode></Camera></gx:FlyTo>
      <gx:FlyTo><gx:duration>1.5</gx:duration><gx:flyToMode>smooth</gx:flyToMode>
        <Camera><longitude>-122.268325</longitude><latitude>37.874603</latitude><altitude>61</altitude>
          <heading>320.0</heading><tilt>61.0</tilt><altitudeMode>relativeToGround</altitudeMode></Camera></gx:FlyTo>
      <gx:FlyTo><gx:duration>1.5</gx:duration><gx:flyToMode>smooth</gx:flyToMode>
        <Camera><longitude>-122.268913</longitude><latitude>37.874387</latitude><altitude>61</altitude>
          <heading>350.0</heading><tilt>61.0</tilt><altitudeMode>relativeToGround</altitudeMode></Camera></gx:FlyTo>
      <gx:FlyTo><gx:duration>1.5</gx:duration><gx:flyToMode>smooth</gx:flyToMode>
        <Camera><longitude>-122.269558</longitude><latitude>37.874431</latitude><altitude>61</altitude>
          <heading>20.0</heading><tilt>61.0</tilt><altitudeMode>relativeToGround</altitudeMode></Camera></gx:FlyTo>
      <gx:FlyTo><gx:duration>1.5</gx:duration><gx:flyToMode>smooth</gx:flyToMode>
        <Camera><longitude>-122.270089</longitude><latitude>37.874725</latitude><altitude>61</altitude>
          <heading>50.0</heading><tilt>61.0</tilt><altitudeMode>relativeToGround</altitudeMode></Camera></gx:FlyTo>
      <gx:FlyTo><gx:duration>1.5</gx:duration><gx:flyToMode>smooth</gx:flyToMode>
        <Camera><longitude>-122.270363</longitude><latitude>37.875188</latitude><altitude>61</altitude>
          <heading>80.0</heading><tilt>61.0</tilt><altitudeMode>relativeToGround</altitudeMode></Camera></gx:FlyTo>
      <gx:FlyTo><gx:duration>2.8</gx:duration><gx:flyToMode>smooth</gx:flyToMode>
        <Camera><longitude>-122.260888</longitude><latitude>37.861674</latitude><altitude>200</altitude>
          <heading>120.0</heading><tilt>36.9</tilt><altitudeMode>relativeToGround</altitudeMode></Camera></gx:FlyTo>
      <gx:FlyTo><gx:duration>2.6</gx:duration><gx:flyToMode>smooth</gx:flyToMode>
        <Camera><longitude>-122.260100</longitude><latitude>37.861314</latitude><altitude>61</altitude>
          <heading>120.0</heading><tilt>48.9</tilt><altitudeMode>relativeToGround</altitudeMode></Camera></gx:FlyTo>
      <gx:FlyTo><gx:duration>1.5</gx:duration><gx:flyToMode>smooth</gx:flyToMode>
        <Camera><longitude>-122.260494</longitude><latitude>37.861494</latitude><altitude>61</altitude>
          <heading>120.0</heading><tilt>61.0</tilt><altitudeMode>relativeToGround</altitudeMode></Camera></gx:FlyTo>
      <gx:FlyTo><gx:duration>1.5</gx:duration><gx:flyToMode>smooth</gx:flyToMode>
        <Camera><longitude>-122.260036</longitude><latitude>37.861856</latitude><altitude>61</altitude>
          <heading>150.0</heading><tilt>61.0</tilt><altitudeMode>relativeToGround</altitudeMode></Camera></gx:FlyTo>
      <gx:FlyTo><gx:duration>1.5</gx:duration><gx:flyToMode>smooth</gx:flyToMode>
        <Camera><longitude>-122.259410</longitude><latitude>37.861988</latitude><altitude>61</altitude>
          <heading>180.0</heading><tilt>61.0</tilt><altitudeMode>relativeToGround</altitudeMode></Camera></gx:FlyTo>
      <gx:FlyTo><gx:duration>1.5</gx:duration><gx:flyToMode>smooth</gx:flyToMode>
        <Camera><longitude>-122.258784</longitude><latitude>37.861856</latitude><altitude>61</altitude>
          <heading>210.0</heading><tilt>61.0</tilt><altitudeMode>relativeToGround</altitudeMode></Camera></gx:FlyTo>
      <gx:FlyTo><gx:duration>1.5</gx:duration><gx:flyToMode>smooth</gx:flyToMode>
        <Camera><longitude>-122.258326</longitude><latitude>37.861494</latitude><altitude>61</altitude>
          <heading>240.0</heading><tilt>61.0</tilt><altitudeMode>relativeToGround</altitudeMode></Camera></gx:FlyTo>
      <gx:FlyTo><gx:duration>1.5</gx:duration><gx:flyToMode>smooth</gx:flyToMode>
        <Camera><longitude>-122.258158</longitude><latitude>37.861000</latitude><altitude>61</altitude>
          <heading>270.0</heading><tilt>61.0</tilt><altitudeMode>relativeToGround</altitudeMode></Camera></gx:FlyTo>
      <gx:FlyTo><gx:duration>1.5</gx:duration><gx:flyToMode>smooth</gx:flyToMode>
        <Camera><longitude>-122.258326</longitude><latitude>37.860506</latitude><altitude>61</altitude>
          <heading>300.0</heading><tilt>61.0</tilt><altitudeMode>relativeToGround</altitudeMode></Camera></gx:FlyTo>
      <gx:FlyTo><gx:duration>1.5</gx:duration><gx:flyToMode>smooth</gx:flyToMode>
        <Camera><longitude>-122.258784</longitude><latitude>37.860144</latitude><altitude>61</altitude>
          <heading>330.0</heading><tilt>61.0</tilt><altitudeMode>relativeToGround</altitudeMode></Camera></gx:FlyTo>
      <gx:FlyTo><gx:duration>1.5</gx:duration><gx:flyToMode>smooth</gx:flyToMode>
        <Camera><longitude>-122.259410</longitude><latitude>37.860012</latitude><altitude>61</altitude>
          <heading>0.0</heading><tilt>61.0</tilt><altitudeMode>relativeToGround</altitudeMode></Camera></gx:FlyTo>
      <gx:FlyTo><gx:duration>1.5</gx:duration><gx:flyToMode>smooth</gx:flyToMode>
        <Camera><longitude>-122.260036</longitude><latitude>37.860144</latitude><altitude>61</altitude>
          <heading>30.0</heading><tilt>61.0</tilt><altitudeMode>relativeToGround</altitudeMode></Camera></gx:FlyTo>
      <gx:FlyTo><gx:duration>1.5</gx:duration><gx:flyToMode>smooth</gx:flyToMode>
        <Camera><longitude>-122.260494</longitude><latitude>37.860506</latitude><altitude>61</altitude>
          <heading>60.0</heading><tilt>61.0</tilt><altitudeMode>relativeToGround</altitudeMode></Camera></gx:FlyTo>
      <gx:FlyTo><gx:duration>1.5</gx:duration><gx:flyToMode>smooth</gx:flyToMode>
        <Camera><longitude>-122.260662</longitude><latitude>37.861000</latitude><altitude>61</altitude>
          <heading>90.0</heading><tilt>61.0</tilt><altitudeMode>relativeToGround</altitudeMode></Camera></gx:FlyTo>
      <gx:FlyTo><gx:duration>1.5</gx:duration><gx:flyToMode>smooth</gx:flyToMode>
        <Camera><longitude>-122.260494</longitude><latitude>37.861494</latitude><altitude>61</altitude>
          <heading>120.0</heading><tilt>61.0</tilt><altitudeMode>relativeToGround</altitudeMode></Camera></gx:FlyTo>
      <gx:FlyTo><gx:duration>2.8</gx:duration><gx:flyToMode>smooth</gx:flyToMode>
        <Camera><longitude>-122.276734</longitude><latitude>37.878996</latitude><altitude>200</altitude>
          <heading>160.0</heading><tilt>36.9</tilt><altitudeMode>relativeToGround</altitudeMode></Camera></gx:FlyTo>
      <gx:FlyTo><gx:duration>2.6</gx:duration><gx:flyToMode>smooth</gx:flyToMode>
        <Camera><longitude>-122.276422</longitude><latitude>37.878321</latitude><altitude>61</altitude>
          <heading>160.0</heading><tilt>48.9</tilt><altitudeMode>relativeToGround</altitudeMode></Camera></gx:FlyTo>
      <gx:Wait><gx:duration>2.0</gx:duration></gx:Wait>
      <gx:FlyTo><gx:duration>2.8</gx:duration><gx:flyToMode>smooth</gx:flyToMode>
        <Camera><longitude>-122.274156</longitude><latitude>37.884286</latitude><altitude>200</altitude>
          <heading>200.0</heading><tilt>36.9</tilt><altitudeMode>relativeToGround</altitudeMode></Camera></gx:FlyTo>
      <gx:FlyTo><gx:duration>2.6</gx:duration><gx:flyToMode>smooth</gx:flyToMode>
        <Camera><longitude>-122.274468</longitude><latitude>37.883611</latitude><altitude>61</altitude>
          <heading>200.0</heading><tilt>48.9</tilt><altitudeMode>relativeToGround</altitudeMode></Camera></gx:FlyTo>
      <gx:Wait><gx:duration>2.0</gx:duration></gx:Wait>
      <gx:FlyTo><gx:duration>2.8</gx:duration><gx:flyToMode>smooth</gx:flyToMode>
        <Camera><longitude>-122.267002</longitude><latitude>37.868554</latitude><altitude>200</altitude>
          <heading>240.0</heading><tilt>36.9</tilt><altitudeMode>relativeToGround</altitudeMode></Camera></gx:FlyTo>
      <gx:FlyTo><gx:duration>2.6</gx:duration><gx:flyToMode>smooth</gx:flyToMode>
        <Camera><longitude>-122.267790</longitude><latitude>37.868194</latitude><altitude>61</altitude>
          <heading>240.0</heading><tilt>48.9</tilt><altitudeMode>relativeToGround</altitudeMode></Camera></gx:FlyTo>
      <gx:FlyTo><gx:duration>1.5</gx:duration><gx:flyToMode>smooth</gx:flyToMode>
        <Camera><longitude>-122.267396</longitude><latitude>37.868374</latitude><altitude>61</altitude>
          <heading>240.0</heading><tilt>61.0</tilt><altitudeMode>relativeToGround</altitudeMode></Camera></gx:FlyTo>
      <gx:FlyTo><gx:duration>1.5</gx:duration><gx:flyToMode>smooth</gx:flyToMode>
        <Camera><longitude>-122.267228</longitude><latitude>37.867880</latitude><altitude>61</altitude>
          <heading>270.0</heading><tilt>61.0</tilt><altitudeMode>relativeToGround</altitudeMode></Camera></gx:FlyTo>
      <gx:FlyTo><gx:duration>1.5</gx:duration><gx:flyToMode>smooth</gx:flyToMode>
        <Camera><longitude>-122.267396</longitude><latitude>37.867386</latitude><altitude>61</altitude>
          <heading>300.0</heading><tilt>61.0</tilt><altitudeMode>relativeToGround</altitudeMode></Camera></gx:FlyTo>
      <gx:FlyTo><gx:duration>1.5</gx:duration><gx:flyToMode>smooth</gx:flyToMode>
        <Camera><longitude>-122.267854</longitude><latitude>37.867024</latitude><altitude>61</altitude>
          <heading>330.0</heading><tilt>61.0</tilt><altitudeMode>relativeToGround</altitudeMode></Camera></gx:FlyTo>
      <gx:FlyTo><gx:duration>1.5</gx:duration><gx:flyToMode>smooth</gx:flyToMode>
        <Camera><longitude>-122.268480</longitude><latitude>37.866892</latitude><altitude>61</altitude>
          <heading>0.0</heading><tilt>61.0</tilt><altitudeMode>relativeToGround</altitudeMode></Camera></gx:FlyTo>
      <gx:FlyTo><gx:duration>1.5</gx:duration><gx:flyToMode>smooth</gx:flyToMode>
        <Camera><longitude>-122.269106</longitude><latitude>37.867024</latitude><altitude>61</altitude>
          <heading>30.0</heading><tilt>61.0</tilt><altitudeMode>relativeToGround</altitudeMode></Camera></gx:FlyTo>
      <gx:FlyTo><gx:duration>1.5</gx:duration><gx:flyToMode>smooth</gx:flyToMode>
        <Camera><longitude>-122.269564</longitude><latitude>37.867386</latitude><altitude>61</altitude>
          <heading>60.0</heading><tilt>61.0</tilt><altitudeMode>relativeToGround</altitudeMode></Camera></gx:FlyTo>
      <gx:FlyTo><gx:duration>1.5</gx:duration><gx:flyToMode>smooth</gx:flyToMode>
        <Camera><longitude>-122.269732</longitude><latitude>37.867880</latitude><altitude>61</altitude>
          <heading>90.0</heading><tilt>61.0</tilt><altitudeMode>relativeToGround</altitudeMode></Camera></gx:FlyTo>
      <gx:FlyTo><gx:duration>1.5</gx:duration><gx:flyToMode>smooth</gx:flyToMode>
        <Camera><longitude>-122.269564</longitude><latitude>37.868374</latitude><altitude>61</altitude>
          <heading>120.0</heading><tilt>61.0</tilt><altitudeMode>relativeToGround</altitudeMode></Camera></gx:FlyTo>
      <gx:FlyTo><gx:duration>1.5</gx:duration><gx:flyToMode>smooth</gx:flyToMode>
        <Camera><longitude>-122.269106</longitude><latitude>37.868736</latitude><altitude>61</altitude>
          <heading>150.0</heading><tilt>61.0</tilt><altitudeMode>relativeToGround</altitudeMode></Camera></gx:FlyTo>
      <gx:FlyTo><gx:duration>1.5</gx:duration><gx:flyToMode>smooth</gx:flyToMode>
        <Camera><longitude>-122.268480</longitude><latitude>37.868868</latitude><altitude>61</altitude>
          <heading>180.0</heading><tilt>61.0</tilt><altitudeMode>relativeToGround</altitudeMode></Camera></gx:FlyTo>
      <gx:FlyTo><gx:duration>1.5</gx:duration><gx:flyToMode>smooth</gx:flyToMode>
        <Camera><longitude>-122.267854</longitude><latitude>37.868736</latitude><altitude>61</altitude>
          <heading>210.0</heading><tilt>61.0</tilt><altitudeMode>relativeToGround</altitudeMode></Camera></gx:FlyTo>
      <gx:FlyTo><gx:duration>1.5</gx:duration><gx:flyToMode>smooth</gx:flyToMode>
        <Camera><longitude>-122.267396</longitude><latitude>37.868374</latitude><altitude>61</altitude>
          <heading>240.0</heading><tilt>61.0</tilt><altitudeMode>relativeToGround</altitudeMode></Camera></gx:FlyTo>
      <gx:FlyTo><gx:duration>2.8</gx:duration><gx:flyToMode>smooth</gx:flyToMode>
        <Camera><longitude>-122.267689</longitude><latitude>37.876606</latitude><altitude>200</altitude>
          <heading>280.0</heading><tilt>36.9</tilt><altitudeMode>relativeToGround</altitudeMode></Camera></gx:FlyTo>
      <gx:FlyTo><gx:duration>2.6</gx:duration><gx:flyToMode>smooth</gx:flyToMode>
        <Camera><longitude>-122.268585</longitude><latitude>37.876731</latitude><altitude>61</altitude>
          <heading>280.0</heading><tilt>48.9</tilt><altitudeMode>relativeToGround</altitudeMode></Camera></gx:FlyTo>
      <gx:Wait><gx:duration>2.0</gx:duration></gx:Wait>
      <gx:FlyTo><gx:duration>5.0</gx:duration><gx:flyToMode>smooth</gx:flyToMode>
        <Camera><longitude>-122.289717</longitude><latitude>37.878834</latitude><altitude>950</altitude>
          <heading>120.0</heading><tilt>64.6</tilt><altitudeMode>relativeToGround</altitudeMode></Camera></gx:FlyTo>
      <gx:Wait><gx:duration>2.0</gx:duration></gx:Wait>
  </gx:Playlist></gx:Tour>
  <Placemark><name>Henry Court (1990) · 6 units</name><styleUrl>#e_1990s</styleUrl><description>1509 Henry St</description><MultiGeometry><Point><altitudeMode>relativeToGround</altitudeMode><coordinates>-122.270080,37.879660,14</coordinates></Point><Polygon><extrude>1</extrude><altitudeMode>relativeToGround</altitudeMode><outerBoundaryIs><LinearRing><coordinates>-122.269894,37.879645,14 -122.270355,37.879575,14 -122.270368,37.879685,14 -122.269907,37.879748,14 -122.269894,37.879645,14</coordinates></LinearRing></outerBoundaryIs></Polygon></MultiGeometry></Placemark>
  <Placemark><name>Westside Place (1993) · 7 units</name><styleUrl>#e_1990s</styleUrl><description>2714 9th St</description><MultiGeometry><Point><altitudeMode>relativeToGround</altitudeMode><coordinates>-122.290950,37.856800,14</coordinates></Point><Polygon><extrude>1</extrude><altitudeMode>relativeToGround</altitudeMode><outerBoundaryIs><LinearRing><coordinates>-122.290715,37.856675,14 -122.290987,37.856606,14 -122.291074,37.856854,14 -122.291077,37.856859,14 -122.291077,37.856860,14 -122.291072,37.856861,14 -122.291061,37.856864,14 -122.290796,37.856930,14 -122.290715,37.856675,14</coordinates></LinearRing></outerBoundaryIs></Polygon></MultiGeometry></Placemark>
  <Placemark><name>Shattuck Lofts (1995) · 24 units</name><styleUrl>#e_1990s</styleUrl><description>1849 Shattuck Ave</description><MultiGeometry><Point><altitudeMode>relativeToGround</altitudeMode><coordinates>-122.268360,37.874170,19</coordinates></Point><Polygon><extrude>1</extrude><altitudeMode>relativeToGround</altitudeMode><outerBoundaryIs><LinearRing><coordinates>-122.268276,37.874027,19 -122.268440,37.874004,19 -122.268482,37.874376,19 -122.268326,37.874399,19 -122.268276,37.874027,19</coordinates></LinearRing></outerBoundaryIs></Polygon></MultiGeometry></Placemark>
  <Placemark><name>University Lofts (1997) · 29 units</name><styleUrl>#e_1990s</styleUrl><description>1801 University Ave</description><MultiGeometry><Point><altitudeMode>relativeToGround</altitudeMode><coordinates>-122.274980,37.871660,21</coordinates></Point><Polygon><extrude>1</extrude><altitudeMode>relativeToGround</altitudeMode><outerBoundaryIs><LinearRing><coordinates>-122.274884,37.871763,21 -122.274823,37.871465,21 -122.275179,37.871419,21 -122.275218,37.871761,21 -122.274892,37.871803,21 -122.274884,37.871763,21</coordinates></LinearRing></outerBoundaryIs></Polygon></MultiGeometry></Placemark>
  <Placemark><name>The Berkeleyan (1998) · 56 units</name><styleUrl>#e_1990s</styleUrl><description>1910 Oxford St</description><MultiGeometry><Point><altitudeMode>relativeToGround</altitudeMode><coordinates>-122.266590,37.873510,29</coordinates></Point><Polygon><extrude>1</extrude><altitudeMode>relativeToGround</altitudeMode><outerBoundaryIs><LinearRing><coordinates>-122.266676,37.873400,29 -122.266740,37.873711,29 -122.266414,37.873753,29 -122.266375,37.873431,29 -122.266674,37.873392,29 -122.266676,37.873400,29</coordinates></LinearRing></outerBoundaryIs></Polygon></MultiGeometry></Placemark>
  <Placemark><name>GAIA Building (2001) · 91 units</name><styleUrl>#e_2000s</styleUrl><description>2116 Allston Way</description><MultiGeometry><Point><altitudeMode>relativeToGround</altitudeMode><coordinates>-122.267000,37.869190,39</coordinates></Point><Polygon><extrude>1</extrude><altitudeMode>relativeToGround</altitudeMode><outerBoundaryIs><LinearRing><coordinates>-122.267061,37.869069,39 -122.267195,37.869052,39 -122.267267,37.869418,39 -122.266889,37.869465,39 -122.266845,37.869222,39 -122.266822,37.869100,39 -122.266890,37.869092,39 -122.267061,37.869069,39</coordinates></LinearRing></outerBoundaryIs></Polygon></MultiGeometry></Placemark>
  <Placemark><name>ARTech (2002) · 21 units</name><styleUrl>#e_2000s</styleUrl><description>2002 Addison St ~approx loc</description><MultiGeometry><Point><altitudeMode>relativeToGround</altitudeMode><coordinates>-122.270370,37.871280,18</coordinates></Point><Polygon><extrude>1</extrude><altitudeMode>relativeToGround</altitudeMode><outerBoundaryIs><LinearRing><coordinates>-122.270518,37.871163,18 -122.270222,37.871163,18 -122.270222,37.871397,18 -122.270518,37.871397,18 -122.270518,37.871163,18</coordinates></LinearRing></outerBoundaryIs></Polygon></MultiGeometry></Placemark>
  <Placemark><name>Acton Courtyard (2004) · 71 units</name><styleUrl>#e_2000s</styleUrl><description>1370 University Ave ~approx loc</description><MultiGeometry><Point><altitudeMode>relativeToGround</altitudeMode><coordinates>-122.284910,37.870320,33</coordinates></Point><Polygon><extrude>1</extrude><altitudeMode>relativeToGround</altitudeMode><outerBoundaryIs><LinearRing><coordinates>-122.285058,37.870203,33 -122.284762,37.870203,33 -122.284762,37.870437,33 -122.285058,37.870437,33 -122.285058,37.870203,33</coordinates></LinearRing></outerBoundaryIs></Polygon></MultiGeometry></Placemark>
  <Placemark><name>Fine Arts Building (2004) · 100 units</name><styleUrl>#e_2000s</styleUrl><description>2110 Haste St ~approx loc</description><MultiGeometry><Point><altitudeMode>relativeToGround</altitudeMode><coordinates>-122.266730,37.865290,42</coordinates></Point><Polygon><extrude>1</extrude><altitudeMode>relativeToGround</altitudeMode><outerBoundaryIs><LinearRing><coordinates>-122.266878,37.865173,42 -122.266582,37.865173,42 -122.266582,37.865407,42 -122.266878,37.865407,42 -122.266878,37.865173,42</coordinates></LinearRing></outerBoundaryIs></Polygon></MultiGeometry></Placemark>
  <Placemark><name>Touriel Building (2004) · 35 units</name><styleUrl>#e_2000s</styleUrl><description>2004 University Ave</description><MultiGeometry><Point><altitudeMode>relativeToGround</altitudeMode><coordinates>-122.270320,37.871510,22</coordinates></Point><Polygon><extrude>1</extrude><altitudeMode>relativeToGround</altitudeMode><outerBoundaryIs><LinearRing><coordinates>-122.270201,37.871367,22 -122.270378,37.871343,22 -122.270392,37.871423,22 -122.270401,37.871510,22 -122.270427,37.871760,22 -122.270255,37.871784,22 -122.270201,37.871367,22</coordinates></LinearRing></outerBoundaryIs></Polygon></MultiGeometry></Placemark>
  <Placemark><name>Bachenheimer Building (2004) · 44 units</name><styleUrl>#e_2000s</styleUrl><description>2119 University Ave</description><MultiGeometry><Point><altitudeMode>relativeToGround</altitudeMode><coordinates>-122.267690,37.872790,25</coordinates></Point><Polygon><extrude>1</extrude><altitudeMode>relativeToGround</altitudeMode><outerBoundaryIs><LinearRing><coordinates>-122.267853,37.873057,25 -122.267803,37.872815,25 -122.267472,37.872859,25 -122.267472,37.872859,25 -122.267466,37.872834,25 -122.267455,37.872778,25 -122.267455,37.872778,25 -122.267601,37.872759,25 -122.267613,37.872758,25 -122.267618,37.872718,25 -122.267665,37.872392,25 -122.267878,37.872364,25 -122.267851,37.872687,25 -122.267849,37.872688,25 -122.267849,37.872688,25 -122.267891,37.873055,25 -122.267854,37.873060,25 -122.267853,37.873057,25</coordinates></LinearRing></outerBoundaryIs></Polygon></MultiGeometry></Placemark>
  <Placemark><name>UC Storage (2006) · 2000s</name><styleUrl>#e_2000s</styleUrl><description>2721 Shattuck Ave</description><MultiGeometry><Point><altitudeMode>relativeToGround</altitudeMode><coordinates>-122.266680,37.859680,22</coordinates></Point><Polygon><extrude>1</extrude><altitudeMode>relativeToGround</altitudeMode><outerBoundaryIs><LinearRing><coordinates>-122.266415,37.859605,22 -122.266919,37.859538,22 -122.266940,37.859720,22 -122.266923,37.859775,22 -122.266467,37.859838,22 -122.266415,37.859605,22</coordinates></LinearRing></outerBoundaryIs></Polygon></MultiGeometry></Placemark>
  <Placemark><name>2130 Center (2009) · 2000s</name><styleUrl>#e_2000s</styleUrl><description>2130 Center St</description><MultiGeometry><Point><altitudeMode>relativeToGround</altitudeMode><coordinates>-122.267020,37.870120,22</coordinates></Point><Polygon><extrude>1</extrude><altitudeMode>relativeToGround</altitudeMode><outerBoundaryIs><LinearRing><coordinates>-122.266934,37.869992,22 -122.267124,37.869966,22 -122.267158,37.870312,22 -122.266974,37.870340,22 -122.266934,37.869992,22</coordinates></LinearRing></outerBoundaryIs></Polygon></MultiGeometry></Placemark>
  <Placemark><name>Shattuck Studios (2018) · 22 units</name><styleUrl>#e_recent</styleUrl><description>2711 Shattuck Ave</description><MultiGeometry><Point><altitudeMode>relativeToGround</altitudeMode><coordinates>-122.266610,37.859880,19</coordinates></Point><Polygon><extrude>1</extrude><altitudeMode>relativeToGround</altitudeMode><outerBoundaryIs><LinearRing><coordinates>-122.266475,37.859869,19 -122.266467,37.859838,19 -122.266923,37.859775,19 -122.266888,37.859903,19 -122.266532,37.859950,19 -122.266491,37.859955,19 -122.266475,37.859869,19</coordinates></LinearRing></outerBoundaryIs></Polygon></MultiGeometry></Placemark>
  <Placemark><name>Panoramic Berkeley (2019) · 70 units</name><styleUrl>#e_recent</styleUrl><description>2539 Telegraph Ave</description><MultiGeometry><Point><altitudeMode>relativeToGround</altitudeMode><coordinates>-122.258110,37.864230,33</coordinates></Point><Polygon><extrude>1</extrude><altitudeMode>relativeToGround</altitudeMode><outerBoundaryIs><LinearRing><coordinates>-122.258150,37.864112,33 -122.258414,37.864097,33 -122.258374,37.864374,33 -122.258057,37.864393,33 -122.257831,37.864407,33 -122.257805,37.864133,33 -122.258150,37.864112,33</coordinates></LinearRing></outerBoundaryIs></Polygon></MultiGeometry></Placemark>
  <Placemark><name>Step Up Housing (2025) · 39 units</name><styleUrl>#e_recent</styleUrl><description>1367 University Ave</description><MultiGeometry><Point><altitudeMode>relativeToGround</altitudeMode><coordinates>-122.282960,37.870540,24</coordinates></Point><Polygon><extrude>1</extrude><altitudeMode>relativeToGround</altitudeMode><outerBoundaryIs><LinearRing><coordinates>-122.282865,37.870440,24 -122.283032,37.870415,24 -122.283091,37.870698,24 -122.282923,37.870718,24 -122.282865,37.870440,24</coordinates></LinearRing></outerBoundaryIs></Polygon></MultiGeometry></Placemark>
  <Placemark><name>Panoramic College (2025) · 12 units</name><styleUrl>#e_recent</styleUrl><description>2555 College Ave</description><MultiGeometry><Point><altitudeMode>relativeToGround</altitudeMode><coordinates>-122.253530,37.864110,16</coordinates></Point><Polygon><extrude>1</extrude><altitudeMode>relativeToGround</altitudeMode><outerBoundaryIs><LinearRing><coordinates>-122.253453,37.864023,16 -122.253629,37.864012,16 -122.253660,37.864234,16 -122.253479,37.864243,16 -122.253453,37.864023,16</coordinates></LinearRing></outerBoundaryIs></Polygon></MultiGeometry></Placemark>
  <Placemark><name>Panoramic Northside (2026) · 72 units</name><styleUrl>#e_recent</styleUrl><description>1752 Shattuck Ave</description><MultiGeometry><Point><altitudeMode>relativeToGround</altitudeMode><coordinates>-122.269130,37.875360,34</coordinates></Point><Polygon><extrude>1</extrude><altitudeMode>relativeToGround</altitudeMode><outerBoundaryIs><LinearRing><coordinates>-122.268920,37.875295,34 -122.269265,37.875244,34 -122.269270,37.875296,34 -122.269272,37.875311,34 -122.269220,37.875318,34 -122.269246,37.875562,34 -122.268956,37.875596,34 -122.268920,37.875295,34</coordinates></LinearRing></outerBoundaryIs></Polygon></MultiGeometry></Placemark>
  <Placemark><name>Panoramic Southside (2027) · 57 units</name><styleUrl>#e_proposed</styleUrl><description>2712 Telegraph Ave</description><MultiGeometry><Point><altitudeMode>relativeToGround</altitudeMode><coordinates>-122.259410,37.861000,29</coordinates></Point><Polygon><extrude>1</extrude><altitudeMode>relativeToGround</altitudeMode><outerBoundaryIs><LinearRing><coordinates>-122.259200,37.860917,29 -122.259526,37.860874,29 -122.259550,37.860993,29 -122.259560,37.861036,29 -122.259530,37.861041,29 -122.259544,37.861107,29 -122.259164,37.861154,29 -122.259200,37.860917,29</coordinates></LinearRing></outerBoundaryIs></Polygon></MultiGeometry></Placemark>
  <Placemark><name>Panoramic Cedar (2027) · 6 units</name><styleUrl>#e_proposed</styleUrl><description>1745 Cedar St</description><MultiGeometry><Point><altitudeMode>relativeToGround</altitudeMode><coordinates>-122.276150,37.877730,14</coordinates></Point><Polygon><extrude>1</extrude><altitudeMode>relativeToGround</altitudeMode><outerBoundaryIs><LinearRing><coordinates>-122.276191,37.877592,14 -122.276226,37.877920,14 -122.276097,37.877938,14 -122.276058,37.877612,14 -122.276191,37.877592,14</coordinates></LinearRing></outerBoundaryIs></Polygon></MultiGeometry></Placemark>
  <Placemark><name>Panoramic Berryman (2027) · 6 units</name><styleUrl>#e_proposed</styleUrl><description>1850 Berryman St</description><MultiGeometry><Point><altitudeMode>relativeToGround</altitudeMode><coordinates>-122.274740,37.883020,14</coordinates></Point><Polygon><extrude>1</extrude><altitudeMode>relativeToGround</altitudeMode><outerBoundaryIs><LinearRing><coordinates>-122.274670,37.883117,14 -122.274644,37.882891,14 -122.274853,37.882864,14 -122.274879,37.883089,14 -122.274670,37.883117,14</coordinates></LinearRing></outerBoundaryIs></Polygon></MultiGeometry></Placemark>
  <Placemark><name>Panoramic Regal (2028) · 299 units</name><styleUrl>#e_proposed</styleUrl><description>2274 Shattuck Ave</description><MultiGeometry><Point><altitudeMode>relativeToGround</altitudeMode><coordinates>-122.268480,37.867880,100</coordinates></Point><Polygon><extrude>1</extrude><altitudeMode>relativeToGround</altitudeMode><outerBoundaryIs><LinearRing><coordinates>-122.268094,37.867997,100 -122.268084,37.867885,100 -122.268447,37.867840,100 -122.268398,37.867601,100 -122.268790,37.867549,100 -122.268858,37.867914,100 -122.268846,37.867917,100 -122.268860,37.867996,100 -122.268433,37.868051,100 -122.268417,37.867957,100 -122.268094,37.867997,100</coordinates></LinearRing></outerBoundaryIs></Polygon></MultiGeometry></Placemark>
  <Placemark><name>Panoramic Legacy (2028) · proposed</name><styleUrl>#e_proposed</styleUrl><description>1685 Shattuck Ave ~approx loc</description><MultiGeometry><Point><altitudeMode>relativeToGround</altitudeMode><coordinates>-122.269370,37.876840,22</coordinates></Point><Polygon><extrude>1</extrude><altitudeMode>relativeToGround</altitudeMode><outerBoundaryIs><LinearRing><coordinates>-122.269518,37.876723,22 -122.269222,37.876723,22 -122.269222,37.876957,22 -122.269518,37.876957,22 -122.269518,37.876723,22</coordinates></LinearRing></outerBoundaryIs></Polygon></MultiGeometry></Placemark>
</Document></kml>