<?xml version="1.0" encoding="UTF-8"?>
<kml xmlns="http://www.opengis.net/kml/2.2" xmlns:gx="http://www.google.com/kml/ext/2.2">
<Document>
	<name>San Pablo N-to-S (no orbits) · 08-26 17:03 · cp-32deda</name>
	<description><![CDATA[Generated by scripts/gen_corridor_tour.py from San Pablo Control Points DERIVED.kml (10 control points). Cruise 25 m; orbits at roof + 10 m, derived from the current extrusion height in geometry.kml. Camera-only: load alongside the geometry, or run build_tour_package.py to splice.]]></description>
	<gx:Tour>
		<name>San Pablo N-to-S (no orbits) · 08-26 17:03 · cp-32deda</name>
		<gx:Playlist>
			<gx:FlyTo>
				<gx:duration>0.10</gx:duration>
				<gx:flyToMode>bounce</gx:flyToMode>
				<Camera>
					<longitude>-122.2964028387</longitude>
					<latitude>37.8822680516</latitude>
					<altitude>25.0</altitude>
					<heading>165.51</heading>
					<tilt>88.0</tilt>
					<roll>0</roll>
					<altitudeMode>relativeToGround</altitudeMode>
				</Camera>
			</gx:FlyTo>
			<gx:FlyTo>
				<gx:duration>3.24</gx:duration>
				<gx:flyToMode>smooth</gx:flyToMode>
				<Camera>
					<longitude>-122.2962920311</longitude>
					<latitude>37.8819296555</latitude>
					<altitude>25.0</altitude>
					<heading>165.51</heading>
					<tilt>88.0</tilt>
					<roll>0</roll>
					<altitudeMode>relativeToGround</altitudeMode>
				</Camera>
			</gx:FlyTo>
			<gx:FlyTo>
				<gx:duration>3.24</gx:duration>
				<gx:flyToMode>smooth</gx:flyToMode>
				<Camera>
					<longitude>-122.2961812234</longitude>
					<latitude>37.8815912594</latitude>
					<altitude>25.0</altitude>
					<heading>165.51</heading>
					<tilt>88.0</tilt>
					<roll>0</roll>
					<altitudeMode>relativeToGround</altitudeMode>
				</Camera>
			</gx:FlyTo>
			<gx:FlyTo>
				<gx:duration>3.24</gx:duration>
				<gx:flyToMode>smooth</gx:flyToMode>
				<Camera>
					<longitude>-122.2960704158</longitude>
					<latitude>37.8812528633</latitude>
					<altitude>25.0</altitude>
					<heading>165.51</heading>
					<tilt>88.0</tilt>
					<roll>0</roll>
					<altitudeMode>relativeToGround</altitudeMode>
				</Camera>
			</gx:FlyTo>
			<gx:FlyTo>
				<gx:duration>3.24</gx:duration>
				<gx:flyToMode>smooth</gx:flyToMode>
				<Camera>
					<longitude>-122.2959596081</longitude>
					<latitude>37.8809144671</latitude>
					<altitude>25.0</altitude>
					<heading>165.51</heading>
					<tilt>88.0</tilt>
					<roll>0</roll>
					<altitudeMode>relativeToGround</altitudeMode>
				</Camera>
			</gx:FlyTo>
			<gx:FlyTo>
				<gx:duration>3.24</gx:duration>
				<gx:flyToMode>smooth</gx:flyToMode>
				<Camera>
					<longitude>-122.2958488005</longitude>
					<latitude>37.8805760710</latitude>
					<altitude>25.0</altitude>
					<heading>165.51</heading>
					<tilt>88.0</tilt>
					<roll>0</roll>
					<altitudeMode>relativeToGround</altitudeMode>
				</Camera>
			</gx:FlyTo>
			<gx:FlyTo>
				<gx:duration>3.24</gx:duration>
				<gx:flyToMode>smooth</gx:flyToMode>
				<Camera>
					<longitude>-122.2957379929</longitude>
					<latitude>37.8802376749</latitude>
					<altitude>25.0</altitude>
					<heading>165.51</heading>
					<tilt>88.0</tilt>
					<roll>0</roll>
					<altitudeMode>relativeToGround</altitudeMode>
				</Camera>
			</gx:FlyTo>
			<gx:FlyTo>
				<gx:duration>3.24</gx:duration>
				<gx:flyToMode>smooth</gx:flyToMode>
				<Camera>
					<longitude>-122.2956271852</longitude>
					<latitude>37.8798992788</latitude>
					<altitude>25.0</altitude>
					<heading>165.51</heading>
					<tilt>88.0</tilt>
					<roll>0</roll>
					<altitudeMode>relativeToGround</altitudeMode>
				</Camera>
			</gx:FlyTo>
			<gx:FlyTo>
				<gx:duration>3.24</gx:duration>
				<gx:flyToMode>smooth</gx:flyToMode>
				<Camera>
					<longitude>-122.2955163776</longitude>
					<latitude>37.8795608826</latitude>
					<altitude>25.0</altitude>
					<heading>165.51</heading>
					<tilt>88.0</tilt>
					<roll>0</roll>
					<altitudeMode>relativeToGround</altitudeMode>
				</Camera>
			</gx:FlyTo>
			<gx:FlyTo>
				<gx:duration>3.24</gx:duration>
				<gx:flyToMode>smooth</gx:flyToMode>
				<Camera>
					<longitude>-122.2954055700</longitude>
					<latitude>37.8792224865</latitude>
					<altitude>25.0</altitude>
					<heading>165.51</heading>
					<tilt>88.0</tilt>
					<roll>0</roll>
					<altitudeMode>relativeToGround</altitudeMode>
				</Camera>
			</gx:FlyTo>
			<gx:FlyTo>
				<gx:duration>3.24</gx:duration>
				<gx:flyToMode>smooth</gx:flyToMode>
				<Camera>
					<longitude>-122.2952947623</longitude>
					<latitude>37.8788840904</latitude>
					<altitude>25.0</altitude>
					<heading>165.51</heading>
					<tilt>88.0</tilt>
					<roll>0</roll>
					<altitudeMode>relativeToGround</altitudeMode>
				</Camera>
			</gx:FlyTo>
			<gx:FlyTo>
				<gx:duration>3.24</gx:duration>
				<gx:flyToMode>smooth</gx:flyToMode>
				<Camera>
					<longitude>-122.2951839547</longitude>
					<latitude>37.8785456943</latitude>
					<altitude>25.0</altitude>
					<heading>165.51</heading>
					<tilt>88.0</tilt>
					<roll>0</roll>
					<altitudeMode>relativeToGround</altitudeMode>
				</Camera>
			</gx:FlyTo>
			<gx:FlyTo>
				<gx:duration>3.24</gx:duration>
				<gx:flyToMode>smooth</gx:flyToMode>
				<Camera>
					<longitude>-122.2950731470</longitude>
					<latitude>37.8782072982</latitude>
					<altitude>25.0</altitude>
					<heading>165.51</heading>
					<tilt>88.0</tilt>
					<roll>0</roll>
					<altitudeMode>relativeToGround</altitudeMode>
				</Camera>
			</gx:FlyTo>
			<gx:FlyTo>
				<gx:duration>3.24</gx:duration>
				<gx:flyToMode>smooth</gx:flyToMode>
				<Camera>
					<longitude>-122.2949623394</longitude>
					<latitude>37.8778689020</latitude>
					<altitude>25.0</altitude>
					<heading>165.51</heading>
					<tilt>88.0</tilt>
					<roll>0</roll>
					<altitudeMode>relativeToGround</altitudeMode>
				</Camera>
			</gx:FlyTo>
			<gx:FlyTo>
				<gx:duration>3.22</gx:duration>
				<gx:flyToMode>smooth</gx:flyToMode>
				<Camera>
					<longitude>-122.2948541479</longitude>
					<latitude>37.8775319102</latitude>
					<altitude>25.0</altitude>
					<heading>165.78</heading>
					<tilt>88.0</tilt>
					<roll>0</roll>
					<altitudeMode>relativeToGround</altitudeMode>
				</Camera>
			</gx:FlyTo>
			<gx:FlyTo>
				<gx:duration>3.22</gx:duration>
				<gx:flyToMode>smooth</gx:flyToMode>
				<Camera>
					<longitude>-122.2947459564</longitude>
					<latitude>37.8771949184</latitude>
					<altitude>25.0</altitude>
					<heading>165.78</heading>
					<tilt>88.0</tilt>
					<roll>0</roll>
					<altitudeMode>relativeToGround</altitudeMode>
				</Camera>
			</gx:FlyTo>
			<gx:FlyTo>
				<gx:duration>3.22</gx:duration>
				<gx:flyToMode>smooth</gx:flyToMode>
				<Camera>
					<longitude>-122.2946377649</longitude>
					<latitude>37.8768579265</latitude>
					<altitude>25.0</altitude>
					<heading>165.78</heading>
					<tilt>88.0</tilt>
					<roll>0</roll>
					<altitudeMode>relativeToGround</altitudeMode>
				</Camera>
			</gx:FlyTo>
			<gx:FlyTo>
				<gx:duration>3.22</gx:duration>
				<gx:flyToMode>smooth</gx:flyToMode>
				<Camera>
					<longitude>-122.2945295734</longitude>
					<latitude>37.8765209347</latitude>
					<altitude>25.0</altitude>
					<heading>165.78</heading>
					<tilt>88.0</tilt>
					<roll>0</roll>
					<altitudeMode>relativeToGround</altitudeMode>
				</Camera>
			</gx:FlyTo>
			<gx:FlyTo>
				<gx:duration>3.22</gx:duration>
				<gx:flyToMode>smooth</gx:flyToMode>
				<Camera>
					<longitude>-122.2944213819</longitude>
					<latitude>37.8761839429</latitude>
					<altitude>25.0</altitude>
					<heading>165.78</heading>
					<tilt>88.0</tilt>
					<roll>0</roll>
					<altitudeMode>relativeToGround</altitudeMode>
				</Camera>
			</gx:FlyTo>
			<gx:FlyTo>
				<gx:duration>3.22</gx:duration>
				<gx:flyToMode>smooth</gx:flyToMode>
				<Camera>
					<longitude>-122.2943131904</longitude>
					<latitude>37.8758469510</latitude>
					<altitude>25.0</altitude>
					<heading>165.78</heading>
					<tilt>88.0</tilt>
					<roll>0</roll>
					<altitudeMode>relativeToGround</altitudeMode>
				</Camera>
			</gx:FlyTo>
			<gx:FlyTo>
				<gx:duration>3.22</gx:duration>
				<gx:flyToMode>smooth</gx:flyToMode>
				<Camera>
					<longitude>-122.2942049989</longitude>
					<latitude>37.8755099592</latitude>
					<altitude>25.0</altitude>
					<heading>165.78</heading>
					<tilt>88.0</tilt>
					<roll>0</roll>
					<altitudeMode>relativeToGround</altitudeMode>
				</Camera>
			</gx:FlyTo>
			<gx:FlyTo>
				<gx:duration>3.22</gx:duration>
				<gx:flyToMode>smooth</gx:flyToMode>
				<Camera>
					<longitude>-122.2940968074</longitude>
					<latitude>37.8751729673</latitude>
					<altitude>25.0</altitude>
					<heading>165.78</heading>
					<tilt>88.0</tilt>
					<roll>0</roll>
					<altitudeMode>relativeToGround</altitudeMode>
				</Camera>
			</gx:FlyTo>
			<gx:FlyTo>
				<gx:duration>3.22</gx:duration>
				<gx:flyToMode>smooth</gx:flyToMode>
				<Camera>
					<longitude>-122.2939886159</longitude>
					<latitude>37.8748359755</latitude>
					<altitude>25.0</altitude>
					<heading>165.78</heading>
					<tilt>88.0</tilt>
					<roll>0</roll>
					<altitudeMode>relativeToGround</altitudeMode>
				</Camera>
			</gx:FlyTo>
			<gx:FlyTo>
				<gx:duration>3.22</gx:duration>
				<gx:flyToMode>smooth</gx:flyToMode>
				<Camera>
					<longitude>-122.2938804244</longitude>
					<latitude>37.8744989837</latitude>
					<altitude>25.0</altitude>
					<heading>165.78</heading>
					<tilt>88.0</tilt>
					<roll>0</roll>
					<altitudeMode>relativeToGround</altitudeMode>
				</Camera>
			</gx:FlyTo>
			<gx:FlyTo>
				<gx:duration>3.22</gx:duration>
				<gx:flyToMode>smooth</gx:flyToMode>
				<Camera>
					<longitude>-122.2937722329</longitude>
					<latitude>37.8741619918</latitude>
					<altitude>25.0</altitude>
					<heading>165.78</heading>
					<tilt>88.0</tilt>
					<roll>0</roll>
					<altitudeMode>relativeToGround</altitudeMode>
				</Camera>
			</gx:FlyTo>
			<gx:FlyTo>
				<gx:duration>3.22</gx:duration>
				<gx:flyToMode>smooth</gx:flyToMode>
				<Camera>
					<longitude>-122.2936640414</longitude>
					<latitude>37.8738250000</latitude>
					<altitude>25.0</altitude>
					<heading>165.78</heading>
					<tilt>88.0</tilt>
					<roll>0</roll>
					<altitudeMode>relativeToGround</altitudeMode>
				</Camera>
			</gx:FlyTo>
			<gx:FlyTo>
				<gx:duration>3.35</gx:duration>
				<gx:flyToMode>smooth</gx:flyToMode>
				<Camera>
					<longitude>-122.2935492982</longitude>
					<latitude>37.8734750000</latitude>
					<altitude>25.0</altitude>
					<heading>165.49</heading>
					<tilt>88.0</tilt>
					<roll>0</roll>
					<altitudeMode>relativeToGround</altitudeMode>
				</Camera>
			</gx:FlyTo>
			<gx:FlyTo>
				<gx:duration>3.35</gx:duration>
				<gx:flyToMode>smooth</gx:flyToMode>
				<Camera>
					<longitude>-122.2934345549</longitude>
					<latitude>37.8731250000</latitude>
					<altitude>25.0</altitude>
					<heading>165.49</heading>
					<tilt>88.0</tilt>
					<roll>0</roll>
					<altitudeMode>relativeToGround</altitudeMode>
				</Camera>
			</gx:FlyTo>
			<gx:FlyTo>
				<gx:duration>3.35</gx:duration>
				<gx:flyToMode>smooth</gx:flyToMode>
				<Camera>
					<longitude>-122.2933198117</longitude>
					<latitude>37.8727750000</latitude>
					<altitude>25.0</altitude>
					<heading>165.49</heading>
					<tilt>88.0</tilt>
					<roll>0</roll>
					<altitudeMode>relativeToGround</altitudeMode>
				</Camera>
			</gx:FlyTo>
			<gx:FlyTo>
				<gx:duration>3.35</gx:duration>
				<gx:flyToMode>smooth</gx:flyToMode>
				<Camera>
					<longitude>-122.2932050684</longitude>
					<latitude>37.8724250000</latitude>
					<altitude>25.0</altitude>
					<heading>165.49</heading>
					<tilt>88.0</tilt>
					<roll>0</roll>
					<altitudeMode>relativeToGround</altitudeMode>
				</Camera>
			</gx:FlyTo>
			<gx:FlyTo>
				<gx:duration>3.35</gx:duration>
				<gx:flyToMode>smooth</gx:flyToMode>
				<Camera>
					<longitude>-122.2930903252</longitude>
					<latitude>37.8720750000</latitude>
					<altitude>25.0</altitude>
					<heading>165.49</heading>
					<tilt>88.0</tilt>
					<roll>0</roll>
					<altitudeMode>relativeToGround</altitudeMode>
				</Camera>
			</gx:FlyTo>
			<gx:FlyTo>
				<gx:duration>3.35</gx:duration>
				<gx:flyToMode>smooth</gx:flyToMode>
				<Camera>
					<longitude>-122.2929755820</longitude>
					<latitude>37.8717250000</latitude>
					<altitude>25.0</altitude>
					<heading>165.49</heading>
					<tilt>88.0</tilt>
					<roll>0</roll>
					<altitudeMode>relativeToGround</altitudeMode>
				</Camera>
			</gx:FlyTo>
			<gx:FlyTo>
				<gx:duration>3.35</gx:duration>
				<gx:flyToMode>smooth</gx:flyToMode>
				<Camera>
					<longitude>-122.2928608387</longitude>
					<latitude>37.8713750000</latitude>
					<altitude>25.0</altitude>
					<heading>165.49</heading>
					<tilt>88.0</tilt>
					<roll>0</roll>
					<altitudeMode>relativeToGround</altitudeMode>
				</Camera>
			</gx:FlyTo>
			<gx:FlyTo>
				<gx:duration>3.35</gx:duration>
				<gx:flyToMode>smooth</gx:flyToMode>
				<Camera>
					<longitude>-122.2927460955</longitude>
					<latitude>37.8710250000</latitude>
					<altitude>25.0</altitude>
					<heading>165.49</heading>
					<tilt>88.0</tilt>
					<roll>0</roll>
					<altitudeMode>relativeToGround</altitudeMode>
				</Camera>
			</gx:FlyTo>
			<gx:FlyTo>
				<gx:duration>3.23</gx:duration>
				<gx:flyToMode>smooth</gx:flyToMode>
				<Camera>
					<longitude>-122.2926391195</longitude>
					<latitude>37.8706871369</latitude>
					<altitude>25.0</altitude>
					<heading>165.97</heading>
					<tilt>88.0</tilt>
					<roll>0</roll>
					<altitudeMode>relativeToGround</altitudeMode>
				</Camera>
			</gx:FlyTo>
			<gx:FlyTo>
				<gx:duration>3.23</gx:duration>
				<gx:flyToMode>smooth</gx:flyToMode>
				<Camera>
					<longitude>-122.2925321436</longitude>
					<latitude>37.8703492738</latitude>
					<altitude>25.0</altitude>
					<heading>165.97</heading>
					<tilt>88.0</tilt>
					<roll>0</roll>
					<altitudeMode>relativeToGround</altitudeMode>
				</Camera>
			</gx:FlyTo>
			<gx:FlyTo>
				<gx:duration>3.23</gx:duration>
				<gx:flyToMode>smooth</gx:flyToMode>
				<Camera>
					<longitude>-122.2924251677</longitude>
					<latitude>37.8700114107</latitude>
					<altitude>25.0</altitude>
					<heading>165.97</heading>
					<tilt>88.0</tilt>
					<roll>0</roll>
					<altitudeMode>relativeToGround</altitudeMode>
				</Camera>
			</gx:FlyTo>
			<gx:FlyTo>
				<gx:duration>3.23</gx:duration>
				<gx:flyToMode>smooth</gx:flyToMode>
				<Camera>
					<longitude>-122.2923181918</longitude>
					<latitude>37.8696735475</latitude>
					<altitude>25.0</altitude>
					<heading>165.97</heading>
					<tilt>88.0</tilt>
					<roll>0</roll>
					<altitudeMode>relativeToGround</altitudeMode>
				</Camera>
			</gx:FlyTo>
			<gx:FlyTo>
				<gx:duration>3.23</gx:duration>
				<gx:flyToMode>smooth</gx:flyToMode>
				<Camera>
					<longitude>-122.2922112158</longitude>
					<latitude>37.8693356844</latitude>
					<altitude>25.0</altitude>
					<heading>165.97</heading>
					<tilt>88.0</tilt>
					<roll>0</roll>
					<altitudeMode>relativeToGround</altitudeMode>
				</Camera>
			</gx:FlyTo>
			<gx:FlyTo>
				<gx:duration>3.23</gx:duration>
				<gx:flyToMode>smooth</gx:flyToMode>
				<Camera>
					<longitude>-122.2921042399</longitude>
					<latitude>37.8689978213</latitude>
					<altitude>25.0</altitude>
					<heading>165.97</heading>
					<tilt>88.0</tilt>
					<roll>0</roll>
					<altitudeMode>relativeToGround</altitudeMode>
				</Camera>
			</gx:FlyTo>
			<gx:FlyTo>
				<gx:duration>3.23</gx:duration>
				<gx:flyToMode>smooth</gx:flyToMode>
				<Camera>
					<longitude>-122.2919972640</longitude>
					<latitude>37.8686599582</latitude>
					<altitude>25.0</altitude>
					<heading>165.97</heading>
					<tilt>88.0</tilt>
					<roll>0</roll>
					<altitudeMode>relativeToGround</altitudeMode>
				</Camera>
			</gx:FlyTo>
			<gx:FlyTo>
				<gx:duration>3.23</gx:duration>
				<gx:flyToMode>smooth</gx:flyToMode>
				<Camera>
					<longitude>-122.2918902881</longitude>
					<latitude>37.8683220951</latitude>
					<altitude>25.0</altitude>
					<heading>165.97</heading>
					<tilt>88.0</tilt>
					<roll>0</roll>
					<altitudeMode>relativeToGround</altitudeMode>
				</Camera>
			</gx:FlyTo>
			<gx:FlyTo>
				<gx:duration>3.23</gx:duration>
				<gx:flyToMode>smooth</gx:flyToMode>
				<Camera>
					<longitude>-122.2917833121</longitude>
					<latitude>37.8679842320</latitude>
					<altitude>25.0</altitude>
					<heading>165.97</heading>
					<tilt>88.0</tilt>
					<roll>0</roll>
					<altitudeMode>relativeToGround</altitudeMode>
				</Camera>
			</gx:FlyTo>
			<gx:FlyTo>
				<gx:duration>3.23</gx:duration>
				<gx:flyToMode>smooth</gx:flyToMode>
				<Camera>
					<longitude>-122.2916763362</longitude>
					<latitude>37.8676463688</latitude>
					<altitude>25.0</altitude>
					<heading>165.97</heading>
					<tilt>88.0</tilt>
					<roll>0</roll>
					<altitudeMode>relativeToGround</altitudeMode>
				</Camera>
			</gx:FlyTo>
			<gx:FlyTo>
				<gx:duration>3.23</gx:duration>
				<gx:flyToMode>smooth</gx:flyToMode>
				<Camera>
					<longitude>-122.2915693603</longitude>
					<latitude>37.8673085057</latitude>
					<altitude>25.0</altitude>
					<heading>165.97</heading>
					<tilt>88.0</tilt>
					<roll>0</roll>
					<altitudeMode>relativeToGround</altitudeMode>
				</Camera>
			</gx:FlyTo>
			<gx:FlyTo>
				<gx:duration>3.23</gx:duration>
				<gx:flyToMode>smooth</gx:flyToMode>
				<Camera>
					<longitude>-122.2914623844</longitude>
					<latitude>37.8669706426</latitude>
					<altitude>25.0</altitude>
					<heading>165.97</heading>
					<tilt>88.0</tilt>
					<roll>0</roll>
					<altitudeMode>relativeToGround</altitudeMode>
				</Camera>
			</gx:FlyTo>
			<gx:FlyTo>
				<gx:duration>3.23</gx:duration>
				<gx:flyToMode>smooth</gx:flyToMode>
				<Camera>
					<longitude>-122.2913554085</longitude>
					<latitude>37.8666327795</latitude>
					<altitude>25.0</altitude>
					<heading>165.97</heading>
					<tilt>88.0</tilt>
					<roll>0</roll>
					<altitudeMode>relativeToGround</altitudeMode>
				</Camera>
			</gx:FlyTo>
			<gx:FlyTo>
				<gx:duration>3.23</gx:duration>
				<gx:flyToMode>smooth</gx:flyToMode>
				<Camera>
					<longitude>-122.2912484325</longitude>
					<latitude>37.8662949164</latitude>
					<altitude>25.0</altitude>
					<heading>165.97</heading>
					<tilt>88.0</tilt>
					<roll>0</roll>
					<altitudeMode>relativeToGround</altitudeMode>
				</Camera>
			</gx:FlyTo>
			<gx:FlyTo>
				<gx:duration>3.23</gx:duration>
				<gx:flyToMode>smooth</gx:flyToMode>
				<Camera>
					<longitude>-122.2911414566</longitude>
					<latitude>37.8659570533</latitude>
					<altitude>25.0</altitude>
					<heading>165.97</heading>
					<tilt>88.0</tilt>
					<roll>0</roll>
					<altitudeMode>relativeToGround</altitudeMode>
				</Camera>
			</gx:FlyTo>
			<gx:FlyTo>
				<gx:duration>3.15</gx:duration>
				<gx:flyToMode>smooth</gx:flyToMode>
				<Camera>
					<longitude>-122.2910330120</longitude>
					<latitude>37.8656280466</latitude>
					<altitude>25.0</altitude>
					<heading>165.41</heading>
					<tilt>88.0</tilt>
					<roll>0</roll>
					<altitudeMode>relativeToGround</altitudeMode>
				</Camera>
			</gx:FlyTo>
			<gx:FlyTo>
				<gx:duration>3.15</gx:duration>
				<gx:flyToMode>smooth</gx:flyToMode>
				<Camera>
					<longitude>-122.2909245673</longitude>
					<latitude>37.8652990399</latitude>
					<altitude>25.0</altitude>
					<heading>165.41</heading>
					<tilt>88.0</tilt>
					<roll>0</roll>
					<altitudeMode>relativeToGround</altitudeMode>
				</Camera>
			</gx:FlyTo>
			<gx:FlyTo>
				<gx:duration>3.15</gx:duration>
				<gx:flyToMode>smooth</gx:flyToMode>
				<Camera>
					<longitude>-122.2908161227</longitude>
					<latitude>37.8649700333</latitude>
					<altitude>25.0</altitude>
					<heading>165.41</heading>
					<tilt>88.0</tilt>
					<roll>0</roll>
					<altitudeMode>relativeToGround</altitudeMode>
				</Camera>
			</gx:FlyTo>
			<gx:FlyTo>
				<gx:duration>3.15</gx:duration>
				<gx:flyToMode>smooth</gx:flyToMode>
				<Camera>
					<longitude>-122.2907076781</longitude>
					<latitude>37.8646410266</latitude>
					<altitude>25.0</altitude>
					<heading>165.41</heading>
					<tilt>88.0</tilt>
					<roll>0</roll>
					<altitudeMode>relativeToGround</altitudeMode>
				</Camera>
			</gx:FlyTo>
			<gx:FlyTo>
				<gx:duration>3.15</gx:duration>
				<gx:flyToMode>smooth</gx:flyToMode>
				<Camera>
					<longitude>-122.2905992335</longitude>
					<latitude>37.8643120200</latitude>
					<altitude>25.0</altitude>
					<heading>165.41</heading>
					<tilt>88.0</tilt>
					<roll>0</roll>
					<altitudeMode>relativeToGround</altitudeMode>
				</Camera>
			</gx:FlyTo>
			<gx:FlyTo>
				<gx:duration>3.15</gx:duration>
				<gx:flyToMode>smooth</gx:flyToMode>
				<Camera>
					<longitude>-122.2904907888</longitude>
					<latitude>37.8639830133</latitude>
					<altitude>25.0</altitude>
					<heading>165.41</heading>
					<tilt>88.0</tilt>
					<roll>0</roll>
					<altitudeMode>relativeToGround</altitudeMode>
				</Camera>
			</gx:FlyTo>
			<gx:FlyTo>
				<gx:duration>3.15</gx:duration>
				<gx:flyToMode>smooth</gx:flyToMode>
				<Camera>
					<longitude>-122.2903823442</longitude>
					<latitude>37.8636540067</latitude>
					<altitude>25.0</altitude>
					<heading>165.41</heading>
					<tilt>88.0</tilt>
					<roll>0</roll>
					<altitudeMode>relativeToGround</altitudeMode>
				</Camera>
			</gx:FlyTo>
			<gx:FlyTo>
				<gx:duration>3.15</gx:duration>
				<gx:flyToMode>smooth</gx:flyToMode>
				<Camera>
					<longitude>-122.2902738996</longitude>
					<latitude>37.8633250000</latitude>
					<altitude>25.0</altitude>
					<heading>165.41</heading>
					<tilt>88.0</tilt>
					<roll>0</roll>
					<altitudeMode>relativeToGround</altitudeMode>
				</Camera>
			</gx:FlyTo>
			<gx:FlyTo>
				<gx:duration>3.34</gx:duration>
				<gx:flyToMode>smooth</gx:flyToMode>
				<Camera>
					<longitude>-122.2901644287</longitude>
					<latitude>37.8629750000</latitude>
					<altitude>25.0</altitude>
					<heading>166.13</heading>
					<tilt>88.0</tilt>
					<roll>0</roll>
					<altitudeMode>relativeToGround</altitudeMode>
				</Camera>
			</gx:FlyTo>
			<gx:FlyTo>
				<gx:duration>3.34</gx:duration>
				<gx:flyToMode>smooth</gx:flyToMode>
				<Camera>
					<longitude>-122.2900549578</longitude>
					<latitude>37.8626250000</latitude>
					<altitude>25.0</altitude>
					<heading>166.13</heading>
					<tilt>88.0</tilt>
					<roll>0</roll>
					<altitudeMode>relativeToGround</altitudeMode>
				</Camera>
			</gx:FlyTo>
			<gx:FlyTo>
				<gx:duration>3.34</gx:duration>
				<gx:flyToMode>smooth</gx:flyToMode>
				<Camera>
					<longitude>-122.2899454869</longitude>
					<latitude>37.8622750000</latitude>
					<altitude>25.0</altitude>
					<heading>166.13</heading>
					<tilt>88.0</tilt>
					<roll>0</roll>
					<altitudeMode>relativeToGround</altitudeMode>
				</Camera>
			</gx:FlyTo>
			<gx:FlyTo>
				<gx:duration>3.34</gx:duration>
				<gx:flyToMode>smooth</gx:flyToMode>
				<Camera>
					<longitude>-122.2898360161</longitude>
					<latitude>37.8619250000</latitude>
					<altitude>25.0</altitude>
					<heading>166.13</heading>
					<tilt>88.0</tilt>
					<roll>0</roll>
					<altitudeMode>relativeToGround</altitudeMode>
				</Camera>
			</gx:FlyTo>
			<gx:FlyTo>
				<gx:duration>3.34</gx:duration>
				<gx:flyToMode>smooth</gx:flyToMode>
				<Camera>
					<longitude>-122.2897265452</longitude>
					<latitude>37.8615750000</latitude>
					<altitude>25.0</altitude>
					<heading>166.13</heading>
					<tilt>88.0</tilt>
					<roll>0</roll>
					<altitudeMode>relativeToGround</altitudeMode>
				</Camera>
			</gx:FlyTo>
			<gx:FlyTo>
				<gx:duration>3.34</gx:duration>
				<gx:flyToMode>smooth</gx:flyToMode>
				<Camera>
					<longitude>-122.2896170743</longitude>
					<latitude>37.8612250000</latitude>
					<altitude>25.0</altitude>
					<heading>166.13</heading>
					<tilt>88.0</tilt>
					<roll>0</roll>
					<altitudeMode>relativeToGround</altitudeMode>
				</Camera>
			</gx:FlyTo>
			<gx:FlyTo>
				<gx:duration>3.35</gx:duration>
				<gx:flyToMode>smooth</gx:flyToMode>
				<Camera>
					<longitude>-122.2895016133</longitude>
					<latitude>37.8608750000</latitude>
					<altitude>25.0</altitude>
					<heading>165.40</heading>
					<tilt>88.0</tilt>
					<roll>0</roll>
					<altitudeMode>relativeToGround</altitudeMode>
				</Camera>
			</gx:FlyTo>
			<gx:FlyTo>
				<gx:duration>3.35</gx:duration>
				<gx:flyToMode>smooth</gx:flyToMode>
				<Camera>
					<longitude>-122.2893861523</longitude>
					<latitude>37.8605250000</latitude>
					<altitude>25.0</altitude>
					<heading>165.40</heading>
					<tilt>88.0</tilt>
					<roll>0</roll>
					<altitudeMode>relativeToGround</altitudeMode>
				</Camera>
			</gx:FlyTo>
			<gx:FlyTo>
				<gx:duration>3.35</gx:duration>
				<gx:flyToMode>smooth</gx:flyToMode>
				<Camera>
					<longitude>-122.2892706913</longitude>
					<latitude>37.8601750000</latitude>
					<altitude>25.0</altitude>
					<heading>165.40</heading>
					<tilt>88.0</tilt>
					<roll>0</roll>
					<altitudeMode>relativeToGround</altitudeMode>
				</Camera>
			</gx:FlyTo>
			<gx:FlyTo>
				<gx:duration>3.35</gx:duration>
				<gx:flyToMode>smooth</gx:flyToMode>
				<Camera>
					<longitude>-122.2891552302</longitude>
					<latitude>37.8598250000</latitude>
					<altitude>25.0</altitude>
					<heading>165.40</heading>
					<tilt>88.0</tilt>
					<roll>0</roll>
					<altitudeMode>relativeToGround</altitudeMode>
				</Camera>
			</gx:FlyTo>
			<gx:FlyTo>
				<gx:duration>3.35</gx:duration>
				<gx:flyToMode>smooth</gx:flyToMode>
				<Camera>
					<longitude>-122.2890397692</longitude>
					<latitude>37.8594750000</latitude>
					<altitude>25.0</altitude>
					<heading>165.40</heading>
					<tilt>88.0</tilt>
					<roll>0</roll>
					<altitudeMode>relativeToGround</altitudeMode>
				</Camera>
			</gx:FlyTo>
			<gx:FlyTo>
				<gx:duration>3.35</gx:duration>
				<gx:flyToMode>smooth</gx:flyToMode>
				<Camera>
					<longitude>-122.2889243082</longitude>
					<latitude>37.8591250000</latitude>
					<altitude>25.0</altitude>
					<heading>165.40</heading>
					<tilt>88.0</tilt>
					<roll>0</roll>
					<altitudeMode>relativeToGround</altitudeMode>
				</Camera>
			</gx:FlyTo>
			<gx:FlyTo>
				<gx:duration>3.35</gx:duration>
				<gx:flyToMode>smooth</gx:flyToMode>
				<Camera>
					<longitude>-122.2888088472</longitude>
					<latitude>37.8587750000</latitude>
					<altitude>25.0</altitude>
					<heading>165.40</heading>
					<tilt>88.0</tilt>
					<roll>0</roll>
					<altitudeMode>relativeToGround</altitudeMode>
				</Camera>
			</gx:FlyTo>
			<gx:FlyTo>
				<gx:duration>3.34</gx:duration>
				<gx:flyToMode>smooth</gx:flyToMode>
				<Camera>
					<longitude>-122.2886997265</longitude>
					<latitude>37.8584250000</latitude>
					<altitude>25.0</altitude>
					<heading>166.17</heading>
					<tilt>88.0</tilt>
					<roll>0</roll>
					<altitudeMode>relativeToGround</altitudeMode>
				</Camera>
			</gx:FlyTo>
			<gx:FlyTo>
				<gx:duration>3.34</gx:duration>
				<gx:flyToMode>smooth</gx:flyToMode>
				<Camera>
					<longitude>-122.2885906058</longitude>
					<latitude>37.8580750000</latitude>
					<altitude>25.0</altitude>
					<heading>166.17</heading>
					<tilt>88.0</tilt>
					<roll>0</roll>
					<altitudeMode>relativeToGround</altitudeMode>
				</Camera>
			</gx:FlyTo>
			<gx:FlyTo>
				<gx:duration>3.34</gx:duration>
				<gx:flyToMode>smooth</gx:flyToMode>
				<Camera>
					<longitude>-122.2884814851</longitude>
					<latitude>37.8577250000</latitude>
					<altitude>25.0</altitude>
					<heading>166.17</heading>
					<tilt>88.0</tilt>
					<roll>0</roll>
					<altitudeMode>relativeToGround</altitudeMode>
				</Camera>
			</gx:FlyTo>
			<gx:FlyTo>
				<gx:duration>3.34</gx:duration>
				<gx:flyToMode>smooth</gx:flyToMode>
				<Camera>
					<longitude>-122.2883723644</longitude>
					<latitude>37.8573750000</latitude>
					<altitude>25.0</altitude>
					<heading>166.17</heading>
					<tilt>88.0</tilt>
					<roll>0</roll>
					<altitudeMode>relativeToGround</altitudeMode>
				</Camera>
			</gx:FlyTo>
			<gx:FlyTo>
				<gx:duration>3.34</gx:duration>
				<gx:flyToMode>smooth</gx:flyToMode>
				<Camera>
					<longitude>-122.2882632437</longitude>
					<latitude>37.8570250000</latitude>
					<altitude>25.0</altitude>
					<heading>166.17</heading>
					<tilt>88.0</tilt>
					<roll>0</roll>
					<altitudeMode>relativeToGround</altitudeMode>
				</Camera>
			</gx:FlyTo>
			<gx:FlyTo>
				<gx:duration>3.34</gx:duration>
				<gx:flyToMode>smooth</gx:flyToMode>
				<Camera>
					<longitude>-122.2881541231</longitude>
					<latitude>37.8566750000</latitude>
					<altitude>25.0</altitude>
					<heading>166.17</heading>
					<tilt>88.0</tilt>
					<roll>0</roll>
					<altitudeMode>relativeToGround</altitudeMode>
				</Camera>
			</gx:FlyTo>
			<gx:FlyTo>
				<gx:duration>3.34</gx:duration>
				<gx:flyToMode>smooth</gx:flyToMode>
				<Camera>
					<longitude>-122.2880450024</longitude>
					<latitude>37.8563250000</latitude>
					<altitude>25.0</altitude>
					<heading>166.17</heading>
					<tilt>88.0</tilt>
					<roll>0</roll>
					<altitudeMode>relativeToGround</altitudeMode>
				</Camera>
			</gx:FlyTo>
			<gx:FlyTo>
				<gx:duration>3.33</gx:duration>
				<gx:flyToMode>smooth</gx:flyToMode>
				<Camera>
					<longitude>-122.2879313501</longitude>
					<latitude>37.8559773196</latitude>
					<altitude>25.0</altitude>
					<heading>165.53</heading>
					<tilt>88.0</tilt>
					<roll>0</roll>
					<altitudeMode>relativeToGround</altitudeMode>
				</Camera>
			</gx:FlyTo>
			<gx:FlyTo>
				<gx:duration>3.33</gx:duration>
				<gx:flyToMode>smooth</gx:flyToMode>
				<Camera>
					<longitude>-122.2878176977</longitude>
					<latitude>37.8556296391</latitude>
					<altitude>25.0</altitude>
					<heading>165.53</heading>
					<tilt>88.0</tilt>
					<roll>0</roll>
					<altitudeMode>relativeToGround</altitudeMode>
				</Camera>
			</gx:FlyTo>
			<gx:FlyTo>
				<gx:duration>3.33</gx:duration>
				<gx:flyToMode>smooth</gx:flyToMode>
				<Camera>
					<longitude>-122.2877040454</longitude>
					<latitude>37.8552819587</latitude>
					<altitude>25.0</altitude>
					<heading>165.53</heading>
					<tilt>88.0</tilt>
					<roll>0</roll>
					<altitudeMode>relativeToGround</altitudeMode>
				</Camera>
			</gx:FlyTo>
			<gx:FlyTo>
				<gx:duration>3.33</gx:duration>
				<gx:flyToMode>smooth</gx:flyToMode>
				<Camera>
					<longitude>-122.2875903931</longitude>
					<latitude>37.8549342783</latitude>
					<altitude>25.0</altitude>
					<heading>165.53</heading>
					<tilt>88.0</tilt>
					<roll>0</roll>
					<altitudeMode>relativeToGround</altitudeMode>
				</Camera>
			</gx:FlyTo>
			<gx:FlyTo>
				<gx:duration>3.33</gx:duration>
				<gx:flyToMode>smooth</gx:flyToMode>
				<Camera>
					<longitude>-122.2874767408</longitude>
					<latitude>37.8545865978</latitude>
					<altitude>25.0</altitude>
					<heading>165.53</heading>
					<tilt>88.0</tilt>
					<roll>0</roll>
					<altitudeMode>relativeToGround</altitudeMode>
				</Camera>
			</gx:FlyTo>
			<gx:FlyTo>
				<gx:duration>3.33</gx:duration>
				<gx:flyToMode>smooth</gx:flyToMode>
				<Camera>
					<longitude>-122.2873630885</longitude>
					<latitude>37.8542389174</latitude>
					<altitude>25.0</altitude>
					<heading>165.53</heading>
					<tilt>88.0</tilt>
					<roll>0</roll>
					<altitudeMode>relativeToGround</altitudeMode>
				</Camera>
			</gx:FlyTo>
			<gx:FlyTo>
				<gx:duration>3.33</gx:duration>
				<gx:flyToMode>smooth</gx:flyToMode>
				<Camera>
					<longitude>-122.2872494362</longitude>
					<latitude>37.8538912370</latitude>
					<altitude>25.0</altitude>
					<heading>165.53</heading>
					<tilt>88.0</tilt>
					<roll>0</roll>
					<altitudeMode>relativeToGround</altitudeMode>
				</Camera>
			</gx:FlyTo>
			<gx:FlyTo>
				<gx:duration>3.33</gx:duration>
				<gx:flyToMode>smooth</gx:flyToMode>
				<Camera>
					<longitude>-122.2871357839</longitude>
					<latitude>37.8535435565</latitude>
					<altitude>25.0</altitude>
					<heading>165.53</heading>
					<tilt>88.0</tilt>
					<roll>0</roll>
					<altitudeMode>relativeToGround</altitudeMode>
				</Camera>
			</gx:FlyTo>
			<gx:FlyTo>
				<gx:duration>3.33</gx:duration>
				<gx:flyToMode>smooth</gx:flyToMode>
				<Camera>
					<longitude>-122.2870221316</longitude>
					<latitude>37.8531958761</latitude>
					<altitude>25.0</altitude>
					<heading>165.53</heading>
					<tilt>88.0</tilt>
					<roll>0</roll>
					<altitudeMode>relativeToGround</altitudeMode>
				</Camera>
			</gx:FlyTo>
			<gx:FlyTo>
				<gx:duration>3.33</gx:duration>
				<gx:flyToMode>smooth</gx:flyToMode>
				<Camera>
					<longitude>-122.2869084792</longitude>
					<latitude>37.8528481957</latitude>
					<altitude>25.0</altitude>
					<heading>165.53</heading>
					<tilt>88.0</tilt>
					<roll>0</roll>
					<altitudeMode>relativeToGround</altitudeMode>
				</Camera>
			</gx:FlyTo>
			<gx:FlyTo>
				<gx:duration>3.33</gx:duration>
				<gx:flyToMode>smooth</gx:flyToMode>
				<Camera>
					<longitude>-122.2867948269</longitude>
					<latitude>37.8525005152</latitude>
					<altitude>25.0</altitude>
					<heading>165.53</heading>
					<tilt>88.0</tilt>
					<roll>0</roll>
					<altitudeMode>relativeToGround</altitudeMode>
				</Camera>
			</gx:FlyTo>
			<gx:FlyTo>
				<gx:duration>3.33</gx:duration>
				<gx:flyToMode>smooth</gx:flyToMode>
				<Camera>
					<longitude>-122.2866811746</longitude>
					<latitude>37.8521528348</latitude>
					<altitude>25.0</altitude>
					<heading>165.53</heading>
					<tilt>88.0</tilt>
					<roll>0</roll>
					<altitudeMode>relativeToGround</altitudeMode>
				</Camera>
			</gx:FlyTo>
			<gx:FlyTo>
				<gx:duration>3.33</gx:duration>
				<gx:flyToMode>smooth</gx:flyToMode>
				<Camera>
					<longitude>-122.2865675223</longitude>
					<latitude>37.8518051544</latitude>
					<altitude>25.0</altitude>
					<heading>165.53</heading>
					<tilt>88.0</tilt>
					<roll>0</roll>
					<altitudeMode>relativeToGround</altitudeMode>
				</Camera>
			</gx:FlyTo>
			<gx:FlyTo>
				<gx:duration>3.33</gx:duration>
				<gx:flyToMode>smooth</gx:flyToMode>
				<Camera>
					<longitude>-122.2864538700</longitude>
					<latitude>37.8514574739</latitude>
					<altitude>25.0</altitude>
					<heading>165.53</heading>
					<tilt>88.0</tilt>
					<roll>0</roll>
					<altitudeMode>relativeToGround</altitudeMode>
				</Camera>
			</gx:FlyTo>
			<gx:FlyTo>
				<gx:duration>3.33</gx:duration>
				<gx:flyToMode>smooth</gx:flyToMode>
				<Camera>
					<longitude>-122.2863402177</longitude>
					<latitude>37.8511097935</latitude>
					<altitude>25.0</altitude>
					<heading>165.53</heading>
					<tilt>88.0</tilt>
					<roll>0</roll>
					<altitudeMode>relativeToGround</altitudeMode>
				</Camera>
			</gx:FlyTo>
			<gx:FlyTo>
				<gx:duration>3.33</gx:duration>
				<gx:flyToMode>smooth</gx:flyToMode>
				<Camera>
					<longitude>-122.2862265654</longitude>
					<latitude>37.8507621131</latitude>
					<altitude>25.0</altitude>
					<heading>165.53</heading>
					<tilt>88.0</tilt>
					<roll>0</roll>
					<altitudeMode>relativeToGround</altitudeMode>
				</Camera>
			</gx:FlyTo>
			<gx:FlyTo>
				<gx:duration>3.33</gx:duration>
				<gx:flyToMode>smooth</gx:flyToMode>
				<Camera>
					<longitude>-122.2861129131</longitude>
					<latitude>37.8504144326</latitude>
					<altitude>25.0</altitude>
					<heading>165.53</heading>
					<tilt>88.0</tilt>
					<roll>0</roll>
					<altitudeMode>relativeToGround</altitudeMode>
				</Camera>
			</gx:FlyTo>
			<gx:FlyTo>
				<gx:duration>3.33</gx:duration>
				<gx:flyToMode>smooth</gx:flyToMode>
				<Camera>
					<longitude>-122.2859992608</longitude>
					<latitude>37.8500667522</latitude>
					<altitude>25.0</altitude>
					<heading>165.53</heading>
					<tilt>88.0</tilt>
					<roll>0</roll>
					<altitudeMode>relativeToGround</altitudeMode>
				</Camera>
			</gx:FlyTo>
		</gx:Playlist>
	</gx:Tour>
</Document>
</kml>
