<?xml version="1.0" encoding="UTF-8"?>
<kml xmlns="http://www.opengis.net/kml/2.2" xmlns:gx="http://www.google.com/kml/ext/2.2">
<Document>
	<name>Shattuck centerline flight with 2190 and 2276 orbits</name>
	<Style id="route_line"><LineStyle><color>ff00ffff</color><width>4</width></LineStyle></Style>
	<Style id="control_point"><IconStyle><scale>1.1</scale><Icon><href>http://maps.google.com/mapfiles/kml/paddle/wht-circle.png</href></Icon></IconStyle></Style>
	<Style id="orbit_stop"><IconStyle><scale>1.2</scale><Icon><href>http://maps.google.com/mapfiles/kml/paddle/red-circle.png</href></Icon></IconStyle></Style>
	<gx:Tour>
		<name>Shattuck centerline flight - 2190 and 2276 orbits</name>
		<gx:Playlist>
			<gx:FlyTo>
				<gx:duration>0.10</gx:duration>
				<gx:flyToMode>smooth</gx:flyToMode>
				<Camera>
					<longitude>-122.2695303310</longitude>
					<latitude>37.8820504394</latitude>
					<altitude>20.0</altitude>
					<heading>174.88</heading>
					<tilt>90.0</tilt>
					<roll>0</roll>
					<altitudeMode>relativeToGround</altitudeMode>
				</Camera>
			</gx:FlyTo>
			<gx:Wait><gx:duration>5.0</gx:duration></gx:Wait>
			<gx:FlyTo>
				<gx:duration>4.39</gx:duration>
				<gx:flyToMode>smooth</gx:flyToMode>
				<Camera>
					<longitude>-122.2694857027</longitude>
					<latitude>37.8816572250</latitude>
					<altitude>20.0</altitude>
					<heading>174.88</heading>
					<tilt>95.0</tilt>
					<roll>0</roll>
					<altitudeMode>relativeToGround</altitudeMode>
				</Camera>
			</gx:FlyTo>
			<gx:FlyTo>
				<gx:duration>4.39</gx:duration>
				<gx:flyToMode>smooth</gx:flyToMode>
				<Camera>
					<longitude>-122.2694410745</longitude>
					<latitude>37.8812640106</latitude>
					<altitude>20.0</altitude>
					<heading>174.88</heading>
					<tilt>95.0</tilt>
					<roll>0</roll>
					<altitudeMode>relativeToGround</altitudeMode>
				</Camera>
			</gx:FlyTo>
			<gx:FlyTo>
				<gx:duration>4.39</gx:duration>
				<gx:flyToMode>smooth</gx:flyToMode>
				<Camera>
					<longitude>-122.2693964462</longitude>
					<latitude>37.8808707963</latitude>
					<altitude>20.0</altitude>
					<heading>174.88</heading>
					<tilt>95.0</tilt>
					<roll>0</roll>
					<altitudeMode>relativeToGround</altitudeMode>
				</Camera>
			</gx:FlyTo>
			<gx:FlyTo>
				<gx:duration>4.39</gx:duration>
				<gx:flyToMode>smooth</gx:flyToMode>
				<Camera>
					<longitude>-122.2693518179</longitude>
					<latitude>37.8804775819</latitude>
					<altitude>20.0</altitude>
					<heading>174.88</heading>
					<tilt>95.0</tilt>
					<roll>0</roll>
					<altitudeMode>relativeToGround</altitudeMode>
				</Camera>
			</gx:FlyTo>
			<gx:FlyTo>
				<gx:duration>4.39</gx:duration>
				<gx:flyToMode>smooth</gx:flyToMode>
				<Camera>
					<longitude>-122.2693071896</longitude>
					<latitude>37.8800843675</latitude>
					<altitude>20.0</altitude>
					<heading>174.88</heading>
					<tilt>90.0</tilt>
					<roll>0</roll>
					<altitudeMode>relativeToGround</altitudeMode>
				</Camera>
			</gx:FlyTo>
			<gx:FlyTo>
				<gx:duration>4.39</gx:duration>
				<gx:flyToMode>smooth</gx:flyToMode>
				<Camera>
					<longitude>-122.2692625614</longitude>
					<latitude>37.8796911531</latitude>
					<altitude>20.0</altitude>
					<heading>174.88</heading>
					<tilt>85.0</tilt>
					<roll>0</roll>
					<altitudeMode>relativeToGround</altitudeMode>
				</Camera>
			</gx:FlyTo>
			<gx:FlyTo>
				<gx:duration>4.39</gx:duration>
				<gx:flyToMode>smooth</gx:flyToMode>
				<Camera>
					<longitude>-122.2692179331</longitude>
					<latitude>37.8792979387</latitude>
					<altitude>20.0</altitude>
					<heading>174.88</heading>
					<tilt>85.0</tilt>
					<roll>0</roll>
					<altitudeMode>relativeToGround</altitudeMode>
				</Camera>
			</gx:FlyTo>
			<gx:FlyTo>
				<gx:duration>4.39</gx:duration>
				<gx:flyToMode>smooth</gx:flyToMode>
				<Camera>
					<longitude>-122.2691733048</longitude>
					<latitude>37.8789047243</latitude>
					<altitude>20.0</altitude>
					<heading>174.88</heading>
					<tilt>85.0</tilt>
					<roll>0</roll>
					<altitudeMode>relativeToGround</altitudeMode>
				</Camera>
			</gx:FlyTo>
			<gx:FlyTo>
				<gx:duration>4.39</gx:duration>
				<gx:flyToMode>smooth</gx:flyToMode>
				<Camera>
					<longitude>-122.2691286766</longitude>
					<latitude>37.8785115099</latitude>
					<altitude>20.0</altitude>
					<heading>174.88</heading>
					<tilt>85.0</tilt>
					<roll>0</roll>
					<altitudeMode>relativeToGround</altitudeMode>
				</Camera>
			</gx:FlyTo>
			<gx:FlyTo>
				<gx:duration>4.39</gx:duration>
				<gx:flyToMode>smooth</gx:flyToMode>
				<Camera>
					<longitude>-122.2690840483</longitude>
					<latitude>37.8781182956</latitude>
					<altitude>20.0</altitude>
					<heading>174.88</heading>
					<tilt>85.0</tilt>
					<roll>0</roll>
					<altitudeMode>relativeToGround</altitudeMode>
				</Camera>
			</gx:FlyTo>
			<gx:FlyTo>
				<gx:duration>4.39</gx:duration>
				<gx:flyToMode>smooth</gx:flyToMode>
				<Camera>
					<longitude>-122.2690394200</longitude>
					<latitude>37.8777250812</latitude>
					<altitude>20.0</altitude>
					<heading>174.88</heading>
					<tilt>90.0</tilt>
					<roll>0</roll>
					<altitudeMode>relativeToGround</altitudeMode>
				</Camera>
			</gx:FlyTo>
			<gx:FlyTo>
				<gx:duration>4.39</gx:duration>
				<gx:flyToMode>smooth</gx:flyToMode>
				<Camera>
					<longitude>-122.2689947917</longitude>
					<latitude>37.8773318668</latitude>
					<altitude>20.0</altitude>
					<heading>174.88</heading>
					<tilt>90.0</tilt>
					<roll>0</roll>
					<altitudeMode>relativeToGround</altitudeMode>
				</Camera>
			</gx:FlyTo>
			<gx:FlyTo>
				<gx:duration>4.39</gx:duration>
				<gx:flyToMode>smooth</gx:flyToMode>
				<Camera>
					<longitude>-122.2689501635</longitude>
					<latitude>37.8769386524</latitude>
					<altitude>20.0</altitude>
					<heading>174.88</heading>
					<tilt>90.0</tilt>
					<roll>0</roll>
					<altitudeMode>relativeToGround</altitudeMode>
				</Camera>
			</gx:FlyTo>
			<gx:FlyTo>
				<gx:duration>4.39</gx:duration>
				<gx:flyToMode>smooth</gx:flyToMode>
				<Camera>
					<longitude>-122.2689055352</longitude>
					<latitude>37.8765454380</latitude>
					<altitude>20.0</altitude>
					<heading>174.88</heading>
					<tilt>90.0</tilt>
					<roll>0</roll>
					<altitudeMode>relativeToGround</altitudeMode>
				</Camera>
			</gx:FlyTo>
			<gx:FlyTo>
				<gx:duration>4.39</gx:duration>
				<gx:flyToMode>smooth</gx:flyToMode>
				<Camera>
					<longitude>-122.2688609069</longitude>
					<latitude>37.8761522236</latitude>
					<altitude>20.0</altitude>
					<heading>174.88</heading>
					<tilt>90.0</tilt>
					<roll>0</roll>
					<altitudeMode>relativeToGround</altitudeMode>
				</Camera>
			</gx:FlyTo>
			<gx:FlyTo>
				<gx:duration>4.39</gx:duration>
				<gx:flyToMode>smooth</gx:flyToMode>
				<Camera>
					<longitude>-122.2688162786</longitude>
					<latitude>37.8757590092</latitude>
					<altitude>20.0</altitude>
					<heading>174.88</heading>
					<tilt>90.0</tilt>
					<roll>0</roll>
					<altitudeMode>relativeToGround</altitudeMode>
				</Camera>
			</gx:FlyTo>
			<gx:FlyTo>
				<gx:duration>4.39</gx:duration>
				<gx:flyToMode>smooth</gx:flyToMode>
				<Camera>
					<longitude>-122.2687716504</longitude>
					<latitude>37.8753657949</latitude>
					<altitude>20.0</altitude>
					<heading>174.88</heading>
					<tilt>95.0</tilt>
					<roll>0</roll>
					<altitudeMode>relativeToGround</altitudeMode>
				</Camera>
			</gx:FlyTo>
			<gx:FlyTo>
				<gx:duration>4.39</gx:duration>
				<gx:flyToMode>smooth</gx:flyToMode>
				<Camera>
					<longitude>-122.2687270221</longitude>
					<latitude>37.8749725805</latitude>
					<altitude>20.0</altitude>
					<heading>174.88</heading>
					<tilt>95.0</tilt>
					<roll>0</roll>
					<altitudeMode>relativeToGround</altitudeMode>
				</Camera>
			</gx:FlyTo>
			<gx:FlyTo>
				<gx:duration>4.39</gx:duration>
				<gx:flyToMode>smooth</gx:flyToMode>
				<Camera>
					<longitude>-122.2686823938</longitude>
					<latitude>37.8745793661</latitude>
					<altitude>20.0</altitude>
					<heading>174.88</heading>
					<tilt>95.0</tilt>
					<roll>0</roll>
					<altitudeMode>relativeToGround</altitudeMode>
				</Camera>
			</gx:FlyTo>
			<gx:FlyTo>
				<gx:duration>4.39</gx:duration>
				<gx:flyToMode>smooth</gx:flyToMode>
				<Camera>
					<longitude>-122.2686377656</longitude>
					<latitude>37.8741861517</latitude>
					<altitude>20.0</altitude>
					<heading>174.88</heading>
					<tilt>95.0</tilt>
					<roll>0</roll>
					<altitudeMode>relativeToGround</altitudeMode>
				</Camera>
			</gx:FlyTo>
			<gx:FlyTo>
				<gx:duration>4.39</gx:duration>
				<gx:flyToMode>smooth</gx:flyToMode>
				<Camera>
					<longitude>-122.2685931373</longitude>
					<latitude>37.8737929373</latitude>
					<altitude>20.0</altitude>
					<heading>174.88</heading>
					<tilt>95.0</tilt>
					<roll>0</roll>
					<altitudeMode>relativeToGround</altitudeMode>
				</Camera>
			</gx:FlyTo>
			<gx:FlyTo>
				<gx:duration>4.39</gx:duration>
				<gx:flyToMode>smooth</gx:flyToMode>
				<Camera>
					<longitude>-122.2685485090</longitude>
					<latitude>37.8733997229</latitude>
					<altitude>20.0</altitude>
					<heading>174.88</heading>
					<tilt>95.0</tilt>
					<roll>0</roll>
					<altitudeMode>relativeToGround</altitudeMode>
				</Camera>
			</gx:FlyTo>
			<gx:FlyTo>
				<gx:duration>4.39</gx:duration>
				<gx:flyToMode>smooth</gx:flyToMode>
				<Camera>
					<longitude>-122.2685038807</longitude>
					<latitude>37.8730065085</latitude>
					<altitude>20.0</altitude>
					<heading>174.88</heading>
					<tilt>95.0</tilt>
					<roll>0</roll>
					<altitudeMode>relativeToGround</altitudeMode>
				</Camera>
			</gx:FlyTo>
			<gx:FlyTo>
				<gx:duration>4.39</gx:duration>
				<gx:flyToMode>smooth</gx:flyToMode>
				<Camera>
					<longitude>-122.2684592525</longitude>
					<latitude>37.8726132942</latitude>
					<altitude>20.0</altitude>
					<heading>174.88</heading>
					<tilt>95.0</tilt>
					<roll>0</roll>
					<altitudeMode>relativeToGround</altitudeMode>
				</Camera>
			</gx:FlyTo>
			<gx:FlyTo>
				<gx:duration>4.39</gx:duration>
				<gx:flyToMode>smooth</gx:flyToMode>
				<Camera>
					<longitude>-122.2684146242</longitude>
					<latitude>37.8722200798</latitude>
					<altitude>20.0</altitude>
					<heading>174.88</heading>
					<tilt>95.0</tilt>
					<roll>0</roll>
					<altitudeMode>relativeToGround</altitudeMode>
				</Camera>
			</gx:FlyTo>
			<gx:FlyTo>
				<gx:duration>4.39</gx:duration>
				<gx:flyToMode>smooth</gx:flyToMode>
				<Camera>
					<longitude>-122.2683699959</longitude>
					<latitude>37.8718268654</latitude>
					<altitude>20.0</altitude>
					<heading>174.88</heading>
					<tilt>95.0</tilt>
					<roll>0</roll>
					<altitudeMode>relativeToGround</altitudeMode>
				</Camera>
			</gx:FlyTo>
			<gx:FlyTo>
				<gx:duration>4.39</gx:duration>
				<gx:flyToMode>smooth</gx:flyToMode>
				<Camera>
					<longitude>-122.2683253677</longitude>
					<latitude>37.8714336510</latitude>
					<altitude>20.0</altitude>
					<heading>174.88</heading>
					<tilt>95.0</tilt>
					<roll>0</roll>
					<altitudeMode>relativeToGround</altitudeMode>
				</Camera>
			</gx:FlyTo>
			<gx:FlyTo>
				<gx:duration>4.39</gx:duration>
				<gx:flyToMode>smooth</gx:flyToMode>
				<Camera>
					<longitude>-122.2682807394</longitude>
					<latitude>37.8710404366</latitude>
					<altitude>20.0</altitude>
					<heading>174.88</heading>
					<tilt>95.0</tilt>
					<roll>0</roll>
					<altitudeMode>relativeToGround</altitudeMode>
				</Camera>
			</gx:FlyTo>
			<gx:FlyTo>
				<gx:duration>4.39</gx:duration>
				<gx:flyToMode>bounce</gx:flyToMode>
				<Camera>
					<longitude>-122.2682361111</longitude>
					<latitude>37.8706472222</latitude>
					<altitude>20.0</altitude>
					<heading>174.88</heading>
					<tilt>95.0</tilt>
					<roll>0</roll>
					<altitudeMode>relativeToGround</altitudeMode>
				</Camera>
			</gx:FlyTo>
			<gx:FlyTo>
				<gx:duration>3.68</gx:duration>
				<gx:flyToMode>bounce</gx:flyToMode>
				<Camera>
					<longitude>-122.2680956222</longitude>
					<latitude>37.8703355190</latitude>
					<altitude>20.0</altitude>
					<heading>160.41</heading>
					<tilt>95.0</tilt>
					<roll>0</roll>
					<altitudeMode>relativeToGround</altitudeMode>
				</Camera>
			</gx:FlyTo>
			<gx:FlyTo>
				<gx:duration>4.46</gx:duration>
				<gx:flyToMode>smooth</gx:flyToMode>
				<Camera>
					<longitude>-122.2680577339</longitude>
					<latitude>37.8699355508</latitude>
					<altitude>20.0</altitude>
					<heading>175.72</heading>
					<tilt>95.0</tilt>
					<roll>0</roll>
					<altitudeMode>relativeToGround</altitudeMode>
				</Camera>
			</gx:FlyTo>
			<gx:FlyTo>
				<gx:duration>4.46</gx:duration>
				<gx:flyToMode>smooth</gx:flyToMode>
				<Camera>
					<longitude>-122.2680198456</longitude>
					<latitude>37.8695355826</latitude>
					<altitude>20.0</altitude>
					<heading>175.72</heading>
					<tilt>95.0</tilt>
					<roll>0</roll>
					<altitudeMode>relativeToGround</altitudeMode>
				</Camera>
			</gx:FlyTo>
			<gx:FlyTo>
				<gx:duration>0.50</gx:duration>
				<gx:flyToMode>bounce</gx:flyToMode>
				<Camera>
					<longitude>-122.2680198456</longitude>
					<latitude>37.8695355826</latitude>
					<altitude>20.0</altitude>
					<heading>265.66</heading>
					<tilt>95.0</tilt>
					<roll>0</roll>
					<altitudeMode>relativeToGround</altitudeMode>
				</Camera>
			</gx:FlyTo>
			<gx:Wait><gx:duration>1.5</gx:duration></gx:Wait>
			<gx:FlyTo>
				<gx:duration>4.00</gx:duration>
				<gx:flyToMode>bounce</gx:flyToMode>
				<Camera>
					<longitude>-122.2680198456</longitude>
					<latitude>37.8695355826</latitude>
					<altitude>137.0</altitude>
					<heading>265.66</heading>
					<tilt>70.0</tilt>
					<roll>0</roll>
					<altitudeMode>relativeToGround</altitudeMode>
				</Camera>
			</gx:FlyTo>
			<gx:Wait><gx:duration>1.0</gx:duration></gx:Wait>
			<gx:FlyTo>
				<gx:duration>3.00</gx:duration>
				<gx:flyToMode>bounce</gx:flyToMode>
				<Camera>
					<longitude>-122.2666803143</longitude>
					<latitude>37.8696166097</latitude>
					<altitude>137.0</altitude>
					<heading>265.63</heading>
					<tilt>68.0</tilt>
					<roll>0</roll>
					<altitudeMode>relativeToGround</altitudeMode>
				</Camera>
			</gx:FlyTo>
			<gx:FlyTo>
				<gx:duration>3.00</gx:duration>
				<gx:flyToMode>bounce</gx:flyToMode>
				<Camera>
					<longitude>-122.2668683788</longitude>
					<latitude>37.8688225426</latitude>
					<altitude>137.0</altitude>
					<heading>295.82</heading>
					<tilt>68.0</tilt>
					<roll>0</roll>
					<altitudeMode>relativeToGround</altitudeMode>
				</Camera>
			</gx:FlyTo>
			<gx:FlyTo>
				<gx:duration>3.00</gx:duration>
				<gx:flyToMode>bounce</gx:flyToMode>
				<Camera>
					<longitude>-122.2675306725</longitude>
					<latitude>37.8682096142</latitude>
					<altitude>137.0</altitude>
					<heading>325.85</heading>
					<tilt>68.0</tilt>
					<roll>0</roll>
					<altitudeMode>relativeToGround</altitudeMode>
				</Camera>
			</gx:FlyTo>
			<gx:FlyTo>
				<gx:duration>3.00</gx:duration>
				<gx:flyToMode>bounce</gx:flyToMode>
				<Camera>
					<longitude>-122.2684897344</longitude>
					<latitude>37.8679420582</latitude>
					<altitude>137.0</altitude>
					<heading>355.69</heading>
					<tilt>68.0</tilt>
					<roll>0</roll>
					<altitudeMode>relativeToGround</altitudeMode>
				</Camera>
			</gx:FlyTo>
			<gx:FlyTo>
				<gx:duration>3.00</gx:duration>
				<gx:flyToMode>bounce</gx:flyToMode>
				<Camera>
					<longitude>-122.2694885844</longitude>
					<latitude>37.8680915659</latitude>
					<altitude>137.0</altitude>
					<heading>25.51</heading>
					<tilt>68.0</tilt>
					<roll>0</roll>
					<altitudeMode>relativeToGround</altitudeMode>
				</Camera>
			</gx:FlyTo>
			<gx:FlyTo>
				<gx:duration>3.00</gx:duration>
				<gx:flyToMode>bounce</gx:flyToMode>
				<Camera>
					<longitude>-122.2702595817</longitude>
					<latitude>37.8686180770</latitude>
					<altitude>137.0</altitude>
					<heading>55.47</heading>
					<tilt>68.0</tilt>
					<roll>0</roll>
					<altitudeMode>relativeToGround</altitudeMode>
				</Camera>
			</gx:FlyTo>
			<gx:FlyTo>
				<gx:duration>3.00</gx:duration>
				<gx:flyToMode>bounce</gx:flyToMode>
				<Camera>
					<longitude>-122.2705961381</longitude>
					<latitude>37.8693805132</latitude>
					<altitude>137.0</altitude>
					<heading>85.63</heading>
					<tilt>68.0</tilt>
					<roll>0</roll>
					<altitudeMode>relativeToGround</altitudeMode>
				</Camera>
			</gx:FlyTo>
			<gx:FlyTo>
				<gx:duration>3.00</gx:duration>
				<gx:flyToMode>bounce</gx:flyToMode>
				<Camera>
					<longitude>-122.2704080736</longitude>
					<latitude>37.8701745803</latitude>
					<altitude>137.0</altitude>
					<heading>115.82</heading>
					<tilt>68.0</tilt>
					<roll>0</roll>
					<altitudeMode>relativeToGround</altitudeMode>
				</Camera>
			</gx:FlyTo>
			<gx:FlyTo>
				<gx:duration>3.00</gx:duration>
				<gx:flyToMode>bounce</gx:flyToMode>
				<Camera>
					<longitude>-122.2697457799</longitude>
					<latitude>37.8707875088</latitude>
					<altitude>137.0</altitude>
					<heading>145.85</heading>
					<tilt>68.0</tilt>
					<roll>0</roll>
					<altitudeMode>relativeToGround</altitudeMode>
				</Camera>
			</gx:FlyTo>
			<gx:FlyTo>
				<gx:duration>3.00</gx:duration>
				<gx:flyToMode>bounce</gx:flyToMode>
				<Camera>
					<longitude>-122.2687867181</longitude>
					<latitude>37.8710550648</latitude>
					<altitude>137.0</altitude>
					<heading>175.69</heading>
					<tilt>68.0</tilt>
					<roll>0</roll>
					<altitudeMode>relativeToGround</altitudeMode>
				</Camera>
			</gx:FlyTo>
			<gx:FlyTo>
				<gx:duration>3.00</gx:duration>
				<gx:flyToMode>bounce</gx:flyToMode>
				<Camera>
					<longitude>-122.2677878680</longitude>
					<latitude>37.8709055570</latitude>
					<altitude>137.0</altitude>
					<heading>205.51</heading>
					<tilt>68.0</tilt>
					<roll>0</roll>
					<altitudeMode>relativeToGround</altitudeMode>
				</Camera>
			</gx:FlyTo>
			<gx:FlyTo>
				<gx:duration>3.00</gx:duration>
				<gx:flyToMode>bounce</gx:flyToMode>
				<Camera>
					<longitude>-122.2670168707</longitude>
					<latitude>37.8703790459</latitude>
					<altitude>137.0</altitude>
					<heading>235.48</heading>
					<tilt>68.0</tilt>
					<roll>0</roll>
					<altitudeMode>relativeToGround</altitudeMode>
				</Camera>
			</gx:FlyTo>
			<gx:FlyTo>
				<gx:duration>3.00</gx:duration>
				<gx:flyToMode>bounce</gx:flyToMode>
				<Camera>
					<longitude>-122.2666803143</longitude>
					<latitude>37.8696166097</latitude>
					<altitude>137.0</altitude>
					<heading>265.63</heading>
					<tilt>68.0</tilt>
					<roll>0</roll>
					<altitudeMode>relativeToGround</altitudeMode>
				</Camera>
			</gx:FlyTo>
			<gx:FlyTo>
				<gx:duration>2.00</gx:duration>
				<gx:flyToMode>bounce</gx:flyToMode>
				<Camera>
					<longitude>-122.2680198456</longitude>
					<latitude>37.8695355826</latitude>
					<altitude>137.0</altitude>
					<heading>265.66</heading>
					<tilt>68.0</tilt>
					<roll>0</roll>
					<altitudeMode>relativeToGround</altitudeMode>
				</Camera>
			</gx:FlyTo>
			<gx:FlyTo>
				<gx:duration>4.00</gx:duration>
				<gx:flyToMode>bounce</gx:flyToMode>
				<Camera>
					<longitude>-122.2680198456</longitude>
					<latitude>37.8695355826</latitude>
					<altitude>20.0</altitude>
					<heading>175.72</heading>
					<tilt>95.0</tilt>
					<roll>0</roll>
					<altitudeMode>relativeToGround</altitudeMode>
				</Camera>
			</gx:FlyTo>
			<gx:Wait><gx:duration>1.0</gx:duration></gx:Wait>
			<gx:FlyTo>
				<gx:duration>3.96</gx:duration>
				<gx:flyToMode>smooth</gx:flyToMode>
				<Camera>
					<longitude>-122.2679862436</longitude>
					<latitude>37.8691808628</latitude>
					<altitude>20.0</altitude>
					<heading>175.72</heading>
					<tilt>95.0</tilt>
					<roll>0</roll>
					<altitudeMode>relativeToGround</altitudeMode>
				</Camera>
			</gx:FlyTo>
			<gx:FlyTo>
				<gx:duration>3.96</gx:duration>
				<gx:flyToMode>smooth</gx:flyToMode>
				<Camera>
					<longitude>-122.2679526416</longitude>
					<latitude>37.8688261430</latitude>
					<altitude>20.0</altitude>
					<heading>175.72</heading>
					<tilt>95.0</tilt>
					<roll>0</roll>
					<altitudeMode>relativeToGround</altitudeMode>
				</Camera>
			</gx:FlyTo>
			<gx:FlyTo>
				<gx:duration>3.96</gx:duration>
				<gx:flyToMode>smooth</gx:flyToMode>
				<Camera>
					<longitude>-122.2679190396</longitude>
					<latitude>37.8684714232</latitude>
					<altitude>20.0</altitude>
					<heading>175.72</heading>
					<tilt>95.0</tilt>
					<roll>0</roll>
					<altitudeMode>relativeToGround</altitudeMode>
				</Camera>
			</gx:FlyTo>
			<gx:FlyTo>
				<gx:duration>3.96</gx:duration>
				<gx:flyToMode>smooth</gx:flyToMode>
				<Camera>
					<longitude>-122.2678854376</longitude>
					<latitude>37.8681167034</latitude>
					<altitude>20.0</altitude>
					<heading>175.72</heading>
					<tilt>95.0</tilt>
					<roll>0</roll>
					<altitudeMode>relativeToGround</altitudeMode>
				</Camera>
			</gx:FlyTo>
			<gx:FlyTo>
				<gx:duration>3.96</gx:duration>
				<gx:flyToMode>smooth</gx:flyToMode>
				<Camera>
					<longitude>-122.2678518356</longitude>
					<latitude>37.8677619836</latitude>
					<altitude>20.0</altitude>
					<heading>175.72</heading>
					<tilt>95.0</tilt>
					<roll>0</roll>
					<altitudeMode>relativeToGround</altitudeMode>
				</Camera>
			</gx:FlyTo>
			<gx:FlyTo>
				<gx:duration>0.50</gx:duration>
				<gx:flyToMode>bounce</gx:flyToMode>
				<Camera>
					<longitude>-122.2678518356</longitude>
					<latitude>37.8677619836</latitude>
					<altitude>20.0</altitude>
					<heading>265.66</heading>
					<tilt>95.0</tilt>
					<roll>0</roll>
					<altitudeMode>relativeToGround</altitudeMode>
				</Camera>
			</gx:FlyTo>
			<gx:Wait><gx:duration>1.5</gx:duration></gx:Wait>
			<gx:FlyTo>
				<gx:duration>4.00</gx:duration>
				<gx:flyToMode>bounce</gx:flyToMode>
				<Camera>
					<longitude>-122.2678518356</longitude>
					<latitude>37.8677619836</latitude>
					<altitude>81.0</altitude>
					<heading>265.66</heading>
					<tilt>70.0</tilt>
					<roll>0</roll>
					<altitudeMode>relativeToGround</altitudeMode>
				</Camera>
			</gx:FlyTo>
			<gx:Wait><gx:duration>1.0</gx:duration></gx:Wait>
			<gx:FlyTo>
				<gx:duration>3.00</gx:duration>
				<gx:flyToMode>bounce</gx:flyToMode>
				<Camera>
					<longitude>-122.2667784060</longitude>
					<latitude>37.8678268763</latitude>
					<altitude>81.0</altitude>
					<heading>265.63</heading>
					<tilt>68.0</tilt>
					<roll>0</roll>
					<altitudeMode>relativeToGround</altitudeMode>
				</Camera>
			</gx:FlyTo>
			<gx:FlyTo>
				<gx:duration>3.00</gx:duration>
				<gx:flyToMode>bounce</gx:flyToMode>
				<Camera>
					<longitude>-122.2669200908</longitude>
					<latitude>37.8672286222</latitude>
					<altitude>81.0</altitude>
					<heading>295.82</heading>
					<tilt>68.0</tilt>
					<roll>0</roll>
					<altitudeMode>relativeToGround</altitudeMode>
				</Camera>
			</gx:FlyTo>
			<gx:FlyTo>
				<gx:duration>3.00</gx:duration>
				<gx:flyToMode>bounce</gx:flyToMode>
				<Camera>
					<longitude>-122.2674190538</longitude>
					<latitude>37.8667668387</latitude>
					<altitude>81.0</altitude>
					<heading>325.85</heading>
					<tilt>68.0</tilt>
					<roll>0</roll>
					<altitudeMode>relativeToGround</altitudeMode>
				</Camera>
			</gx:FlyTo>
			<gx:FlyTo>
				<gx:duration>3.00</gx:duration>
				<gx:flyToMode>bounce</gx:flyToMode>
				<Camera>
					<longitude>-122.2681415981</longitude>
					<latitude>37.8665652604</latitude>
					<altitude>81.0</altitude>
					<heading>355.69</heading>
					<tilt>68.0</tilt>
					<roll>0</roll>
					<altitudeMode>relativeToGround</altitudeMode>
				</Camera>
			</gx:FlyTo>
			<gx:FlyTo>
				<gx:duration>3.00</gx:duration>
				<gx:flyToMode>bounce</gx:flyToMode>
				<Camera>
					<longitude>-122.2688941187</longitude>
					<latitude>37.8666778999</latitude>
					<altitude>81.0</altitude>
					<heading>25.51</heading>
					<tilt>68.0</tilt>
					<roll>0</roll>
					<altitudeMode>relativeToGround</altitudeMode>
				</Camera>
			</gx:FlyTo>
			<gx:FlyTo>
				<gx:duration>3.00</gx:duration>
				<gx:flyToMode>bounce</gx:flyToMode>
				<Camera>
					<longitude>-122.2694749782</longitude>
					<latitude>37.8670745756</latitude>
					<altitude>81.0</altitude>
					<heading>55.47</heading>
					<tilt>68.0</tilt>
					<roll>0</roll>
					<altitudeMode>relativeToGround</altitudeMode>
				</Camera>
			</gx:FlyTo>
			<gx:FlyTo>
				<gx:duration>3.00</gx:duration>
				<gx:flyToMode>bounce</gx:flyToMode>
				<Camera>
					<longitude>-122.2697285358</longitude>
					<latitude>37.8676489985</latitude>
					<altitude>81.0</altitude>
					<heading>85.63</heading>
					<tilt>68.0</tilt>
					<roll>0</roll>
					<altitudeMode>relativeToGround</altitudeMode>
				</Camera>
			</gx:FlyTo>
			<gx:FlyTo>
				<gx:duration>3.00</gx:duration>
				<gx:flyToMode>bounce</gx:flyToMode>
				<Camera>
					<longitude>-122.2695868509</longitude>
					<latitude>37.8682472526</latitude>
					<altitude>81.0</altitude>
					<heading>115.82</heading>
					<tilt>68.0</tilt>
					<roll>0</roll>
					<altitudeMode>relativeToGround</altitudeMode>
				</Camera>
			</gx:FlyTo>
			<gx:FlyTo>
				<gx:duration>3.00</gx:duration>
				<gx:flyToMode>bounce</gx:flyToMode>
				<Camera>
					<longitude>-122.2690878880</longitude>
					<latitude>37.8687090361</latitude>
					<altitude>81.0</altitude>
					<heading>145.85</heading>
					<tilt>68.0</tilt>
					<roll>0</roll>
					<altitudeMode>relativeToGround</altitudeMode>
				</Camera>
			</gx:FlyTo>
			<gx:FlyTo>
				<gx:duration>3.00</gx:duration>
				<gx:flyToMode>bounce</gx:flyToMode>
				<Camera>
					<longitude>-122.2683653436</longitude>
					<latitude>37.8689106144</latitude>
					<altitude>81.0</altitude>
					<heading>175.69</heading>
					<tilt>68.0</tilt>
					<roll>0</roll>
					<altitudeMode>relativeToGround</altitudeMode>
				</Camera>
			</gx:FlyTo>
			<gx:FlyTo>
				<gx:duration>3.00</gx:duration>
				<gx:flyToMode>bounce</gx:flyToMode>
				<Camera>
					<longitude>-122.2676128230</longitude>
					<latitude>37.8687979749</latitude>
					<altitude>81.0</altitude>
					<heading>205.51</heading>
					<tilt>68.0</tilt>
					<roll>0</roll>
					<altitudeMode>relativeToGround</altitudeMode>
				</Camera>
			</gx:FlyTo>
			<gx:FlyTo>
				<gx:duration>3.00</gx:duration>
				<gx:flyToMode>bounce</gx:flyToMode>
				<Camera>
					<longitude>-122.2670319635</longitude>
					<latitude>37.8684012992</latitude>
					<altitude>81.0</altitude>
					<heading>235.48</heading>
					<tilt>68.0</tilt>
					<roll>0</roll>
					<altitudeMode>relativeToGround</altitudeMode>
				</Camera>
			</gx:FlyTo>
			<gx:FlyTo>
				<gx:duration>3.00</gx:duration>
				<gx:flyToMode>bounce</gx:flyToMode>
				<Camera>
					<longitude>-122.2667784060</longitude>
					<latitude>37.8678268763</latitude>
					<altitude>81.0</altitude>
					<heading>265.63</heading>
					<tilt>68.0</tilt>
					<roll>0</roll>
					<altitudeMode>relativeToGround</altitudeMode>
				</Camera>
			</gx:FlyTo>
			<gx:FlyTo>
				<gx:duration>2.00</gx:duration>
				<gx:flyToMode>bounce</gx:flyToMode>
				<Camera>
					<longitude>-122.2678518356</longitude>
					<latitude>37.8677619836</latitude>
					<altitude>81.0</altitude>
					<heading>265.66</heading>
					<tilt>68.0</tilt>
					<roll>0</roll>
					<altitudeMode>relativeToGround</altitudeMode>
				</Camera>
			</gx:FlyTo>
			<gx:FlyTo>
				<gx:duration>4.00</gx:duration>
				<gx:flyToMode>bounce</gx:flyToMode>
				<Camera>
					<longitude>-122.2678518356</longitude>
					<latitude>37.8677619836</latitude>
					<altitude>20.0</altitude>
					<heading>175.72</heading>
					<tilt>95.0</tilt>
					<roll>0</roll>
					<altitudeMode>relativeToGround</altitudeMode>
				</Camera>
			</gx:FlyTo>
			<gx:Wait><gx:duration>1.0</gx:duration></gx:Wait>
			<gx:FlyTo>
				<gx:duration>4.31</gx:duration>
				<gx:flyToMode>smooth</gx:flyToMode>
				<Camera>
					<longitude>-122.2678152045</longitude>
					<latitude>37.8673752873</latitude>
					<altitude>20.0</altitude>
					<heading>175.72</heading>
					<tilt>95.0</tilt>
					<roll>0</roll>
					<altitudeMode>relativeToGround</altitudeMode>
				</Camera>
			</gx:FlyTo>
			<gx:FlyTo>
				<gx:duration>4.31</gx:duration>
				<gx:flyToMode>smooth</gx:flyToMode>
				<Camera>
					<longitude>-122.2677785735</longitude>
					<latitude>37.8669885911</latitude>
					<altitude>20.0</altitude>
					<heading>175.72</heading>
					<tilt>95.0</tilt>
					<roll>0</roll>
					<altitudeMode>relativeToGround</altitudeMode>
				</Camera>
			</gx:FlyTo>
			<gx:FlyTo>
				<gx:duration>4.31</gx:duration>
				<gx:flyToMode>smooth</gx:flyToMode>
				<Camera>
					<longitude>-122.2677419424</longitude>
					<latitude>37.8666018948</latitude>
					<altitude>20.0</altitude>
					<heading>175.72</heading>
					<tilt>95.0</tilt>
					<roll>0</roll>
					<altitudeMode>relativeToGround</altitudeMode>
				</Camera>
			</gx:FlyTo>
			<gx:FlyTo>
				<gx:duration>4.31</gx:duration>
				<gx:flyToMode>smooth</gx:flyToMode>
				<Camera>
					<longitude>-122.2677053113</longitude>
					<latitude>37.8662151985</latitude>
					<altitude>20.0</altitude>
					<heading>175.72</heading>
					<tilt>95.0</tilt>
					<roll>0</roll>
					<altitudeMode>relativeToGround</altitudeMode>
				</Camera>
			</gx:FlyTo>
			<gx:FlyTo>
				<gx:duration>4.31</gx:duration>
				<gx:flyToMode>smooth</gx:flyToMode>
				<Camera>
					<longitude>-122.2676686802</longitude>
					<latitude>37.8658285023</latitude>
					<altitude>20.0</altitude>
					<heading>175.72</heading>
					<tilt>95.0</tilt>
					<roll>0</roll>
					<altitudeMode>relativeToGround</altitudeMode>
				</Camera>
			</gx:FlyTo>
			<gx:FlyTo>
				<gx:duration>4.31</gx:duration>
				<gx:flyToMode>smooth</gx:flyToMode>
				<Camera>
					<longitude>-122.2676320492</longitude>
					<latitude>37.8654418060</latitude>
					<altitude>20.0</altitude>
					<heading>175.72</heading>
					<tilt>95.0</tilt>
					<roll>0</roll>
					<altitudeMode>relativeToGround</altitudeMode>
				</Camera>
			</gx:FlyTo>
			<gx:FlyTo>
				<gx:duration>4.31</gx:duration>
				<gx:flyToMode>smooth</gx:flyToMode>
				<Camera>
					<longitude>-122.2675954181</longitude>
					<latitude>37.8650551098</latitude>
					<altitude>20.0</altitude>
					<heading>175.72</heading>
					<tilt>95.0</tilt>
					<roll>0</roll>
					<altitudeMode>relativeToGround</altitudeMode>
				</Camera>
			</gx:FlyTo>
			<gx:FlyTo>
				<gx:duration>4.31</gx:duration>
				<gx:flyToMode>smooth</gx:flyToMode>
				<Camera>
					<longitude>-122.2675587870</longitude>
					<latitude>37.8646684135</latitude>
					<altitude>20.0</altitude>
					<heading>175.72</heading>
					<tilt>95.0</tilt>
					<roll>0</roll>
					<altitudeMode>relativeToGround</altitudeMode>
				</Camera>
			</gx:FlyTo>
			<gx:FlyTo>
				<gx:duration>4.31</gx:duration>
				<gx:flyToMode>smooth</gx:flyToMode>
				<Camera>
					<longitude>-122.2675221559</longitude>
					<latitude>37.8642817172</latitude>
					<altitude>20.0</altitude>
					<heading>175.72</heading>
					<tilt>95.0</tilt>
					<roll>0</roll>
					<altitudeMode>relativeToGround</altitudeMode>
				</Camera>
			</gx:FlyTo>
			<gx:FlyTo>
				<gx:duration>4.31</gx:duration>
				<gx:flyToMode>smooth</gx:flyToMode>
				<Camera>
					<longitude>-122.2674855249</longitude>
					<latitude>37.8638950210</latitude>
					<altitude>20.0</altitude>
					<heading>175.72</heading>
					<tilt>95.0</tilt>
					<roll>0</roll>
					<altitudeMode>relativeToGround</altitudeMode>
				</Camera>
			</gx:FlyTo>
			<gx:FlyTo>
				<gx:duration>4.31</gx:duration>
				<gx:flyToMode>smooth</gx:flyToMode>
				<Camera>
					<longitude>-122.2674488938</longitude>
					<latitude>37.8635083247</latitude>
					<altitude>20.0</altitude>
					<heading>175.72</heading>
					<tilt>95.0</tilt>
					<roll>0</roll>
					<altitudeMode>relativeToGround</altitudeMode>
				</Camera>
			</gx:FlyTo>
			<gx:FlyTo>
				<gx:duration>4.31</gx:duration>
				<gx:flyToMode>smooth</gx:flyToMode>
				<Camera>
					<longitude>-122.2674122627</longitude>
					<latitude>37.8631216284</latitude>
					<altitude>20.0</altitude>
					<heading>175.72</heading>
					<tilt>95.0</tilt>
					<roll>0</roll>
					<altitudeMode>relativeToGround</altitudeMode>
				</Camera>
			</gx:FlyTo>
			<gx:FlyTo>
				<gx:duration>4.31</gx:duration>
				<gx:flyToMode>smooth</gx:flyToMode>
				<Camera>
					<longitude>-122.2673756317</longitude>
					<latitude>37.8627349322</latitude>
					<altitude>20.0</altitude>
					<heading>175.72</heading>
					<tilt>95.0</tilt>
					<roll>0</roll>
					<altitudeMode>relativeToGround</altitudeMode>
				</Camera>
			</gx:FlyTo>
			<gx:FlyTo>
				<gx:duration>4.31</gx:duration>
				<gx:flyToMode>smooth</gx:flyToMode>
				<Camera>
					<longitude>-122.2673390006</longitude>
					<latitude>37.8623482359</latitude>
					<altitude>20.0</altitude>
					<heading>175.72</heading>
					<tilt>95.0</tilt>
					<roll>0</roll>
					<altitudeMode>relativeToGround</altitudeMode>
				</Camera>
			</gx:FlyTo>
			<gx:FlyTo>
				<gx:duration>4.31</gx:duration>
				<gx:flyToMode>smooth</gx:flyToMode>
				<Camera>
					<longitude>-122.2673023695</longitude>
					<latitude>37.8619615397</latitude>
					<altitude>20.0</altitude>
					<heading>175.72</heading>
					<tilt>95.0</tilt>
					<roll>0</roll>
					<altitudeMode>relativeToGround</altitudeMode>
				</Camera>
			</gx:FlyTo>
			<gx:FlyTo>
				<gx:duration>4.31</gx:duration>
				<gx:flyToMode>smooth</gx:flyToMode>
				<Camera>
					<longitude>-122.2672657384</longitude>
					<latitude>37.8615748434</latitude>
					<altitude>20.0</altitude>
					<heading>175.72</heading>
					<tilt>95.0</tilt>
					<roll>0</roll>
					<altitudeMode>relativeToGround</altitudeMode>
				</Camera>
			</gx:FlyTo>
			<gx:FlyTo>
				<gx:duration>4.31</gx:duration>
				<gx:flyToMode>smooth</gx:flyToMode>
				<Camera>
					<longitude>-122.2672291074</longitude>
					<latitude>37.8611881471</latitude>
					<altitude>20.0</altitude>
					<heading>175.72</heading>
					<tilt>95.0</tilt>
					<roll>0</roll>
					<altitudeMode>relativeToGround</altitudeMode>
				</Camera>
			</gx:FlyTo>
			<gx:FlyTo>
				<gx:duration>4.31</gx:duration>
				<gx:flyToMode>smooth</gx:flyToMode>
				<Camera>
					<longitude>-122.2671924763</longitude>
					<latitude>37.8608014509</latitude>
					<altitude>20.0</altitude>
					<heading>175.72</heading>
					<tilt>95.0</tilt>
					<roll>0</roll>
					<altitudeMode>relativeToGround</altitudeMode>
				</Camera>
			</gx:FlyTo>
			<gx:FlyTo>
				<gx:duration>4.31</gx:duration>
				<gx:flyToMode>smooth</gx:flyToMode>
				<Camera>
					<longitude>-122.2671558452</longitude>
					<latitude>37.8604147546</latitude>
					<altitude>20.0</altitude>
					<heading>175.72</heading>
					<tilt>95.0</tilt>
					<roll>0</roll>
					<altitudeMode>relativeToGround</altitudeMode>
				</Camera>
			</gx:FlyTo>
			<gx:FlyTo>
				<gx:duration>4.31</gx:duration>
				<gx:flyToMode>smooth</gx:flyToMode>
				<Camera>
					<longitude>-122.2671192141</longitude>
					<latitude>37.8600280584</latitude>
					<altitude>20.0</altitude>
					<heading>175.72</heading>
					<tilt>95.0</tilt>
					<roll>0</roll>
					<altitudeMode>relativeToGround</altitudeMode>
				</Camera>
			</gx:FlyTo>
			<gx:FlyTo>
				<gx:duration>4.31</gx:duration>
				<gx:flyToMode>bounce</gx:flyToMode>
				<Camera>
					<longitude>-122.2670825831</longitude>
					<latitude>37.8596413621</latitude>
					<altitude>20.0</altitude>
					<heading>175.72</heading>
					<tilt>95.0</tilt>
					<roll>0</roll>
					<altitudeMode>relativeToGround</altitudeMode>
				</Camera>
			</gx:FlyTo>
			<gx:Wait><gx:duration>1.0</gx:duration></gx:Wait>
			<gx:FlyTo>
				<gx:duration>4.28</gx:duration>
				<gx:flyToMode>smooth</gx:flyToMode>
				<Camera>
					<longitude>-122.2670328528</longitude>
					<latitude>37.8592588349</latitude>
					<altitude>20.0</altitude>
					<heading>174.14</heading>
					<tilt>95.0</tilt>
					<roll>0</roll>
					<altitudeMode>relativeToGround</altitudeMode>
				</Camera>
			</gx:FlyTo>
			<gx:FlyTo>
				<gx:duration>4.28</gx:duration>
				<gx:flyToMode>smooth</gx:flyToMode>
				<Camera>
					<longitude>-122.2669831226</longitude>
					<latitude>37.8588763077</latitude>
					<altitude>20.0</altitude>
					<heading>174.14</heading>
					<tilt>95.0</tilt>
					<roll>0</roll>
					<altitudeMode>relativeToGround</altitudeMode>
				</Camera>
			</gx:FlyTo>
			<gx:FlyTo>
				<gx:duration>4.28</gx:duration>
				<gx:flyToMode>smooth</gx:flyToMode>
				<Camera>
					<longitude>-122.2669333923</longitude>
					<latitude>37.8584937804</latitude>
					<altitude>20.0</altitude>
					<heading>174.14</heading>
					<tilt>95.0</tilt>
					<roll>0</roll>
					<altitudeMode>relativeToGround</altitudeMode>
				</Camera>
			</gx:FlyTo>
			<gx:FlyTo>
				<gx:duration>4.28</gx:duration>
				<gx:flyToMode>smooth</gx:flyToMode>
				<Camera>
					<longitude>-122.2668836621</longitude>
					<latitude>37.8581112532</latitude>
					<altitude>20.0</altitude>
					<heading>174.14</heading>
					<tilt>95.0</tilt>
					<roll>0</roll>
					<altitudeMode>relativeToGround</altitudeMode>
				</Camera>
			</gx:FlyTo>
			<gx:FlyTo>
				<gx:duration>4.28</gx:duration>
				<gx:flyToMode>smooth</gx:flyToMode>
				<Camera>
					<longitude>-122.2668339319</longitude>
					<latitude>37.8577287260</latitude>
					<altitude>20.0</altitude>
					<heading>174.14</heading>
					<tilt>95.0</tilt>
					<roll>0</roll>
					<altitudeMode>relativeToGround</altitudeMode>
				</Camera>
			</gx:FlyTo>
			<gx:FlyTo>
				<gx:duration>4.28</gx:duration>
				<gx:flyToMode>smooth</gx:flyToMode>
				<Camera>
					<longitude>-122.2667842016</longitude>
					<latitude>37.8573461988</latitude>
					<altitude>20.0</altitude>
					<heading>174.14</heading>
					<tilt>95.0</tilt>
					<roll>0</roll>
					<altitudeMode>relativeToGround</altitudeMode>
				</Camera>
			</gx:FlyTo>
			<gx:FlyTo>
				<gx:duration>4.28</gx:duration>
				<gx:flyToMode>smooth</gx:flyToMode>
				<Camera>
					<longitude>-122.2667344714</longitude>
					<latitude>37.8569636716</latitude>
					<altitude>20.0</altitude>
					<heading>174.14</heading>
					<tilt>95.0</tilt>
					<roll>0</roll>
					<altitudeMode>relativeToGround</altitudeMode>
				</Camera>
			</gx:FlyTo>
			<gx:FlyTo>
				<gx:duration>4.28</gx:duration>
				<gx:flyToMode>smooth</gx:flyToMode>
				<Camera>
					<longitude>-122.2666847411</longitude>
					<latitude>37.8565811443</latitude>
					<altitude>20.0</altitude>
					<heading>174.14</heading>
					<tilt>95.0</tilt>
					<roll>0</roll>
					<altitudeMode>relativeToGround</altitudeMode>
				</Camera>
			</gx:FlyTo>
			<gx:FlyTo>
				<gx:duration>4.28</gx:duration>
				<gx:flyToMode>smooth</gx:flyToMode>
				<Camera>
					<longitude>-122.2666350109</longitude>
					<latitude>37.8561986171</latitude>
					<altitude>20.0</altitude>
					<heading>174.14</heading>
					<tilt>95.0</tilt>
					<roll>0</roll>
					<altitudeMode>relativeToGround</altitudeMode>
				</Camera>
			</gx:FlyTo>
			<gx:FlyTo>
				<gx:duration>4.28</gx:duration>
				<gx:flyToMode>smooth</gx:flyToMode>
				<Camera>
					<longitude>-122.2665852806</longitude>
					<latitude>37.8558160899</latitude>
					<altitude>20.0</altitude>
					<heading>174.14</heading>
					<tilt>95.0</tilt>
					<roll>0</roll>
					<altitudeMode>relativeToGround</altitudeMode>
				</Camera>
			</gx:FlyTo>
			<gx:FlyTo>
				<gx:duration>4.28</gx:duration>
				<gx:flyToMode>smooth</gx:flyToMode>
				<Camera>
					<longitude>-122.2665355504</longitude>
					<latitude>37.8554335627</latitude>
					<altitude>20.0</altitude>
					<heading>174.14</heading>
					<tilt>95.0</tilt>
					<roll>0</roll>
					<altitudeMode>relativeToGround</altitudeMode>
				</Camera>
			</gx:FlyTo>
			<gx:FlyTo>
				<gx:duration>4.28</gx:duration>
				<gx:flyToMode>smooth</gx:flyToMode>
				<Camera>
					<longitude>-122.2664858202</longitude>
					<latitude>37.8550510354</latitude>
					<altitude>20.0</altitude>
					<heading>174.14</heading>
					<tilt>95.0</tilt>
					<roll>0</roll>
					<altitudeMode>relativeToGround</altitudeMode>
				</Camera>
			</gx:FlyTo>
			<gx:FlyTo>
				<gx:duration>4.28</gx:duration>
				<gx:flyToMode>smooth</gx:flyToMode>
				<Camera>
					<longitude>-122.2664360899</longitude>
					<latitude>37.8546685082</latitude>
					<altitude>20.0</altitude>
					<heading>174.14</heading>
					<tilt>95.0</tilt>
					<roll>0</roll>
					<altitudeMode>relativeToGround</altitudeMode>
				</Camera>
			</gx:FlyTo>
			<gx:FlyTo>
				<gx:duration>4.28</gx:duration>
				<gx:flyToMode>smooth</gx:flyToMode>
				<Camera>
					<longitude>-122.2663863597</longitude>
					<latitude>37.8542859810</latitude>
					<altitude>20.0</altitude>
					<heading>174.14</heading>
					<tilt>95.0</tilt>
					<roll>0</roll>
					<altitudeMode>relativeToGround</altitudeMode>
				</Camera>
			</gx:FlyTo>
			<gx:FlyTo>
				<gx:duration>4.28</gx:duration>
				<gx:flyToMode>smooth</gx:flyToMode>
				<Camera>
					<longitude>-122.2663366294</longitude>
					<latitude>37.8539034538</latitude>
					<altitude>20.0</altitude>
					<heading>174.14</heading>
					<tilt>95.0</tilt>
					<roll>0</roll>
					<altitudeMode>relativeToGround</altitudeMode>
				</Camera>
			</gx:FlyTo>
			<gx:FlyTo>
				<gx:duration>4.28</gx:duration>
				<gx:flyToMode>smooth</gx:flyToMode>
				<Camera>
					<longitude>-122.2662868992</longitude>
					<latitude>37.8535209266</latitude>
					<altitude>20.0</altitude>
					<heading>174.14</heading>
					<tilt>95.0</tilt>
					<roll>0</roll>
					<altitudeMode>relativeToGround</altitudeMode>
				</Camera>
			</gx:FlyTo>
			<gx:FlyTo>
				<gx:duration>4.28</gx:duration>
				<gx:flyToMode>smooth</gx:flyToMode>
				<Camera>
					<longitude>-122.2662371689</longitude>
					<latitude>37.8531383993</latitude>
					<altitude>20.0</altitude>
					<heading>174.14</heading>
					<tilt>95.0</tilt>
					<roll>0</roll>
					<altitudeMode>relativeToGround</altitudeMode>
				</Camera>
			</gx:FlyTo>
			<gx:FlyTo>
				<gx:duration>4.28</gx:duration>
				<gx:flyToMode>smooth</gx:flyToMode>
				<Camera>
					<longitude>-122.2661874387</longitude>
					<latitude>37.8527558721</latitude>
					<altitude>20.0</altitude>
					<heading>174.14</heading>
					<tilt>95.0</tilt>
					<roll>0</roll>
					<altitudeMode>relativeToGround</altitudeMode>
				</Camera>
			</gx:FlyTo>
			<gx:FlyTo>
				<gx:duration>4.28</gx:duration>
				<gx:flyToMode>bounce</gx:flyToMode>
				<Camera>
					<longitude>-122.2661377085</longitude>
					<latitude>37.8523733449</latitude>
					<altitude>20.0</altitude>
					<heading>174.14</heading>
					<tilt>95.0</tilt>
					<roll>0</roll>
					<altitudeMode>relativeToGround</altitudeMode>
				</Camera>
			</gx:FlyTo>
		</gx:Playlist>
	</gx:Tour>
	<Folder>
		<name>Route and orbit control points</name>
		<Placemark>
			<name>N-Shattuck-North</name>
			<styleUrl>#control_point</styleUrl>
			<Point><coordinates>-122.2695303310,37.8820504394,0</coordinates></Point>
		</Placemark>
		<Placemark>
			<name>N-Shattuck-South</name>
			<styleUrl>#control_point</styleUrl>
			<Point><coordinates>-122.2682361111,37.8706472222,0</coordinates></Point>
		</Placemark>
		<Placemark>
			<name>S-Shattuck-North</name>
			<styleUrl>#control_point</styleUrl>
			<Point><coordinates>-122.2680956222,37.8703355190,0</coordinates></Point>
		</Placemark>
		<Placemark>
			<name>STOP_2190_SHATTUCK</name>
			<styleUrl>#orbit_stop</styleUrl>
			<Point><coordinates>-122.2680198456,37.8695355826,0</coordinates></Point>
		</Placemark>
		<Placemark>
			<name>STOP_2276_SHATTUCK</name>
			<styleUrl>#orbit_stop</styleUrl>
			<Point><coordinates>-122.2678518356,37.8677619836,0</coordinates></Point>
		</Placemark>
		<Placemark>
			<name>S-Shattuck-Adeline</name>
			<styleUrl>#control_point</styleUrl>
			<Point><coordinates>-122.2670825831,37.8596413621,0</coordinates></Point>
		</Placemark>
		<Placemark>
			<name>S-Shattuck-South</name>
			<styleUrl>#control_point</styleUrl>
			<Point><coordinates>-122.2661377085,37.8523733449,0</coordinates></Point>
		</Placemark>
	</Folder>
	<Placemark>
		<name>2190 Shattuck orbit center</name>
		<styleUrl>#orbit_stop</styleUrl>
		<Point><coordinates>-122.2686382262,37.8694985615,0</coordinates></Point>
	</Placemark>
	<Placemark>
		<name>2276 Shattuck orbit center</name>
		<styleUrl>#orbit_stop</styleUrl>
		<Point><coordinates>-122.2682534709,37.8677379374,0</coordinates></Point>
	</Placemark>
	<Placemark>
		<name>Camera route path</name>
		<styleUrl>#route_line</styleUrl>
		<LineString>
			<tessellate>1</tessellate>
			<altitudeMode>relativeToGround</altitudeMode>
			<coordinates>-122.2695303310,37.8820504394,20.0 -122.2694857027,37.8816572250,30.0 -122.2694410745,37.8812640106,30.0 -122.2693964462,37.8808707963,30.0 -122.2693518179,37.8804775819,30.0 -122.2693071896,37.8800843675,30.0 -122.2692625614,37.8796911531,30.0 -122.2692179331,37.8792979387,30.0 -122.2691733048,37.8789047243,30.0 -122.2691286766,37.8785115099,30.0 -122.2690840483,37.8781182956,30.0 -122.2690394200,37.8777250812,30.0 -122.2689947917,37.8773318668,30.0 -122.2689501635,37.8769386524,30.0 -122.2689055352,37.8765454380,30.0 -122.2688609069,37.8761522236,30.0 -122.2688162786,37.8757590092,30.0 -122.2687716504,37.8753657949,30.0 -122.2687270221,37.8749725805,30.0 -122.2686823938,37.8745793661,30.0 -122.2686377656,37.8741861517,30.0 -122.2685931373,37.8737929373,30.0 -122.2685485090,37.8733997229,30.0 -122.2685038807,37.8730065085,30.0 -122.2684592525,37.8726132942,30.0 -122.2684146242,37.8722200798,30.0 -122.2683699959,37.8718268654,30.0 -122.2683253677,37.8714336510,30.0 -122.2682807394,37.8710404366,30.0 -122.2682361111,37.8706472222,30.0 -122.2680956222,37.8703355190,30.0 -122.2680577339,37.8699355508,30.0 -122.2680198456,37.8695355826,30.0 -122.2679862436,37.8691808628,30.0 -122.2679526416,37.8688261430,30.0 -122.2679190396,37.8684714232,30.0 -122.2678854376,37.8681167034,30.0 -122.2678518356,37.8677619836,30.0 -122.2678152045,37.8673752873,30.0 -122.2677785735,37.8669885911,30.0 -122.2677419424,37.8666018948,30.0 -122.2677053113,37.8662151985,30.0 -122.2676686802,37.8658285023,30.0 -122.2676320492,37.8654418060,30.0 -122.2675954181,37.8650551098,30.0 -122.2675587870,37.8646684135,30.0 -122.2675221559,37.8642817172,30.0 -122.2674855249,37.8638950210,30.0 -122.2674488938,37.8635083247,30.0 -122.2674122627,37.8631216284,30.0 -122.2673756317,37.8627349322,30.0 -122.2673390006,37.8623482359,30.0 -122.2673023695,37.8619615397,30.0 -122.2672657384,37.8615748434,30.0 -122.2672291074,37.8611881471,30.0 -122.2671924763,37.8608014509,30.0 -122.2671558452,37.8604147546,30.0 -122.2671192141,37.8600280584,30.0 -122.2670825831,37.8596413621,30.0 -122.2670328528,37.8592588349,30.0 -122.2669831226,37.8588763077,30.0 -122.2669333923,37.8584937804,30.0 -122.2668836621,37.8581112532,30.0 -122.2668339319,37.8577287260,30.0 -122.2667842016,37.8573461988,30.0 -122.2667344714,37.8569636716,30.0 -122.2666847411,37.8565811443,30.0 -122.2666350109,37.8561986171,30.0 -122.2665852806,37.8558160899,30.0 -122.2665355504,37.8554335627,30.0 -122.2664858202,37.8550510354,30.0 -122.2664360899,37.8546685082,30.0 -122.2663863597,37.8542859810,30.0 -122.2663366294,37.8539034538,30.0 -122.2662868992,37.8535209266,30.0 -122.2662371689,37.8531383993,30.0 -122.2661874387,37.8527558721,30.0 -122.2661377085,37.8523733449,30.0</coordinates>
		</LineString>
	</Placemark>
</Document>
</kml>
