<?xml version="1.0" encoding="UTF-8"?>
<kml xmlns="http://www.opengis.net/kml/2.2" xmlns:gx="http://www.google.com/kml/ext/2.2" xmlns:kml="http://www.opengis.net/kml/2.2" xmlns:atom="http://www.w3.org/2005/Atom">
<Document>
	<name>haste_corrected.kmz</name>
	<Style id="style_UC_Project">
		<LineStyle>
			<color>ff000000</color>
		</LineStyle>
		<PolyStyle>
			<color>ff00d7ff</color>
		</PolyStyle>
	</Style>
	<StyleMap id="style_UC_Project0">
		<Pair>
			<key>normal</key>
			<styleUrl>#style_UC_Project</styleUrl>
		</Pair>
		<Pair>
			<key>highlight</key>
			<styleUrl>#style_UC_Project1</styleUrl>
		</Pair>
	</StyleMap>
	<Style id="style_UC_Project1">
		<LineStyle>
			<color>ff000000</color>
		</LineStyle>
		<PolyStyle>
			<color>ff00d7ff</color>
		</PolyStyle>
	</Style>
	<Placemark>
		<name>2556 Haste</name>
		<description><![CDATA[<b>2556 HASTE St</b><br/><b>Units:</b> 556<br/><b>VLI Units:</b> 0<br/><b>Stories:</b> 12<br/><b>Height:</b> 40.2m<br/><b>Status:</b> Under Construction<br/><b style='color:gold'>UC Berkeley Project</b>]]></description>
		<styleUrl>#style_UC_Project0</styleUrl>
		<gx:balloonVisibility>1</gx:balloonVisibility>
		<Polygon>
			<extrude>1</extrude>
			<tessellate>1</tessellate>
			<altitudeMode>relativeToGround</altitudeMode>
			<outerBoundaryIs>
				<LinearRing>
					<coordinates>
						-122.256287901838,37.8654874196732,40.2 -122.256436112739,37.86622201212742,40.2 -122.2580110900322,37.86604851173211,40.2 -122.2578656725892,37.8652807639418,40.2 -122.256287901838,37.8654874196732,40.2 
					</coordinates>
				</LinearRing>
			</outerBoundaryIs>
		</Polygon>
		<atom:link rel="app" href="https://www.google.com/earth/about/versions/#earth-pro" title="Google Earth Pro 7.3.7.1155"></atom:link>
	</Placemark>
</Document>
</kml>
