<?xml version="1.0" encoding="UTF-8"?>
<kml xmlns="http://www.opengis.net/kml/2.2">
<Document>
	<name>Ashby Control Points DERIVED · 34 points</name>
	<open>1</open>
	<Style id="s_ylw-pushpin"><IconStyle><scale>1.1</scale><Icon><href>http://maps.google.com/mapfiles/kml/pushpin/ylw-pushpin.png</href></Icon></IconStyle></Style>
	<StyleMap id="m_ylw-pushpin"><Pair><key>normal</key><styleUrl>#s_ylw-pushpin</styleUrl></Pair><Pair><key>highlight</key><styleUrl>#s_ylw-pushpin</styleUrl></Pair></StyleMap>
	<Folder><name>Ashby</name><open>1</open>
		<Placemark><name>ASH01</name><styleUrl>#m_ylw-pushpin</styleUrl><Point><coordinates>-122.29043557018629,37.85141022131465,0</coordinates></Point></Placemark>
		<Placemark><name>ASH02</name><styleUrl>#m_ylw-pushpin</styleUrl><Point><coordinates>-122.2880355701863,37.85308588075562,0</coordinates></Point></Placemark>
		<Placemark><name>ASH03</name><styleUrl>#m_ylw-pushpin</styleUrl><Point><coordinates>-122.2856355701863,37.85222804309311,0</coordinates></Point></Placemark>
		<Placemark><name>ASH04</name><styleUrl>#m_ylw-pushpin</styleUrl><Point><coordinates>-122.2844355701863,37.852357285652374,0</coordinates></Point></Placemark>
		<Placemark><name>ASH05</name><styleUrl>#m_ylw-pushpin</styleUrl><Point><coordinates>-122.2832355701863,37.853180159861736,0</coordinates></Point></Placemark>
		<Placemark><name>ASH06</name><styleUrl>#m_ylw-pushpin</styleUrl><Point><coordinates>-122.28203557018631,37.85324016281568,0</coordinates></Point></Placemark>
		<Placemark><name>ASH07</name><styleUrl>#m_ylw-pushpin</styleUrl><Point><coordinates>-122.27963557018631,37.85347094126125,0</coordinates></Point></Placemark>
		<Placemark><name>ASH08</name><styleUrl>#m_ylw-pushpin</styleUrl><Point><coordinates>-122.27843557018632,37.85366458824996,0</coordinates></Point></Placemark>
		<Placemark><name>ASH09</name><styleUrl>#m_ylw-pushpin</styleUrl><Point><coordinates>-122.27723557018632,37.85343912373577,0</coordinates></Point></Placemark>
		<Placemark><name>ASH10</name><styleUrl>#m_ylw-pushpin</styleUrl><Point><coordinates>-122.27603557018632,37.85389750529516,0</coordinates></Point></Placemark>
		<Placemark><name>ASH11</name><styleUrl>#m_ylw-pushpin</styleUrl><Point><coordinates>-122.27483557018633,37.85367682496009,0</coordinates></Point></Placemark>
		<Placemark><name>ASH12</name><styleUrl>#m_ylw-pushpin</styleUrl><Point><coordinates>-122.27363557018633,37.85414871590811,0</coordinates></Point></Placemark>
		<Placemark><name>ASH13</name><styleUrl>#m_ylw-pushpin</styleUrl><Point><coordinates>-122.27123557018633,37.854417366988734,0</coordinates></Point></Placemark>
		<Placemark><name>ASH14</name><styleUrl>#m_ylw-pushpin</styleUrl><Point><coordinates>-122.27003557018634,37.85466058895309,0</coordinates></Point></Placemark>
		<Placemark><name>ASH15</name><styleUrl>#m_ylw-pushpin</styleUrl><Point><coordinates>-122.26763557018634,37.85492672696121,0</coordinates></Point></Placemark>
		<Placemark><name>ASH16</name><styleUrl>#m_ylw-pushpin</styleUrl><Point><coordinates>-122.26643557018635,37.855601620276595,0</coordinates></Point></Placemark>
		<Placemark><name>ASH17</name><styleUrl>#m_ylw-pushpin</styleUrl><Point><coordinates>-122.26523557018635,37.85522447012172,0</coordinates></Point></Placemark>
		<Placemark><name>ASH18</name><styleUrl>#m_ylw-pushpin</styleUrl><Point><coordinates>-122.26403557018635,37.85536183714995,0</coordinates></Point></Placemark>
		<Placemark><name>ASH19</name><styleUrl>#m_ylw-pushpin</styleUrl><Point><coordinates>-122.26283557018635,37.8555645479502,0</coordinates></Point></Placemark>
		<Placemark><name>ASH20</name><styleUrl>#m_ylw-pushpin</styleUrl><Point><coordinates>-122.26163557018636,37.856155831175734,0</coordinates></Point></Placemark>
		<Placemark><name>ASH21</name><styleUrl>#m_ylw-pushpin</styleUrl><Point><coordinates>-122.26043557018636,37.856337430602906,0</coordinates></Point></Placemark>
		<Placemark><name>ASH22</name><styleUrl>#m_ylw-pushpin</styleUrl><Point><coordinates>-122.25923557018636,37.85646969664889,0</coordinates></Point></Placemark>
		<Placemark><name>ASH23</name><styleUrl>#m_ylw-pushpin</styleUrl><Point><coordinates>-122.25803557018637,37.85672296706278,0</coordinates></Point></Placemark>
		<Placemark><name>ASH24</name><styleUrl>#m_ylw-pushpin</styleUrl><Point><coordinates>-122.25683557018637,37.8567632985771,0</coordinates></Point></Placemark>
		<Placemark><name>ASH25</name><styleUrl>#m_ylw-pushpin</styleUrl><Point><coordinates>-122.25563557018637,37.85692549113075,0</coordinates></Point></Placemark>
		<Placemark><name>ASH26</name><styleUrl>#m_ylw-pushpin</styleUrl><Point><coordinates>-122.25443557018637,37.8566839937655,0</coordinates></Point></Placemark>
		<Placemark><name>ASH27</name><styleUrl>#m_ylw-pushpin</styleUrl><Point><coordinates>-122.25323557018638,37.85682640660041,0</coordinates></Point></Placemark>
		<Placemark><name>ASH28</name><styleUrl>#m_ylw-pushpin</styleUrl><Point><coordinates>-122.25203557018638,37.85771382194868,0</coordinates></Point></Placemark>
		<Placemark><name>ASH29</name><styleUrl>#m_ylw-pushpin</styleUrl><Point><coordinates>-122.25083557018638,37.85789200532465,0</coordinates></Point></Placemark>
		<Placemark><name>ASH30</name><styleUrl>#m_ylw-pushpin</styleUrl><Point><coordinates>-122.24963557018638,37.85805110306781,0</coordinates></Point></Placemark>
		<Placemark><name>ASH31</name><styleUrl>#m_ylw-pushpin</styleUrl><Point><coordinates>-122.24843557018639,37.858018473299616,0</coordinates></Point></Placemark>
		<Placemark><name>ASH32</name><styleUrl>#m_ylw-pushpin</styleUrl><Point><coordinates>-122.24723557018639,37.85820132067124,0</coordinates></Point></Placemark>
		<Placemark><name>ASH33</name><styleUrl>#m_ylw-pushpin</styleUrl><Point><coordinates>-122.2460355701864,37.85827504561541,0</coordinates></Point></Placemark>
		<Placemark><name>ASH34</name><styleUrl>#m_ylw-pushpin</styleUrl><Point><coordinates>-122.2448355701864,37.857805734744,0</coordinates></Point></Placemark>
	</Folder>
</Document>
</kml>
