<?xml version="1.0" encoding="UTF-8"?>
<kml xmlns="http://www.opengis.net/kml/2.2" xmlns:gx="http://www.google.com/kml/ext/2.2" xmlns:kml="http://www.opengis.net/kml/2.2" xmlns:atom="http://www.w3.org/2005/Atom">
<Document>
	<name>Shattuck-S-N.kml</name>
	<StyleMap id="m_ylw-pushpin">
		<Pair>
			<key>normal</key>
			<styleUrl>#s_ylw-pushpin</styleUrl>
		</Pair>
		<Pair>
			<key>highlight</key>
			<styleUrl>#s_ylw-pushpin_hl</styleUrl>
		</Pair>
	</StyleMap>
	<Style id="s_ylw-pushpin">
		<IconStyle>
			<scale>1.1</scale>
			<Icon>
				<href>http://maps.google.com/mapfiles/kml/pushpin/ylw-pushpin.png</href>
			</Icon>
			<hotSpot x="20" y="2" xunits="pixels" yunits="pixels"/>
		</IconStyle>
	</Style>
	<Style id="s_ylw-pushpin_hl">
		<IconStyle>
			<scale>1.3</scale>
			<Icon>
				<href>http://maps.google.com/mapfiles/kml/pushpin/ylw-pushpin.png</href>
			</Icon>
			<hotSpot x="20" y="2" xunits="pixels" yunits="pixels"/>
		</IconStyle>
	</Style>
	<Placemark>
		<name>Shattuck-S-N</name>
		<styleUrl>#m_ylw-pushpin</styleUrl>
		<LineString>
			<tessellate>1</tessellate>
			<coordinates>-122.2662397646028,37.8530964877182,0 -122.2664838139538,37.8550370631730,0 -122.2666520513943,37.8563748149285,0 -122.2667252589379,37.8569569298230,0 -122.2669248619521,37.8585440871279,0 -122.2670617068207,37.8595641355852,0 -122.2670693344713,37.8598075066781,0 -122.2670864476800,37.8603535280532,0 -122.2671169448552,37.8606479311743,0 -122.2673392045339,37.8627935050707,0 -122.2679779801877,37.8689598973571,0 -122.2679754139807,37.8693891334188,0 -122.2679562817574,37.8701068442305,0 -122.2682057852421,37.8705218031416,0 -122.2693802027764,37.8807979657053,0 -122.2695671045030,37.8812964387609,0 -122.2704450571135,37.8819137588418,0 -122.2708750136451,37.8824546851404,0 -122.2712972035455,37.8854754824794,0 -122.2716288952295,37.8860771142753,0 -122.2721888271089,37.8866978527870,0 -122.2723098600302,37.8871769690789,0 -122.2724199130695,37.8890256453674,0 -122.2724366784470,37.8894321432578,0</coordinates>
		</LineString>
		<atom:link rel="app" href="https://www.google.com/earth/about/versions/#earth-pro" title="Google Earth Pro 7.3.7.1155"></atom:link>
	</Placemark>
</Document>
</kml>
