<?xml version="1.0" encoding="UTF-8"?>
<kml xmlns="http://www.opengis.net/kml/2.2" xmlns:gx="http://www.google.com/kml/ext/2.2" xmlns:kml="http://www.opengis.net/kml/2.2" xmlns:atom="http://www.w3.org/2005/Atom">
<Document>
	<name>Shattuck-S-N.kml</name>
	<StyleMap id="m_ylw-pushpin">
		<Pair>
			<key>normal</key>
			<styleUrl>#s_ylw-pushpin</styleUrl>
		</Pair>
		<Pair>
			<key>highlight</key>
			<styleUrl>#s_ylw-pushpin_hl</styleUrl>
		</Pair>
	</StyleMap>
	<Style id="s_ylw-pushpin">
		<IconStyle>
			<scale>1.1</scale>
			<Icon>
				<href>http://maps.google.com/mapfiles/kml/pushpin/ylw-pushpin.png</href>
			</Icon>
			<hotSpot x="20" y="2" xunits="pixels" yunits="pixels"/>
		</IconStyle>
	</Style>
	<Style id="s_ylw-pushpin_hl">
		<IconStyle>
			<scale>1.3</scale>
			<Icon>
				<href>http://maps.google.com/mapfiles/kml/pushpin/ylw-pushpin.png</href>
			</Icon>
			<hotSpot x="20" y="2" xunits="pixels" yunits="pixels"/>
		</IconStyle>
	</Style>
	<Placemark>
		<name>Shattuck-S-N</name>
		<styleUrl>#m_ylw-pushpin</styleUrl>
		<LineString>
			<tessellate>1</tessellate>
			<coordinates>
				-122.2662397646028,37.85309648771825,0 -122.2669248619521,37.8585440871279,0 -122.2670617068207,37.85956413558517,0 -122.2670134717953,37.8604491966484,0 -122.2679779801877,37.8689598973571,0 -122.2679754139807,37.86938913341877,0 -122.2679562817574,37.87010684423053,0 -122.2682057852421,37.87052180314162,0 -122.2693802027764,37.88079796570526,0 -122.269567104503,37.88129643876091,0 -122.2704450571135,37.88191375884182,0 -122.2708750136451,37.8824546851404,0 -122.2712972035455,37.88547548247935,0 -122.2716288952295,37.88607711427527,0 -122.2721888271089,37.88669785278703,0 -122.2723098600302,37.8871769690789,0 -122.2724199130695,37.88902564536743,0 -122.272436678447,37.88943214325777,0 
			</coordinates>
		</LineString>
		<atom:link rel="app" href="https://www.google.com/earth/about/versions/#earth-pro" title="Google Earth Pro 7.3.7.1155"></atom:link>
	</Placemark>
</Document>
</kml>
