<?xml version="1.0" encoding="UTF-8"?>
<kml xmlns="http://www.opengis.net/kml/2.2" xmlns:gx="http://www.google.com/kml/ext/2.2">
<Document>
	<name>Telegraph Control Points CANDIDATE</name>
	<description><![CDATA[CANDIDATES ONLY — generated by scripts/gen_tour_control_points.py.
Drag each point onto the true centreline of Telegraph in Google Earth Pro, add points where the
street bends, delete any that are wrong, then save over this file. Order is S->N — the flight follows
this order, so reordering the placemarks reorders the flight.]]></description>
	<Style id="s_ylw-pushpin"><IconStyle><scale>1.1</scale>
		<Icon><href>http://maps.google.com/mapfiles/kml/pushpin/ylw-pushpin.png</href></Icon>
		<hotSpot x="20" y="2" xunits="pixels" yunits="pixels"/></IconStyle></Style>
	<StyleMap id="m_ylw-pushpin">
		<Pair><key>normal</key><styleUrl>#s_ylw-pushpin</styleUrl></Pair>
		<Pair><key>highlight</key><styleUrl>#s_ylw-pushpin</styleUrl></Pair></StyleMap>
	<Folder><name>Telegraph Control Points</name><open>1</open>
	<Placemark>
		<name>Telegraph-CP01</name>
		<description><![CDATA[CANDIDATE control point 1 of 8 · CORRIDOR END ANCHOR (approximate — drag onto the real endpoint) · DRAG ME onto the true street centreline · cruise 20 m]]></description>
		<styleUrl>#m_ylw-pushpin</styleUrl>
		<Point><gx:drawOrder>1</gx:drawOrder>
			<coordinates>-122.2596000000000,37.8478000000000,0</coordinates></Point>
	</Placemark>
	<Placemark>
		<name>Telegraph-CP02</name>
		<description><![CDATA[CANDIDATE control point 2 of 8 · median longitude of 4 housing points in this latitude band · DRAG ME onto the true street centreline · cruise 20 m]]></description>
		<styleUrl>#m_ylw-pushpin</styleUrl>
		<Point><gx:drawOrder>1</gx:drawOrder>
			<coordinates>-122.2577310000000,37.8546057466667,0</coordinates></Point>
	</Placemark>
	<Placemark>
		<name>Telegraph-CP03</name>
		<description><![CDATA[CANDIDATE control point 3 of 8 · median longitude of 2 housing points in this latitude band · DRAG ME onto the true street centreline · cruise 20 m]]></description>
		<styleUrl>#m_ylw-pushpin</styleUrl>
		<Point><gx:drawOrder>1</gx:drawOrder>
			<coordinates>-122.2572500000000,37.8569692400000,0</coordinates></Point>
	</Placemark>
	<Placemark>
		<name>Telegraph-CP04</name>
		<description><![CDATA[CANDIDATE control point 4 of 8 · median longitude of 3 housing points in this latitude band · DRAG ME onto the true street centreline · cruise 20 m]]></description>
		<styleUrl>#m_ylw-pushpin</styleUrl>
		<Point><gx:drawOrder>1</gx:drawOrder>
			<coordinates>-122.2581530000000,37.8593327333333,0</coordinates></Point>
	</Placemark>
	<Placemark>
		<name>Telegraph-CP05</name>
		<description><![CDATA[CANDIDATE control point 5 of 8 · median longitude of 6 housing points in this latitude band · DRAG ME onto the true street centreline · cruise 20 m]]></description>
		<styleUrl>#m_ylw-pushpin</styleUrl>
		<Point><gx:drawOrder>1</gx:drawOrder>
			<coordinates>-122.2591398344985,37.8616962266667,0</coordinates></Point>
	</Placemark>
	<Placemark>
		<name>Telegraph-CP06</name>
		<description><![CDATA[CANDIDATE control point 6 of 8 · median longitude of 4 housing points in this latitude band · DRAG ME onto the true street centreline · cruise 20 m]]></description>
		<styleUrl>#m_ylw-pushpin</styleUrl>
		<Point><gx:drawOrder>1</gx:drawOrder>
			<coordinates>-122.2581059400000,37.8640597200000,0</coordinates></Point>
	</Placemark>
	<Placemark>
		<name>Telegraph-CP07</name>
		<description><![CDATA[CANDIDATE control point 7 of 8 · median longitude of 3 housing points in this latitude band · DRAG ME onto the true street centreline · cruise 20 m]]></description>
		<styleUrl>#m_ylw-pushpin</styleUrl>
		<Point><gx:drawOrder>1</gx:drawOrder>
			<coordinates>-122.2591780000000,37.8664232133333,0</coordinates></Point>
	</Placemark>
	<Placemark>
		<name>Telegraph-CP08</name>
		<description><![CDATA[CANDIDATE control point 8 of 8 · CORRIDOR END ANCHOR (approximate — drag onto the real endpoint) · DRAG ME onto the true street centreline · cruise 20 m]]></description>
		<styleUrl>#m_ylw-pushpin</styleUrl>
		<Point><gx:drawOrder>1</gx:drawOrder>
			<coordinates>-122.2589000000000,37.8686000000000,0</coordinates></Point>
	</Placemark>
	</Folder>
</Document>
</kml>
