<?xml version="1.0" encoding="UTF-8"?>
<kml xmlns="http://www.opengis.net/kml/2.2">
  <Document>
    <name>Berkeley Development Map</name>
    <description><![CDATA[Eric Gellerman-Residential Realtor-- Red Oak Realty (1575 Hopkins, Berkeley)<br>510-501-2516/ Eric@redoakrealty.com<br>DRE #:  02198966<br>]]></description>
    <NetworkLink>
      <name>Berkeley Development Map</name>
      <Link>
        <href><![CDATA[https://www.google.com/maps/d/u/1/kml?forcekml=1&mid=1DAOhWMGII579mvz7sIghdMN-XJWSAOg]]></href>
      </Link>
    </NetworkLink>
  </Document>
</kml>
