<?xml version="1.0" encoding="UTF-8"?>
<kml xmlns="http://www.opengis.net/kml/2.2">
<Document>
  <name>BART joint-development placeholders (best approximation)</name>
  <Style id="bart"><LineStyle><color>ff0066cc</color><width>1.5</width></LineStyle>
    <PolyStyle><color>993399ff</color></PolyStyle></Style>
  <Placemark>
    <name>North Berkeley BART: Bridge 1 (8 st)</name>
    <description>Placeholder estimate — 90 units approx, 8 stories, David Baker Architects. Refine when full plans land.</description>
    <styleUrl>#bart</styleUrl>
    <Polygon><extrude>1</extrude><altitudeMode>relativeToGround</altitudeMode>
      <outerBoundaryIs><LinearRing><coordinates>-122.284246,37.873212,28.0 -122.284239,37.872932,28.0 -122.284516,37.872928,28.0 -122.284548,37.873208,28.0 -122.284246,37.873212,28.0</coordinates></LinearRing></outerBoundaryIs>
    </Polygon>
  </Placemark>
  <Placemark>
    <name>North Berkeley BART: Bridge 2 (8 st)</name>
    <description>Placeholder estimate — 90 units approx, 8 stories, David Baker Architects. Refine when full plans land.</description>
    <styleUrl>#bart</styleUrl>
    <Polygon><extrude>1</extrude><altitudeMode>relativeToGround</altitudeMode>
      <outerBoundaryIs><LinearRing><coordinates>-122.284120,37.873214,28.0 -122.283767,37.873220,28.0 -122.283761,37.872988,28.0 -122.284114,37.872943,28.0 -122.284120,37.873214,28.0</coordinates></LinearRing></outerBoundaryIs>
    </Polygon>
  </Placemark>
  <Placemark>
    <name>North Berkeley BART: Avalon (8 st)</name>
    <description>Placeholder estimate — 120 units approx, 8 stories, David Baker Architects. Refine when full plans land.</description>
    <styleUrl>#bart</styleUrl>
    <Polygon><extrude>1</extrude><altitudeMode>relativeToGround</altitudeMode>
      <outerBoundaryIs><LinearRing><coordinates>-122.283641,37.873222,28.0 -122.283287,37.873227,28.0 -122.283283,37.873048,28.0 -122.283636,37.873004,28.0 -122.283641,37.873222,28.0</coordinates></LinearRing></outerBoundaryIs>
    </Polygon>
  </Placemark>
  <Placemark>
    <name>North Berkeley BART: EBALDC (6 st)</name>
    <description>Placeholder estimate — 70 units approx, 6 stories, David Baker Architects. Refine when full plans land.</description>
    <styleUrl>#bart</styleUrl>
    <Polygon><extrude>1</extrude><altitudeMode>relativeToGround</altitudeMode>
      <outerBoundaryIs><LinearRing><coordinates>-122.284254,37.873563,21.0 -122.284247,37.873283,21.0 -122.284555,37.873278,21.0 -122.284587,37.873558,21.0 -122.284254,37.873563,21.0</coordinates></LinearRing></outerBoundaryIs>
    </Polygon>
  </Placemark>
  <Placemark>
    <name>North Berkeley BART: Insight (6 st)</name>
    <description>Placeholder estimate — 70 units approx, 6 stories, David Baker Architects. Refine when full plans land.</description>
    <styleUrl>#bart</styleUrl>
    <Polygon><extrude>1</extrude><altitudeMode>relativeToGround</altitudeMode>
      <outerBoundaryIs><LinearRing><coordinates>-122.283768,37.873290,21.0 -122.283775,37.873570,21.0 -122.284129,37.873565,21.0 -122.284122,37.873284,21.0 -122.283768,37.873290,21.0</coordinates></LinearRing></outerBoundaryIs>
    </Polygon>
  </Placemark>
  <Placemark>
    <name>North Berkeley BART: Bridge 2 Walk-up A (3 st)</name>
    <description>Placeholder estimate — 15 units approx, 3 stories, David Baker Architects. Refine when full plans land.</description>
    <styleUrl>#bart</styleUrl>
    <Polygon><extrude>1</extrude><altitudeMode>relativeToGround</altitudeMode>
      <outerBoundaryIs><LinearRing><coordinates>-122.283334,37.873331,10.5 -122.283339,37.873542,10.5 -122.283605,37.873538,10.5 -122.283600,37.873327,10.5 -122.283334,37.873331,10.5</coordinates></LinearRing></outerBoundaryIs>
    </Polygon>
  </Placemark>
  <Placemark>
    <name>North Berkeley BART: Bridge 2 Walk-up B (3 st)</name>
    <description>Placeholder estimate — 15 units approx, 3 stories, David Baker Architects. Refine when full plans land.</description>
    <styleUrl>#bart</styleUrl>
    <Polygon><extrude>1</extrude><altitudeMode>relativeToGround</altitudeMode>
      <outerBoundaryIs><LinearRing><coordinates>-122.284301,37.873667,10.5 -122.284306,37.873878,10.5 -122.284571,37.873874,10.5 -122.284566,37.873663,10.5 -122.284301,37.873667,10.5</coordinates></LinearRing></outerBoundaryIs>
    </Polygon>
  </Placemark>
  <Placemark>
    <name>North Berkeley BART: Bridge 2 Walk-up C (3 st)</name>
    <description>Placeholder estimate — 15 units approx, 3 stories, David Baker Architects. Refine when full plans land.</description>
    <styleUrl>#bart</styleUrl>
    <Polygon><extrude>1</extrude><altitudeMode>relativeToGround</altitudeMode>
      <outerBoundaryIs><LinearRing><coordinates>-122.283822,37.873675,10.5 -122.283827,37.873885,10.5 -122.284092,37.873881,10.5 -122.284087,37.873671,10.5 -122.283822,37.873675,10.5</coordinates></LinearRing></outerBoundaryIs>
    </Polygon>
  </Placemark>
  <Placemark>
    <name>North Berkeley BART: Avalon Walk-up A (3 st)</name>
    <description>Placeholder estimate — 12 units approx, 3 stories, David Baker Architects. Refine when full plans land.</description>
    <styleUrl>#bart</styleUrl>
    <Polygon><extrude>1</extrude><altitudeMode>relativeToGround</altitudeMode>
      <outerBoundaryIs><LinearRing><coordinates>-122.283357,37.873693,10.5 -122.283361,37.873881,10.5 -122.283599,37.873877,10.5 -122.283594,37.873689,10.5 -122.283357,37.873693,10.5</coordinates></LinearRing></outerBoundaryIs>
    </Polygon>
  </Placemark>
  <Placemark>
    <name>North Berkeley BART: Avalon Walk-up B (3 st)</name>
    <description>Placeholder estimate — 12 units approx, 3 stories, David Baker Architects. Refine when full plans land.</description>
    <styleUrl>#bart</styleUrl>
    <Polygon><extrude>1</extrude><altitudeMode>relativeToGround</altitudeMode>
      <outerBoundaryIs><LinearRing><coordinates>-122.284323,37.874029,10.5 -122.284328,37.874217,10.5 -122.284566,37.874213,10.5 -122.284561,37.874025,10.5 -122.284323,37.874029,10.5</coordinates></LinearRing></outerBoundaryIs>
    </Polygon>
  </Placemark>
  <Placemark>
    <name>North Berkeley BART: Avalon Walk-up C (3 st)</name>
    <description>Placeholder estimate — 12 units approx, 3 stories, David Baker Architects. Refine when full plans land.</description>
    <styleUrl>#bart</styleUrl>
    <Polygon><extrude>1</extrude><altitudeMode>relativeToGround</altitudeMode>
      <outerBoundaryIs><LinearRing><coordinates>-122.283844,37.874036,10.5 -122.283849,37.874224,10.5 -122.284086,37.874221,10.5 -122.284082,37.874032,10.5 -122.283844,37.874036,10.5</coordinates></LinearRing></outerBoundaryIs>
    </Polygon>
  </Placemark>
  <Placemark>
    <name>North Berkeley BART: Avalon Walk-up D (3 st)</name>
    <description>Placeholder estimate — 12 units approx, 3 stories, David Baker Architects. Refine when full plans land.</description>
    <styleUrl>#bart</styleUrl>
    <Polygon><extrude>1</extrude><altitudeMode>relativeToGround</altitudeMode>
      <outerBoundaryIs><LinearRing><coordinates>-122.283365,37.874043,10.5 -122.283370,37.874232,10.5 -122.283607,37.874228,10.5 -122.283603,37.874040,10.5 -122.283365,37.874043,10.5</coordinates></LinearRing></outerBoundaryIs>
    </Polygon>
  </Placemark>
  <Placemark>
    <name>North Berkeley BART: Avalon Walk-up E (3 st)</name>
    <description>Placeholder estimate — 12 units approx, 3 stories, David Baker Architects. Refine when full plans land.</description>
    <styleUrl>#bart</styleUrl>
    <Polygon><extrude>1</extrude><altitudeMode>relativeToGround</altitudeMode>
      <outerBoundaryIs><LinearRing><coordinates>-122.284332,37.874379,10.5 -122.284569,37.874376,10.5 -122.284573,37.874512,10.5 -122.284336,37.874543,10.5 -122.284332,37.874379,10.5</coordinates></LinearRing></outerBoundaryIs>
    </Polygon>
  </Placemark>
  <Placemark>
    <name>Ashby BART: Adeline Tower (8 st)</name>
    <description>Placeholder estimate — 150 units approx, 8 stories, PYATOK / DIALOG / Yes Community Architects. Refine when full plans land.</description>
    <styleUrl>#bart</styleUrl>
    <Polygon><extrude>1</extrude><altitudeMode>relativeToGround</altitudeMode>
      <outerBoundaryIs><LinearRing><coordinates>-122.270321,37.852517,28.0 -122.270320,37.852482,28.0 -122.270463,37.852107,28.0 -122.270720,37.852103,28.0 -122.270764,37.852510,28.0 -122.270321,37.852517,28.0</coordinates></LinearRing></outerBoundaryIs>
    </Polygon>
  </Placemark>
  <Placemark>
    <name>Ashby BART: Building B (7 st)</name>
    <description>Placeholder estimate — 130 units approx, 7 stories, PYATOK / DIALOG / Yes Community Architects. Refine when full plans land.</description>
    <styleUrl>#bart</styleUrl>
    <Polygon><extrude>1</extrude><altitudeMode>relativeToGround</altitudeMode>
      <outerBoundaryIs><LinearRing><coordinates>-122.269642,37.852120,24.5 -122.269651,37.852526,24.5 -122.270163,37.852518,24.5 -122.270154,37.852112,24.5 -122.269642,37.852120,24.5</coordinates></LinearRing></outerBoundaryIs>
    </Polygon>
  </Placemark>
  <Placemark>
    <name>Ashby BART: MLK Building C (6 st)</name>
    <description>Placeholder estimate — 115 units approx, 6 stories, PYATOK / DIALOG / Yes Community Architects. Refine when full plans land.</description>
    <styleUrl>#bart</styleUrl>
    <Polygon><extrude>1</extrude><altitudeMode>relativeToGround</altitudeMode>
      <outerBoundaryIs><LinearRing><coordinates>-122.270338,37.853360,21.0 -122.270329,37.852947,21.0 -122.270811,37.852940,21.0 -122.270856,37.853352,21.0 -122.270338,37.853360,21.0</coordinates></LinearRing></outerBoundaryIs>
    </Polygon>
  </Placemark>
  <Placemark>
    <name>Ashby BART: MLK Building D (6 st)</name>
    <description>Placeholder estimate — 115 units approx, 6 stories, PYATOK / DIALOG / Yes Community Architects. Refine when full plans land.</description>
    <styleUrl>#bart</styleUrl>
    <Polygon><extrude>1</extrude><altitudeMode>relativeToGround</altitudeMode>
      <outerBoundaryIs><LinearRing><coordinates>-122.270178,37.852950,21.0 -122.270187,37.853362,21.0 -122.269985,37.853365,21.0 -122.270142,37.852950,21.0 -122.270178,37.852950,21.0</coordinates></LinearRing></outerBoundaryIs>
    </Polygon>
  </Placemark>
  <Placemark>
    <name>Ashby BART: MLK Building E (6 st)</name>
    <description>Placeholder estimate — 108 units approx, 6 stories, PYATOK / DIALOG / Yes Community Architects. Refine when full plans land.</description>
    <styleUrl>#bart</styleUrl>
    <Polygon><extrude>1</extrude><altitudeMode>relativeToGround</altitudeMode>
      <outerBoundaryIs><LinearRing><coordinates>-122.270357,37.853794,21.0 -122.270366,37.854194,21.0 -122.270870,37.854186,21.0 -122.270861,37.853786,21.0 -122.270357,37.853794,21.0</coordinates></LinearRing></outerBoundaryIs>
    </Polygon>
  </Placemark>
</Document>
</kml>
