{
"type": "FeatureCollection",
"name": "berkeley_tracts",
"crs": { "type": "name", "properties": { "name": "urn:ogc:def:crs:OGC:1.3:CRS84" } },
"features": [
{ "type": "Feature", "properties": { "GEOID": "06001982100", "ALAND": 1695361, "AWATER": 0, "population": 1104.0, "households": 27.0, "owner_households": 3.0, "renter_households": 24.0, "renter_household_pct": 88.9, "residents_owner_occupied": 5.0, "residents_renter_occupied": 57.0, "median_household_income": 152250.0, "per_capita_income": 8422.0, "hh_income_under_50k": 9.0, "hh_income_50k_100k": 0.0, "hh_income_100k_200k": 5.0, "hh_income_200k_plus": 13.0, "age_under_18": 26.0, "age_18_24": 969.0, "age_25_34": 72.0, "age_35_64": 35.0, "age_65_plus": 2.0, "households_no_vehicle": 9.0, "no_vehicle_pct": 33.3, "vehicles_available_min": 31.0, "median_gross_rent": 3300.0, "median_home_value": null, "rent_burdened_30pct": 58.3, "rent_burdened_50pct": 37.5, "workers": 373.0, "commute_drive_alone_pct": 8.3, "commute_carpool_pct": 0.0, "commute_transit_pct": 16.1, "commute_bicycle_pct": 0.0, "commute_walk_pct": 57.6, "commute_work_from_home_pct": 9.4, "housing_units": 27.0, "vacant_units": 0.0, "units_1_detached_pct": 66.7, "units_1_attached_pct": 0.0, "units_2_4_pct": 0.0, "units_5_19_pct": 0.0, "units_20_plus_pct": 33.3, "built_before_1940_pct": 0.0, "built_2010_or_later_pct": 0.0, "hispanic_pct": 16.7, "white_nh_pct": 38.7, "black_nh_pct": 9.7, "asian_nh_pct": 30.7, "bachelors_or_higher_pct": 93.6, "below_poverty_pct": 35.5, "median_income_owners": null, "median_income_renters": null, "poor_3plus": 22.0, "poor_college": 18.0, "college_students": 23.0, "poor_not_enrolled": 4.0, "not_enrolled": 33.0, "poor_children": 0.0, "children": 6.0, "poor_65plus": 0.0, "age_65plus_pov": 2.0, "median_household_income_moe": 123669.0, "population_moe": 42.0 }, "geometry": { "type": "Polygon", "coordinates": [ [ [ -122.266367, 37.874107 ], [ -122.266329, 37.874188 ], [ -122.264699, 37.87438 ], [ -122.26394, 37.87461 ], [ -122.262133, 37.87486 ], [ -122.255726, 37.875668 ], [ -122.254723, 37.875627 ], [ -122.255317, 37.878399 ], [ -122.255378, 37.878392 ], [ -122.255394, 37.878549 ], [ -122.254917, 37.878633 ], [ -122.255083, 37.880257 ], [ -122.251453, 37.880709 ], [ -122.24727, 37.881068 ], [ -122.247031, 37.881173 ], [ -122.246439, 37.881203 ], [ -122.245156, 37.869737 ], [ -122.245851, 37.869919 ], [ -122.24607, 37.869897 ], [ -122.246483, 37.870304 ], [ -122.246806, 37.870414 ], [ -122.24751, 37.870454 ], [ -122.248483, 37.870089 ], [ -122.248706, 37.870137 ], [ -122.248892, 37.870248 ], [ -122.249217, 37.870317 ], [ -122.249577, 37.870249 ], [ -122.249687, 37.870138 ], [ -122.249734, 37.869396 ], [ -122.249942, 37.869363 ], [ -122.250971, 37.869328 ], [ -122.252335, 37.869186 ], [ -122.252328, 37.869616 ], [ -122.26599, 37.867834 ], [ -122.266037, 37.868165 ], [ -122.266266, 37.868656 ], [ -122.266279, 37.86885 ], [ -122.26586, 37.869692 ], [ -122.266367, 37.874107 ] ] ] } },
{ "type": "Feature", "properties": { "GEOID": "06001422902", "ALAND": 385452, "AWATER": 0, "population": 2214.0, "households": 1271.0, "owner_households": 0.0, "renter_households": 1271.0, "renter_household_pct": 100.0, "residents_owner_occupied": 0.0, "residents_renter_occupied": 2148.0, "median_household_income": 60078.0, "per_capita_income": 39923.0, "hh_income_under_50k": 605.0, "hh_income_50k_100k": 342.0, "hh_income_100k_200k": 266.0, "hh_income_200k_plus": 58.0, "age_under_18": 113.0, "age_18_24": 1090.0, "age_25_34": 466.0, "age_35_64": 501.0, "age_65_plus": 44.0, "households_no_vehicle": 682.0, "no_vehicle_pct": 53.7, "vehicles_available_min": 686.0, "median_gross_rent": 1835.0, "median_home_value": null, "rent_burdened_30pct": 58.3, "rent_burdened_50pct": 44.6, "workers": 1046.0, "commute_drive_alone_pct": 6.7, "commute_carpool_pct": 3.8, "commute_transit_pct": 10.7, "commute_bicycle_pct": 2.6, "commute_walk_pct": 22.1, "commute_work_from_home_pct": 54.1, "housing_units": 1543.0, "vacant_units": 272.0, "units_1_detached_pct": 4.3, "units_1_attached_pct": 0.8, "units_2_4_pct": 2.7, "units_5_19_pct": 12.3, "units_20_plus_pct": 79.9, "built_before_1940_pct": 28.8, "built_2010_or_later_pct": 16.1, "hispanic_pct": 8.4, "white_nh_pct": 29.0, "black_nh_pct": 4.7, "asian_nh_pct": 40.9, "bachelors_or_higher_pct": 56.0, "below_poverty_pct": 42.8, "median_income_owners": null, "median_income_renters": 60078.0, "poor_3plus": 947.0, "poor_college": 695.0, "college_students": 1010.0, "poor_not_enrolled": 217.0, "not_enrolled": 1111.0, "poor_children": 35.0, "children": 113.0, "poor_65plus": 0.0, "age_65plus_pov": 44.0, "median_household_income_moe": 41568.0, "population_moe": 598.0 }, "geometry": { "type": "Polygon", "coordinates": [ [ [ -122.273067, 37.871512 ], [ -122.266159, 37.872389 ], [ -122.26586, 37.869692 ], [ -122.265921, 37.869512 ], [ -122.266227, 37.868998 ], [ -122.266285, 37.86873 ], [ -122.266037, 37.868165 ], [ -122.26599, 37.867834 ], [ -122.270328, 37.867259 ], [ -122.270112, 37.865579 ], [ -122.270051, 37.86548 ], [ -122.269873, 37.863735 ], [ -122.269834, 37.863665 ], [ -122.272161, 37.863352 ], [ -122.273067, 37.871512 ] ] ] } },
{ "type": "Feature", "properties": { "GEOID": "06001422901", "ALAND": 158830, "AWATER": 0, "population": 1768.0, "households": 855.0, "owner_households": 9.0, "renter_households": 846.0, "renter_household_pct": 98.9, "residents_owner_occupied": 9.0, "residents_renter_occupied": 1727.0, "median_household_income": 35917.0, "per_capita_income": 30490.0, "hh_income_under_50k": 507.0, "hh_income_50k_100k": 155.0, "hh_income_100k_200k": 135.0, "hh_income_200k_plus": 58.0, "age_under_18": 35.0, "age_18_24": 1092.0, "age_25_34": 282.0, "age_35_64": 213.0, "age_65_plus": 146.0, "households_no_vehicle": 465.0, "no_vehicle_pct": 54.4, "vehicles_available_min": 473.0, "median_gross_rent": 1923.0, "median_home_value": null, "rent_burdened_30pct": 60.9, "rent_burdened_50pct": 41.2, "workers": 966.0, "commute_drive_alone_pct": 22.2, "commute_carpool_pct": 0.0, "commute_transit_pct": 13.7, "commute_bicycle_pct": 4.1, "commute_walk_pct": 31.4, "commute_work_from_home_pct": 28.7, "housing_units": 1300.0, "vacant_units": 445.0, "units_1_detached_pct": 0.0, "units_1_attached_pct": 0.0, "units_2_4_pct": 9.2, "units_5_19_pct": 9.5, "units_20_plus_pct": 80.6, "built_before_1940_pct": 9.5, "built_2010_or_later_pct": 27.0, "hispanic_pct": 9.8, "white_nh_pct": 37.3, "black_nh_pct": 5.2, "asian_nh_pct": 42.5, "bachelors_or_higher_pct": 83.6, "below_poverty_pct": 50.3, "median_income_owners": null, "median_income_renters": 35167.0, "poor_3plus": 874.0, "poor_college": 769.0, "college_students": 1004.0, "poor_not_enrolled": 105.0, "not_enrolled": 697.0, "poor_children": 0.0, "children": 35.0, "poor_65plus": 59.0, "age_65plus_pov": 146.0, "median_household_income_moe": 22158.0, "population_moe": 552.0 }, "geometry": { "type": "Polygon", "coordinates": [ [ [ -122.270328, 37.867259 ], [ -122.26599, 37.867834 ], [ -122.265879, 37.867063 ], [ -122.265277, 37.864265 ], [ -122.269834, 37.863665 ], [ -122.269873, 37.863735 ], [ -122.270051, 37.86548 ], [ -122.270112, 37.865579 ], [ -122.270328, 37.867259 ] ] ] } },
{ "type": "Feature", "properties": { "GEOID": "06001421100", "ALAND": 745511, "AWATER": 0, "population": 2214.0, "households": 876.0, "owner_households": 799.0, "renter_households": 77.0, "renter_household_pct": 8.8, "residents_owner_occupied": 2008.0, "residents_renter_occupied": 206.0, "median_household_income": 250001.0, "per_capita_income": 130191.0, "hh_income_under_50k": 87.0, "hh_income_50k_100k": 64.0, "hh_income_100k_200k": 153.0, "hh_income_200k_plus": 572.0, "age_under_18": 346.0, "age_18_24": 138.0, "age_25_34": 123.0, "age_35_64": 929.0, "age_65_plus": 678.0, "households_no_vehicle": 19.0, "no_vehicle_pct": 2.2, "vehicles_available_min": 1701.0, "median_gross_rent": 3300.0, "median_home_value": 1725700.0, "rent_burdened_30pct": 0.0, "rent_burdened_50pct": 0.0, "workers": 1064.0, "commute_drive_alone_pct": 39.1, "commute_carpool_pct": 6.4, "commute_transit_pct": 5.6, "commute_bicycle_pct": 1.2, "commute_walk_pct": 0.2, "commute_work_from_home_pct": 46.9, "housing_units": 886.0, "vacant_units": 10.0, "units_1_detached_pct": 99.4, "units_1_attached_pct": 0.5, "units_2_4_pct": 0.1, "units_5_19_pct": 0.0, "units_20_plus_pct": 0.0, "built_before_1940_pct": 52.0, "built_2010_or_later_pct": 2.3, "hispanic_pct": 6.5, "white_nh_pct": 69.5, "black_nh_pct": 4.7, "asian_nh_pct": 9.4, "bachelors_or_higher_pct": 89.4, "below_poverty_pct": 2.9, "median_income_owners": 250001.0, "median_income_renters": 177604.0, "poor_3plus": 65.0, "poor_college": 21.0, "college_students": 131.0, "poor_not_enrolled": 44.0, "not_enrolled": 1724.0, "poor_children": 0.0, "children": 346.0, "poor_65plus": 5.0, "age_65plus_pov": 678.0, "median_household_income_moe": null, "population_moe": 253.0 }, "geometry": { "type": "Polygon", "coordinates": [ [ [ -122.271186, 37.899696 ], [ -122.270199, 37.900572 ], [ -122.269575, 37.901304 ], [ -122.26959, 37.901434 ], [ -122.26968, 37.901525 ], [ -122.2699, 37.901581 ], [ -122.270177, 37.901533 ], [ -122.270291, 37.90156 ], [ -122.27051, 37.901634 ], [ -122.27068, 37.901802 ], [ -122.2705, 37.904081 ], [ -122.270269, 37.904345 ], [ -122.26986, 37.904428 ], [ -122.269194, 37.904182 ], [ -122.268172, 37.903973 ], [ -122.267244, 37.904448 ], [ -122.266388, 37.904434 ], [ -122.265538, 37.904316 ], [ -122.265095, 37.904133 ], [ -122.264878, 37.903915 ], [ -122.2647, 37.90381 ], [ -122.264492, 37.903764 ], [ -122.264027, 37.903775 ], [ -122.263946, 37.903734 ], [ -122.262741, 37.902325 ], [ -122.262367, 37.901696 ], [ -122.262115, 37.901568 ], [ -122.26142, 37.90146 ], [ -122.26129, 37.901392 ], [ -122.261243, 37.901288 ], [ -122.261117, 37.89998 ], [ -122.260952, 37.899772 ], [ -122.260703, 37.899639 ], [ -122.261959, 37.898485 ], [ -122.260784, 37.897553 ], [ -122.26347, 37.895804 ], [ -122.264432, 37.895242 ], [ -122.267737, 37.893131 ], [ -122.268032, 37.893367 ], [ -122.268544, 37.8941 ], [ -122.268583, 37.894245 ], [ -122.268527, 37.894745 ], [ -122.26856, 37.894853 ], [ -122.269187, 37.895299 ], [ -122.269364, 37.895521 ], [ -122.269387, 37.895751 ], [ -122.269241, 37.896272 ], [ -122.269239, 37.896511 ], [ -122.269333, 37.896778 ], [ -122.269878, 37.897529 ], [ -122.270025, 37.898386 ], [ -122.271186, 37.899696 ] ] ] } },
{ "type": "Feature", "properties": { "GEOID": "06001421400", "ALAND": 474778, "AWATER": 0, "population": 1739.0, "households": 650.0, "owner_households": 549.0, "renter_households": 101.0, "renter_household_pct": 15.5, "residents_owner_occupied": 1528.0, "residents_renter_occupied": 211.0, "median_household_income": 226250.0, "per_capita_income": 98819.0, "hh_income_under_50k": 96.0, "hh_income_50k_100k": 77.0, "hh_income_100k_200k": 108.0, "hh_income_200k_plus": 369.0, "age_under_18": 257.0, "age_18_24": 106.0, "age_25_34": 196.0, "age_35_64": 629.0, "age_65_plus": 551.0, "households_no_vehicle": 23.0, "no_vehicle_pct": 3.5, "vehicles_available_min": 1250.0, "median_gross_rent": 2553.0, "median_home_value": 1662300.0, "rent_burdened_30pct": 59.8, "rent_burdened_50pct": 54.9, "workers": 910.0, "commute_drive_alone_pct": 35.4, "commute_carpool_pct": 6.3, "commute_transit_pct": 8.8, "commute_bicycle_pct": 4.1, "commute_walk_pct": 4.4, "commute_work_from_home_pct": 41.1, "housing_units": 704.0, "vacant_units": 54.0, "units_1_detached_pct": 78.4, "units_1_attached_pct": 7.4, "units_2_4_pct": 7.7, "units_5_19_pct": 6.5, "units_20_plus_pct": 0.0, "built_before_1940_pct": 73.4, "built_2010_or_later_pct": 1.6, "hispanic_pct": 11.9, "white_nh_pct": 66.2, "black_nh_pct": 3.9, "asian_nh_pct": 6.3, "bachelors_or_higher_pct": 84.6, "below_poverty_pct": 4.0, "median_income_owners": 250001.0, "median_income_renters": null, "poor_3plus": 69.0, "poor_college": 0.0, "college_students": 76.0, "poor_not_enrolled": 69.0, "not_enrolled": 1446.0, "poor_children": 0.0, "children": 245.0, "poor_65plus": 0.0, "age_65plus_pov": 551.0, "median_household_income_moe": 59369.0, "population_moe": 252.0 }, "geometry": { "type": "Polygon", "coordinates": [ [ [ -122.276586, 37.888821 ], [ -122.276526, 37.888857 ], [ -122.275586, 37.888865 ], [ -122.275197, 37.889094 ], [ -122.273008, 37.889746 ], [ -122.272633, 37.889901 ], [ -122.272507, 37.889997 ], [ -122.272586, 37.890126 ], [ -122.272511, 37.890245 ], [ -122.272247, 37.890225 ], [ -122.270158, 37.89156 ], [ -122.26924, 37.89209 ], [ -122.268868, 37.89239 ], [ -122.267737, 37.893131 ], [ -122.267084, 37.892744 ], [ -122.266941, 37.892459 ], [ -122.267007, 37.892072 ], [ -122.267161, 37.891794 ], [ -122.26721, 37.891602 ], [ -122.267246, 37.890888 ], [ -122.267113, 37.890126 ], [ -122.26672, 37.88895 ], [ -122.266715, 37.888744 ], [ -122.266838, 37.888193 ], [ -122.266846, 37.887923 ], [ -122.266609, 37.886035 ], [ -122.272275, 37.885309 ], [ -122.272438, 37.885472 ], [ -122.272876, 37.885655 ], [ -122.274543, 37.884895 ], [ -122.275531, 37.885904 ], [ -122.276019, 37.886668 ], [ -122.276362, 37.887648 ], [ -122.276586, 37.888821 ] ] ] } },
{ "type": "Feature", "properties": { "GEOID": "06001421700", "ALAND": 573819, "AWATER": 0, "population": 3346.0, "households": 1659.0, "owner_households": 502.0, "renter_households": 1157.0, "renter_household_pct": 69.7, "residents_owner_occupied": 1273.0, "residents_renter_occupied": 2022.0, "median_household_income": 115139.0, "per_capita_income": 76991.0, "hh_income_under_50k": 479.0, "hh_income_50k_100k": 319.0, "hh_income_100k_200k": 384.0, "hh_income_200k_plus": 477.0, "age_under_18": 368.0, "age_18_24": 406.0, "age_25_34": 726.0, "age_35_64": 983.0, "age_65_plus": 863.0, "households_no_vehicle": 227.0, "no_vehicle_pct": 13.7, "vehicles_available_min": 1984.0, "median_gross_rent": 2196.0, "median_home_value": 1527300.0, "rent_burdened_30pct": 38.8, "rent_burdened_50pct": 29.3, "workers": 1757.0, "commute_drive_alone_pct": 19.3, "commute_carpool_pct": 0.5, "commute_transit_pct": 11.1, "commute_bicycle_pct": 8.5, "commute_walk_pct": 16.1, "commute_work_from_home_pct": 43.5, "housing_units": 1878.0, "vacant_units": 219.0, "units_1_detached_pct": 23.5, "units_1_attached_pct": 6.3, "units_2_4_pct": 24.7, "units_5_19_pct": 32.5, "units_20_plus_pct": 13.0, "built_before_1940_pct": 50.9, "built_2010_or_later_pct": 1.1, "hispanic_pct": 5.9, "white_nh_pct": 65.0, "black_nh_pct": 4.4, "asian_nh_pct": 21.2, "bachelors_or_higher_pct": 82.5, "below_poverty_pct": 13.9, "median_income_owners": 173214.0, "median_income_renters": 90739.0, "poor_3plus": 461.0, "poor_college": 226.0, "college_students": 559.0, "poor_not_enrolled": 235.0, "not_enrolled": 2404.0, "poor_children": 0.0, "children": 348.0, "poor_65plus": 124.0, "age_65plus_pov": 863.0, "median_household_income_moe": 31170.0, "population_moe": 466.0 }, "geometry": { "type": "Polygon", "coordinates": [ [ [ -122.274543, 37.884895 ], [ -122.272876, 37.885655 ], [ -122.272438, 37.885472 ], [ -122.272275, 37.885309 ], [ -122.266609, 37.886035 ], [ -122.265752, 37.878806 ], [ -122.273746, 37.877788 ], [ -122.274456, 37.883986 ], [ -122.274455, 37.884734 ], [ -122.274543, 37.884895 ] ] ] } },
{ "type": "Feature", "properties": { "GEOID": "06001421800", "ALAND": 528482, "AWATER": 0, "population": 2173.0, "households": 926.0, "owner_households": 622.0, "renter_households": 304.0, "renter_household_pct": 32.8, "residents_owner_occupied": 1531.0, "residents_renter_occupied": 636.0, "median_household_income": 183467.0, "per_capita_income": 102851.0, "hh_income_under_50k": 104.0, "hh_income_50k_100k": 118.0, "hh_income_100k_200k": 355.0, "hh_income_200k_plus": 349.0, "age_under_18": 370.0, "age_18_24": 45.0, "age_25_34": 338.0, "age_35_64": 907.0, "age_65_plus": 513.0, "households_no_vehicle": 47.0, "no_vehicle_pct": 5.1, "vehicles_available_min": 1479.0, "median_gross_rent": 2875.0, "median_home_value": 1522000.0, "rent_burdened_30pct": 30.5, "rent_burdened_50pct": 7.9, "workers": 1093.0, "commute_drive_alone_pct": 31.9, "commute_carpool_pct": 0.0, "commute_transit_pct": 13.4, "commute_bicycle_pct": 5.9, "commute_walk_pct": 8.1, "commute_work_from_home_pct": 40.3, "housing_units": 997.0, "vacant_units": 71.0, "units_1_detached_pct": 64.3, "units_1_attached_pct": 8.2, "units_2_4_pct": 19.4, "units_5_19_pct": 8.1, "units_20_plus_pct": 0.0, "built_before_1940_pct": 75.8, "built_2010_or_later_pct": 0.7, "hispanic_pct": 5.9, "white_nh_pct": 68.1, "black_nh_pct": 0.9, "asian_nh_pct": 11.7, "bachelors_or_higher_pct": 86.5, "below_poverty_pct": 3.4, "median_income_owners": 183833.0, "median_income_renters": 178281.0, "poor_3plus": 74.0, "poor_college": 17.0, "college_students": 152.0, "poor_not_enrolled": 57.0, "not_enrolled": 1651.0, "poor_children": 0.0, "children": 361.0, "poor_65plus": 40.0, "age_65plus_pov": 513.0, "median_household_income_moe": 6587.0, "population_moe": 236.0 }, "geometry": { "type": "Polygon", "coordinates": [ [ [ -122.283273, 37.880926 ], [ -122.281976, 37.881606 ], [ -122.276705, 37.884169 ], [ -122.275673, 37.884755 ], [ -122.274963, 37.885341 ], [ -122.274543, 37.884895 ], [ -122.274455, 37.884734 ], [ -122.274456, 37.883986 ], [ -122.273746, 37.877788 ], [ -122.282793, 37.87666 ], [ -122.282997, 37.878629 ], [ -122.283073, 37.878841 ], [ -122.28319, 37.879871 ], [ -122.283273, 37.880926 ] ] ] } },
{ "type": "Feature", "properties": { "GEOID": "06001421900", "ALAND": 845060, "AWATER": 0, "population": 4110.0, "households": 1667.0, "owner_households": 1093.0, "renter_households": 574.0, "renter_household_pct": 34.4, "residents_owner_occupied": 2995.0, "residents_renter_occupied": 1105.0, "median_household_income": 154219.0, "per_capita_income": 93660.0, "hh_income_under_50k": 323.0, "hh_income_50k_100k": 209.0, "hh_income_100k_200k": 385.0, "hh_income_200k_plus": 750.0, "age_under_18": 992.0, "age_18_24": 148.0, "age_25_34": 504.0, "age_35_64": 1726.0, "age_65_plus": 740.0, "households_no_vehicle": 183.0, "no_vehicle_pct": 11.0, "vehicles_available_min": 2361.0, "median_gross_rent": 2487.0, "median_home_value": 1338300.0, "rent_burdened_30pct": 42.8, "rent_burdened_50pct": 21.4, "workers": 2143.0, "commute_drive_alone_pct": 23.4, "commute_carpool_pct": 4.9, "commute_transit_pct": 16.7, "commute_bicycle_pct": 7.6, "commute_walk_pct": 5.4, "commute_work_from_home_pct": 42.0, "housing_units": 1786.0, "vacant_units": 119.0, "units_1_detached_pct": 68.4, "units_1_attached_pct": 5.9, "units_2_4_pct": 18.1, "units_5_19_pct": 1.8, "units_20_plus_pct": 5.2, "built_before_1940_pct": 49.8, "built_2010_or_later_pct": 1.3, "hispanic_pct": 5.7, "white_nh_pct": 60.7, "black_nh_pct": 7.6, "asian_nh_pct": 16.3, "bachelors_or_higher_pct": 82.4, "below_poverty_pct": 5.7, "median_income_owners": 223906.0, "median_income_renters": 113984.0, "poor_3plus": 233.0, "poor_college": 1.0, "college_students": 186.0, "poor_not_enrolled": 210.0, "not_enrolled": 2947.0, "poor_children": 22.0, "children": 975.0, "poor_65plus": 86.0, "age_65plus_pov": 740.0, "median_household_income_moe": 70028.0, "population_moe": 494.0 }, "geometry": { "type": "Polygon", "coordinates": [ [ [ -122.296882, 37.883471 ], [ -122.296709, 37.883516 ], [ -122.296528, 37.88342 ], [ -122.296238, 37.883474 ], [ -122.296107, 37.88306 ], [ -122.295954, 37.882944 ], [ -122.295148, 37.882838 ], [ -122.294857, 37.882714 ], [ -122.294553, 37.882662 ], [ -122.294446, 37.882578 ], [ -122.294243, 37.882669 ], [ -122.294017, 37.882924 ], [ -122.293722, 37.883072 ], [ -122.293279, 37.882929 ], [ -122.293074, 37.883057 ], [ -122.292739, 37.882871 ], [ -122.292529, 37.88293 ], [ -122.292321, 37.882896 ], [ -122.292202, 37.882945 ], [ -122.292147, 37.883069 ], [ -122.292044, 37.883123 ], [ -122.291834, 37.883058 ], [ -122.291734, 37.883098 ], [ -122.291602, 37.883263 ], [ -122.29151, 37.883251 ], [ -122.291369, 37.883051 ], [ -122.291089, 37.883091 ], [ -122.29095, 37.883176 ], [ -122.290777, 37.883144 ], [ -122.290535, 37.883196 ], [ -122.290371, 37.883046 ], [ -122.289856, 37.882936 ], [ -122.28946, 37.883143 ], [ -122.287141, 37.882509 ], [ -122.286092, 37.882326 ], [ -122.286033, 37.88248 ], [ -122.284872, 37.882471 ], [ -122.284743, 37.88243 ], [ -122.284761, 37.88237 ], [ -122.284576, 37.882365 ], [ -122.284074, 37.882449 ], [ -122.283554, 37.882344 ], [ -122.28343, 37.88244 ], [ -122.283124, 37.882513 ], [ -122.28296, 37.882419 ], [ -122.282918, 37.882511 ], [ -122.28279, 37.882502 ], [ -122.282868, 37.882312 ], [ -122.283139, 37.882063 ], [ -122.283057, 37.881977 ], [ -122.283059, 37.881777 ], [ -122.282983, 37.881598 ], [ -122.282678, 37.881249 ], [ -122.283273, 37.880926 ], [ -122.28319, 37.879871 ], [ -122.283073, 37.878841 ], [ -122.282997, 37.878629 ], [ -122.282793, 37.87666 ], [ -122.287945, 37.876052 ], [ -122.288817, 37.875872 ], [ -122.292356, 37.87542 ], [ -122.293168, 37.875275 ], [ -122.294223, 37.875168 ], [ -122.296882, 37.883471 ] ] ] } },
{ "type": "Feature", "properties": { "GEOID": "06001423700", "ALAND": 728688, "AWATER": 0, "population": 3381.0, "households": 1152.0, "owner_households": 500.0, "renter_households": 652.0, "renter_household_pct": 56.6, "residents_owner_occupied": 1561.0, "residents_renter_occupied": 1276.0, "median_household_income": 95833.0, "per_capita_income": 72496.0, "hh_income_under_50k": 403.0, "hh_income_50k_100k": 195.0, "hh_income_100k_200k": 177.0, "hh_income_200k_plus": 377.0, "age_under_18": 501.0, "age_18_24": 1125.0, "age_25_34": 417.0, "age_35_64": 905.0, "age_65_plus": 433.0, "households_no_vehicle": 334.0, "no_vehicle_pct": 29.0, "vehicles_available_min": 1460.0, "median_gross_rent": 2132.0, "median_home_value": 2000001.0, "rent_burdened_30pct": 66.4, "rent_burdened_50pct": 37.5, "workers": 1595.0, "commute_drive_alone_pct": 31.0, "commute_carpool_pct": 1.1, "commute_transit_pct": 15.4, "commute_bicycle_pct": 1.3, "commute_walk_pct": 16.9, "commute_work_from_home_pct": 31.5, "housing_units": 1420.0, "vacant_units": 268.0, "units_1_detached_pct": 40.6, "units_1_attached_pct": 1.3, "units_2_4_pct": 9.8, "units_5_19_pct": 30.5, "units_20_plus_pct": 17.8, "built_before_1940_pct": 66.4, "built_2010_or_later_pct": 0.0, "hispanic_pct": 12.9, "white_nh_pct": 57.1, "black_nh_pct": 3.5, "asian_nh_pct": 19.6, "bachelors_or_higher_pct": 80.6, "below_poverty_pct": 22.9, "median_income_owners": 250001.0, "median_income_renters": 39787.0, "poor_3plus": 653.0, "poor_college": 488.0, "college_students": 814.0, "poor_not_enrolled": 165.0, "not_enrolled": 1586.0, "poor_children": 0.0, "children": 451.0, "poor_65plus": 58.0, "age_65plus_pov": 433.0, "median_household_income_moe": 21992.0, "population_moe": 586.0 }, "geometry": { "type": "Polygon", "coordinates": [ [ [ -122.253954, 37.865737 ], [ -122.246962, 37.866159 ], [ -122.246127, 37.866111 ], [ -122.245975, 37.866036 ], [ -122.245338, 37.865986 ], [ -122.245191, 37.865797 ], [ -122.244733, 37.865788 ], [ -122.244622, 37.864721 ], [ -122.244873, 37.864705 ], [ -122.245104, 37.864386 ], [ -122.245525, 37.864036 ], [ -122.245024, 37.863355 ], [ -122.244949, 37.863058 ], [ -122.244765, 37.862855 ], [ -122.244409, 37.862711 ], [ -122.244342, 37.862074 ], [ -122.244415, 37.862074 ], [ -122.244473, 37.861871 ], [ -122.244148, 37.861508 ], [ -122.244274, 37.861427 ], [ -122.244252, 37.860969 ], [ -122.244015, 37.860735 ], [ -122.244172, 37.860607 ], [ -122.244283, 37.860412 ], [ -122.244441, 37.859334 ], [ -122.244505, 37.859129 ], [ -122.244627, 37.859008 ], [ -122.244018, 37.859002 ], [ -122.243945, 37.85892 ], [ -122.243925, 37.858639 ], [ -122.242602, 37.85872 ], [ -122.242521, 37.857934 ], [ -122.242718, 37.857933 ], [ -122.242551, 37.857713 ], [ -122.242347, 37.85761 ], [ -122.242748, 37.857723 ], [ -122.243281, 37.857988 ], [ -122.243876, 37.858118 ], [ -122.244298, 37.858141 ], [ -122.250525, 37.857779 ], [ -122.25118, 37.857662 ], [ -122.25212, 37.85765 ], [ -122.252262, 37.85759 ], [ -122.252308, 37.857466 ], [ -122.25228, 37.857365 ], [ -122.252156, 37.857249 ], [ -122.252615, 37.857121 ], [ -122.253099, 37.857088 ], [ -122.253954, 37.865737 ] ] ] } },
{ "type": "Feature", "properties": { "GEOID": "06001423800", "ALAND": 1084721, "AWATER": 0, "population": 3397.0, "households": 1431.0, "owner_households": 1024.0, "renter_households": 407.0, "renter_household_pct": 28.4, "residents_owner_occupied": 2600.0, "residents_renter_occupied": 797.0, "median_household_income": 184871.0, "per_capita_income": 115761.0, "hh_income_under_50k": 171.0, "hh_income_50k_100k": 155.0, "hh_income_100k_200k": 471.0, "hh_income_200k_plus": 634.0, "age_under_18": 580.0, "age_18_24": 142.0, "age_25_34": 312.0, "age_35_64": 1411.0, "age_65_plus": 952.0, "households_no_vehicle": 112.0, "no_vehicle_pct": 7.8, "vehicles_available_min": 2055.0, "median_gross_rent": 2795.0, "median_home_value": 2000001.0, "rent_burdened_30pct": 25.9, "rent_burdened_50pct": 19.2, "workers": 1434.0, "commute_drive_alone_pct": 25.7, "commute_carpool_pct": 2.6, "commute_transit_pct": 13.5, "commute_bicycle_pct": 2.2, "commute_walk_pct": 3.1, "commute_work_from_home_pct": 42.1, "housing_units": 1497.0, "vacant_units": 66.0, "units_1_detached_pct": 75.2, "units_1_attached_pct": 0.3, "units_2_4_pct": 12.2, "units_5_19_pct": 11.5, "units_20_plus_pct": 0.9, "built_before_1940_pct": 72.4, "built_2010_or_later_pct": 0.9, "hispanic_pct": 5.8, "white_nh_pct": 70.4, "black_nh_pct": 0.0, "asian_nh_pct": 12.1, "bachelors_or_higher_pct": 86.9, "below_poverty_pct": 8.1, "median_income_owners": 231579.0, "median_income_renters": 134890.0, "poor_3plus": 276.0, "poor_college": 30.0, "college_students": 153.0, "poor_not_enrolled": 192.0, "not_enrolled": 2676.0, "poor_children": 54.0, "children": 580.0, "poor_65plus": 43.0, "age_65plus_pov": 952.0, "median_household_income_moe": 22832.0, "population_moe": 344.0 }, "geometry": { "type": "Polygon", "coordinates": [ [ [ -122.253346, 37.85383 ], [ -122.252834, 37.853901 ], [ -122.253131, 37.857005 ], [ -122.253099, 37.857088 ], [ -122.252615, 37.857121 ], [ -122.252156, 37.857249 ], [ -122.25228, 37.857365 ], [ -122.252308, 37.857466 ], [ -122.252262, 37.85759 ], [ -122.25212, 37.85765 ], [ -122.25118, 37.857662 ], [ -122.250525, 37.857779 ], [ -122.244108, 37.858139 ], [ -122.243281, 37.857988 ], [ -122.242748, 37.857723 ], [ -122.242071, 37.857525 ], [ -122.241802, 37.857348 ], [ -122.24149, 37.857374 ], [ -122.241731, 37.857267 ], [ -122.241614, 37.857066 ], [ -122.241154, 37.857262 ], [ -122.241215, 37.857401 ], [ -122.240793, 37.857432 ], [ -122.240543, 37.857541 ], [ -122.240379, 37.857286 ], [ -122.239742, 37.85756 ], [ -122.239683, 37.857503 ], [ -122.239423, 37.857509 ], [ -122.239106, 37.857723 ], [ -122.23891, 37.857548 ], [ -122.238666, 37.857552 ], [ -122.238192, 37.857687 ], [ -122.238118, 37.857547 ], [ -122.236831, 37.857658 ], [ -122.236826, 37.857604 ], [ -122.236719, 37.857571 ], [ -122.236741, 37.85765 ], [ -122.234761, 37.85779 ], [ -122.234179, 37.852377 ], [ -122.244781, 37.851733 ], [ -122.244836, 37.851842 ], [ -122.244931, 37.851899 ], [ -122.245034, 37.851716 ], [ -122.246122, 37.851665 ], [ -122.246109, 37.851603 ], [ -122.247253, 37.851576 ], [ -122.24738, 37.851648 ], [ -122.247501, 37.851571 ], [ -122.249473, 37.851448 ], [ -122.249981, 37.851294 ], [ -122.250037, 37.851416 ], [ -122.250681, 37.851385 ], [ -122.250883, 37.851118 ], [ -122.251083, 37.85123 ], [ -122.252333, 37.850834 ], [ -122.252919, 37.850772 ], [ -122.253197, 37.853063 ], [ -122.25331, 37.853466 ], [ -122.253241, 37.853475 ], [ -122.253265, 37.853695 ], [ -122.253318, 37.853688 ], [ -122.253346, 37.85383 ] ] ] } },
{ "type": "Feature", "properties": { "GEOID": "06001423901", "ALAND": 394493, "AWATER": 0, "population": 2227.0, "households": 969.0, "owner_households": 377.0, "renter_households": 592.0, "renter_household_pct": 61.1, "residents_owner_occupied": 900.0, "residents_renter_occupied": 1309.0, "median_household_income": 136607.0, "per_capita_income": 71674.0, "hh_income_under_50k": 179.0, "hh_income_50k_100k": 268.0, "hh_income_100k_200k": 214.0, "hh_income_200k_plus": 308.0, "age_under_18": 373.0, "age_18_24": 217.0, "age_25_34": 529.0, "age_35_64": 721.0, "age_65_plus": 387.0, "households_no_vehicle": 149.0, "no_vehicle_pct": 15.4, "vehicles_available_min": 1334.0, "median_gross_rent": 2529.0, "median_home_value": 1170000.0, "rent_burdened_30pct": 34.2, "rent_burdened_50pct": 18.8, "workers": 1230.0, "commute_drive_alone_pct": 33.9, "commute_carpool_pct": 11.6, "commute_transit_pct": 14.2, "commute_bicycle_pct": 9.0, "commute_walk_pct": 2.7, "commute_work_from_home_pct": 27.0, "housing_units": 987.0, "vacant_units": 18.0, "units_1_detached_pct": 36.5, "units_1_attached_pct": 3.7, "units_2_4_pct": 39.7, "units_5_19_pct": 20.1, "units_20_plus_pct": 0.0, "built_before_1940_pct": 62.5, "built_2010_or_later_pct": 1.1, "hispanic_pct": 16.8, "white_nh_pct": 47.3, "black_nh_pct": 9.7, "asian_nh_pct": 14.2, "bachelors_or_higher_pct": 75.4, "below_poverty_pct": 9.0, "median_income_owners": 211597.0, "median_income_renters": 75938.0, "poor_3plus": 200.0, "poor_college": 97.0, "college_students": 320.0, "poor_not_enrolled": 103.0, "not_enrolled": 1542.0, "poor_children": 0.0, "children": 364.0, "poor_65plus": 46.0, "age_65plus_pov": 387.0, "median_household_income_moe": 54726.0, "population_moe": 298.0 }, "geometry": { "type": "Polygon", "coordinates": [ [ [ -122.271852, 37.847251 ], [ -122.271648, 37.848433 ], [ -122.270814, 37.850667 ], [ -122.270802, 37.850958 ], [ -122.271161, 37.854268 ], [ -122.26922, 37.854605 ], [ -122.268604, 37.854986 ], [ -122.268356, 37.855064 ], [ -122.262407, 37.855865 ], [ -122.262469, 37.85564 ], [ -122.261829, 37.85258 ], [ -122.262221, 37.852527 ], [ -122.26225, 37.852696 ], [ -122.263569, 37.852547 ], [ -122.263644, 37.852422 ], [ -122.263608, 37.852296 ], [ -122.263924, 37.852167 ], [ -122.263951, 37.852296 ], [ -122.267778, 37.851796 ], [ -122.267952, 37.851822 ], [ -122.268965, 37.851616 ], [ -122.268374, 37.848768 ], [ -122.269507, 37.848582 ], [ -122.269144, 37.84674 ], [ -122.271236, 37.846465 ], [ -122.271313, 37.846641 ], [ -122.271764, 37.847041 ], [ -122.271852, 37.847251 ] ] ] } },
{ "type": "Feature", "properties": { "GEOID": "06001424001", "ALAND": 507530, "AWATER": 0, "population": 4000.0, "households": 1535.0, "owner_households": 452.0, "renter_households": 1083.0, "renter_household_pct": 70.6, "residents_owner_occupied": 1333.0, "residents_renter_occupied": 2573.0, "median_household_income": 82125.0, "per_capita_income": 52878.0, "hh_income_under_50k": 476.0, "hh_income_50k_100k": 398.0, "hh_income_100k_200k": 276.0, "hh_income_200k_plus": 385.0, "age_under_18": 685.0, "age_18_24": 578.0, "age_25_34": 941.0, "age_35_64": 1379.0, "age_65_plus": 417.0, "households_no_vehicle": 302.0, "no_vehicle_pct": 19.7, "vehicles_available_min": 2060.0, "median_gross_rent": 2029.0, "median_home_value": 1197500.0, "rent_burdened_30pct": 58.1, "rent_burdened_50pct": 37.2, "workers": 2147.0, "commute_drive_alone_pct": 30.6, "commute_carpool_pct": 4.3, "commute_transit_pct": 23.0, "commute_bicycle_pct": 7.5, "commute_walk_pct": 4.8, "commute_work_from_home_pct": 29.4, "housing_units": 1687.0, "vacant_units": 152.0, "units_1_detached_pct": 27.4, "units_1_attached_pct": 2.9, "units_2_4_pct": 43.6, "units_5_19_pct": 23.1, "units_20_plus_pct": 3.1, "built_before_1940_pct": 47.7, "built_2010_or_later_pct": 6.2, "hispanic_pct": 15.8, "white_nh_pct": 41.7, "black_nh_pct": 16.1, "asian_nh_pct": 21.4, "bachelors_or_higher_pct": 64.8, "below_poverty_pct": 14.9, "median_income_owners": 131771.0, "median_income_renters": 67917.0, "poor_3plus": 581.0, "poor_college": 172.0, "college_students": 555.0, "poor_not_enrolled": 365.0, "not_enrolled": 2657.0, "poor_children": 55.0, "children": 671.0, "poor_65plus": 73.0, "age_65plus_pov": 417.0, "median_household_income_moe": 19755.0, "population_moe": 515.0 }, "geometry": { "type": "Polygon", "coordinates": [ [ [ -122.279121, 37.853287 ], [ -122.271161, 37.854268 ], [ -122.270802, 37.850958 ], [ -122.270814, 37.850667 ], [ -122.271648, 37.848433 ], [ -122.271857, 37.847235 ], [ -122.271661, 37.846923 ], [ -122.271313, 37.846641 ], [ -122.271236, 37.846465 ], [ -122.2758, 37.845867 ], [ -122.276188, 37.847734 ], [ -122.277766, 37.847525 ], [ -122.279121, 37.853287 ] ] ] } },
{ "type": "Feature", "properties": { "GEOID": "06001422500", "ALAND": 465527, "AWATER": 0, "population": 4481.0, "households": 1694.0, "owner_households": 254.0, "renter_households": 1440.0, "renter_household_pct": 85.0, "residents_owner_occupied": 480.0, "residents_renter_occupied": 2453.0, "median_household_income": 53041.0, "per_capita_income": 37868.0, "hh_income_under_50k": 819.0, "hh_income_50k_100k": 277.0, "hh_income_100k_200k": 378.0, "hh_income_200k_plus": 220.0, "age_under_18": 157.0, "age_18_24": 2102.0, "age_25_34": 683.0, "age_35_64": 1216.0, "age_65_plus": 323.0, "households_no_vehicle": 461.0, "no_vehicle_pct": 27.2, "vehicles_available_min": 1697.0, "median_gross_rent": 1875.0, "median_home_value": 1201800.0, "rent_burdened_30pct": 68.1, "rent_burdened_50pct": 40.1, "workers": 2396.0, "commute_drive_alone_pct": 17.8, "commute_carpool_pct": 1.4, "commute_transit_pct": 10.9, "commute_bicycle_pct": 1.9, "commute_walk_pct": 38.2, "commute_work_from_home_pct": 26.7, "housing_units": 1962.0, "vacant_units": 268.0, "units_1_detached_pct": 12.4, "units_1_attached_pct": 4.3, "units_2_4_pct": 16.3, "units_5_19_pct": 32.3, "units_20_plus_pct": 34.7, "built_before_1940_pct": 50.2, "built_2010_or_later_pct": 0.7, "hispanic_pct": 14.4, "white_nh_pct": 43.4, "black_nh_pct": 6.4, "asian_nh_pct": 27.9, "bachelors_or_higher_pct": 65.9, "below_poverty_pct": 26.2, "median_income_owners": 131944.0, "median_income_renters": 44360.0, "poor_3plus": 800.0, "poor_college": 649.0, "college_students": 1153.0, "poor_not_enrolled": 151.0, "not_enrolled": 1777.0, "poor_children": 0.0, "children": 121.0, "poor_65plus": 26.0, "age_65plus_pov": 323.0, "median_household_income_moe": 19840.0, "population_moe": 574.0 }, "geometry": { "type": "Polygon", "coordinates": [ [ [ -122.265752, 37.878806 ], [ -122.258442, 37.879779 ], [ -122.257735, 37.879833 ], [ -122.257568, 37.879803 ], [ -122.25766, 37.879938 ], [ -122.257857, 37.880079 ], [ -122.258002, 37.880344 ], [ -122.258176, 37.880449 ], [ -122.258205, 37.880573 ], [ -122.257768, 37.880453 ], [ -122.257292, 37.880562 ], [ -122.257106, 37.880537 ], [ -122.256643, 37.879959 ], [ -122.25629, 37.880069 ], [ -122.255083, 37.880257 ], [ -122.254917, 37.878633 ], [ -122.255394, 37.878549 ], [ -122.255378, 37.878392 ], [ -122.255317, 37.878399 ], [ -122.254723, 37.875627 ], [ -122.255726, 37.875668 ], [ -122.263595, 37.874662 ], [ -122.264061, 37.874582 ], [ -122.264652, 37.874389 ], [ -122.265383, 37.874297 ], [ -122.265574, 37.875608 ], [ -122.265427, 37.876305 ], [ -122.265447, 37.876515 ], [ -122.26565, 37.876971 ], [ -122.265752, 37.878806 ] ] ] } },
{ "type": "Feature", "properties": { "GEOID": "06001422700", "ALAND": 346821, "AWATER": 0, "population": 5154.0, "households": 1002.0, "owner_households": 130.0, "renter_households": 872.0, "renter_household_pct": 87.0, "residents_owner_occupied": 290.0, "residents_renter_occupied": 2485.0, "median_household_income": null, "per_capita_income": 22270.0, "hh_income_under_50k": 564.0, "hh_income_50k_100k": 135.0, "hh_income_100k_200k": 203.0, "hh_income_200k_plus": 100.0, "age_under_18": 98.0, "age_18_24": 3853.0, "age_25_34": 691.0, "age_35_64": 342.0, "age_65_plus": 170.0, "households_no_vehicle": 458.0, "no_vehicle_pct": 45.7, "vehicles_available_min": 1000.0, "median_gross_rent": 1925.0, "median_home_value": 1202700.0, "rent_burdened_30pct": 75.9, "rent_burdened_50pct": 64.5, "workers": 2054.0, "commute_drive_alone_pct": 17.8, "commute_carpool_pct": 5.0, "commute_transit_pct": 7.7, "commute_bicycle_pct": 1.8, "commute_walk_pct": 41.2, "commute_work_from_home_pct": 18.6, "housing_units": 1181.0, "vacant_units": 179.0, "units_1_detached_pct": 15.9, "units_1_attached_pct": 3.7, "units_2_4_pct": 1.7, "units_5_19_pct": 30.3, "units_20_plus_pct": 48.3, "built_before_1940_pct": 31.4, "built_2010_or_later_pct": 0.7, "hispanic_pct": 16.4, "white_nh_pct": 33.9, "black_nh_pct": 3.3, "asian_nh_pct": 36.1, "bachelors_or_higher_pct": 83.9, "below_poverty_pct": 59.2, "median_income_owners": 250001.0, "median_income_renters": null, "poor_3plus": 1706.0, "poor_college": 1463.0, "college_students": 2085.0, "poor_not_enrolled": 243.0, "not_enrolled": 695.0, "poor_children": 11.0, "children": 93.0, "poor_65plus": 55.0, "age_65plus_pov": 170.0, "median_household_income_moe": null, "population_moe": 464.0 }, "geometry": { "type": "Polygon", "coordinates": [ [ [ -122.254588, 37.869321 ], [ -122.252328, 37.869616 ], [ -122.252335, 37.869186 ], [ -122.250971, 37.869328 ], [ -122.249942, 37.869363 ], [ -122.249734, 37.869396 ], [ -122.249708, 37.870096 ], [ -122.249577, 37.870249 ], [ -122.249217, 37.870317 ], [ -122.248892, 37.870248 ], [ -122.248706, 37.870137 ], [ -122.248483, 37.870089 ], [ -122.24751, 37.870454 ], [ -122.246806, 37.870414 ], [ -122.246483, 37.870304 ], [ -122.24607, 37.869897 ], [ -122.245851, 37.869919 ], [ -122.245156, 37.869737 ], [ -122.244928, 37.867684 ], [ -122.244603, 37.8674 ], [ -122.244814, 37.867051 ], [ -122.245063, 37.86687 ], [ -122.244779, 37.866706 ], [ -122.244845, 37.866594 ], [ -122.244877, 37.866276 ], [ -122.245534, 37.866237 ], [ -122.245338, 37.865986 ], [ -122.245975, 37.866036 ], [ -122.246127, 37.866111 ], [ -122.246962, 37.866159 ], [ -122.253954, 37.865737 ], [ -122.254223, 37.866931 ], [ -122.254588, 37.869321 ] ] ] } },
{ "type": "Feature", "properties": { "GEOID": "06001423000", "ALAND": 730083, "AWATER": 0, "population": 4478.0, "households": 2023.0, "owner_households": 842.0, "renter_households": 1181.0, "renter_household_pct": 58.4, "residents_owner_occupied": 1996.0, "residents_renter_occupied": 2390.0, "median_household_income": 110536.0, "per_capita_income": 79756.0, "hh_income_under_50k": 513.0, "hh_income_50k_100k": 431.0, "hh_income_100k_200k": 411.0, "hh_income_200k_plus": 668.0, "age_under_18": 462.0, "age_18_24": 641.0, "age_25_34": 760.0, "age_35_64": 1875.0, "age_65_plus": 740.0, "households_no_vehicle": 261.0, "no_vehicle_pct": 12.9, "vehicles_available_min": 2539.0, "median_gross_rent": 2258.0, "median_home_value": 1353400.0, "rent_burdened_30pct": 54.2, "rent_burdened_50pct": 35.7, "workers": 2658.0, "commute_drive_alone_pct": 13.0, "commute_carpool_pct": 2.3, "commute_transit_pct": 9.0, "commute_bicycle_pct": 2.8, "commute_walk_pct": 13.3, "commute_work_from_home_pct": 59.6, "housing_units": 2222.0, "vacant_units": 199.0, "units_1_detached_pct": 40.1, "units_1_attached_pct": 1.4, "units_2_4_pct": 21.3, "units_5_19_pct": 27.2, "units_20_plus_pct": 9.2, "built_before_1940_pct": 51.7, "built_2010_or_later_pct": 11.1, "hispanic_pct": 7.9, "white_nh_pct": 62.7, "black_nh_pct": 5.2, "asian_nh_pct": 18.0, "bachelors_or_higher_pct": 81.2, "below_poverty_pct": 14.3, "median_income_owners": 181974.0, "median_income_renters": 60380.0, "poor_3plus": 637.0, "poor_college": 406.0, "college_students": 766.0, "poor_not_enrolled": 231.0, "not_enrolled": 3214.0, "poor_children": 0.0, "children": 462.0, "poor_65plus": 84.0, "age_65plus_pov": 740.0, "median_household_income_moe": 37119.0, "population_moe": 824.0 }, "geometry": { "type": "Polygon", "coordinates": [ [ [ -122.28204, 37.870353 ], [ -122.273067, 37.871512 ], [ -122.272161, 37.863352 ], [ -122.281226, 37.862205 ], [ -122.281714, 37.866615 ], [ -122.28204, 37.870353 ] ] ] } },
{ "type": "Feature", "properties": { "GEOID": "06001423100", "ALAND": 748653, "AWATER": 0, "population": 4286.0, "households": 2066.0, "owner_households": 824.0, "renter_households": 1242.0, "renter_household_pct": 60.1, "residents_owner_occupied": 1750.0, "residents_renter_occupied": 2393.0, "median_household_income": 54787.0, "per_capita_income": 58210.0, "hh_income_under_50k": 851.0, "hh_income_50k_100k": 481.0, "hh_income_100k_200k": 376.0, "hh_income_200k_plus": 358.0, "age_under_18": 667.0, "age_18_24": 448.0, "age_25_34": 459.0, "age_35_64": 1679.0, "age_65_plus": 1033.0, "households_no_vehicle": 578.0, "no_vehicle_pct": 28.0, "vehicles_available_min": 2093.0, "median_gross_rent": 2174.0, "median_home_value": 1159900.0, "rent_burdened_30pct": 75.6, "rent_burdened_50pct": 55.6, "workers": 1892.0, "commute_drive_alone_pct": 26.3, "commute_carpool_pct": 2.9, "commute_transit_pct": 15.2, "commute_bicycle_pct": 4.9, "commute_walk_pct": 15.4, "commute_work_from_home_pct": 30.9, "housing_units": 2223.0, "vacant_units": 157.0, "units_1_detached_pct": 38.2, "units_1_attached_pct": 6.2, "units_2_4_pct": 24.4, "units_5_19_pct": 11.2, "units_20_plus_pct": 19.5, "built_before_1940_pct": 41.6, "built_2010_or_later_pct": 4.6, "hispanic_pct": 9.2, "white_nh_pct": 40.6, "black_nh_pct": 20.6, "asian_nh_pct": 17.4, "bachelors_or_higher_pct": 57.0, "below_poverty_pct": 20.9, "median_income_owners": 135667.0, "median_income_renters": 34684.0, "poor_3plus": 823.0, "poor_college": 120.0, "college_students": 273.0, "poor_not_enrolled": 638.0, "not_enrolled": 3284.0, "poor_children": 110.0, "children": 667.0, "poor_65plus": 169.0, "age_65plus_pov": 1015.0, "median_household_income_moe": 14265.0, "population_moe": 569.0 }, "geometry": { "type": "Polygon", "coordinates": [ [ [ -122.292226, 37.869042 ], [ -122.28204, 37.870353 ], [ -122.281714, 37.866615 ], [ -122.281226, 37.862205 ], [ -122.289651, 37.861104 ], [ -122.292226, 37.869042 ] ] ] } },
{ "type": "Feature", "properties": { "GEOID": "06001424002", "ALAND": 326768, "AWATER": 0, "population": 2524.0, "households": 1050.0, "owner_households": 553.0, "renter_households": 497.0, "renter_household_pct": 47.3, "residents_owner_occupied": 1468.0, "residents_renter_occupied": 1036.0, "median_household_income": 105813.0, "per_capita_income": 59799.0, "hh_income_under_50k": 232.0, "hh_income_50k_100k": 269.0, "hh_income_100k_200k": 367.0, "hh_income_200k_plus": 182.0, "age_under_18": 578.0, "age_18_24": 122.0, "age_25_34": 424.0, "age_35_64": 1075.0, "age_65_plus": 325.0, "households_no_vehicle": 190.0, "no_vehicle_pct": 18.1, "vehicles_available_min": 1252.0, "median_gross_rent": 1754.0, "median_home_value": 1233500.0, "rent_burdened_30pct": 47.1, "rent_burdened_50pct": 16.3, "workers": 1334.0, "commute_drive_alone_pct": 45.4, "commute_carpool_pct": 1.6, "commute_transit_pct": 14.4, "commute_bicycle_pct": 1.4, "commute_walk_pct": 3.9, "commute_work_from_home_pct": 31.3, "housing_units": 1157.0, "vacant_units": 107.0, "units_1_detached_pct": 47.9, "units_1_attached_pct": 5.4, "units_2_4_pct": 24.5, "units_5_19_pct": 1.2, "units_20_plus_pct": 21.0, "built_before_1940_pct": 43.4, "built_2010_or_later_pct": 17.3, "hispanic_pct": 18.0, "white_nh_pct": 41.3, "black_nh_pct": 23.1, "asian_nh_pct": 10.9, "bachelors_or_higher_pct": 56.5, "below_poverty_pct": 6.1, "median_income_owners": 146318.0, "median_income_renters": 61556.0, "poor_3plus": 152.0, "poor_college": 3.0, "college_students": 105.0, "poor_not_enrolled": 149.0, "not_enrolled": 1810.0, "poor_children": 0.0, "children": 565.0, "poor_65plus": 47.0, "age_65plus_pov": 325.0, "median_household_income_moe": 43691.0, "population_moe": 319.0 }, "geometry": { "type": "Polygon", "coordinates": [ [ [ -122.286794, 37.852178 ], [ -122.286654, 37.852166 ], [ -122.281433, 37.85319 ], [ -122.279121, 37.853287 ], [ -122.277766, 37.847525 ], [ -122.281899, 37.846975 ], [ -122.282052, 37.847751 ], [ -122.281863, 37.847776 ], [ -122.28199, 37.848348 ], [ -122.282178, 37.848307 ], [ -122.282463, 37.849118 ], [ -122.282964, 37.849008 ], [ -122.283089, 37.849372 ], [ -122.283197, 37.849347 ], [ -122.283571, 37.850642 ], [ -122.284352, 37.85049 ], [ -122.284331, 37.850424 ], [ -122.2845, 37.850391 ], [ -122.28452, 37.850458 ], [ -122.286006, 37.850173 ], [ -122.286122, 37.850527 ], [ -122.286247, 37.850505 ], [ -122.286794, 37.852178 ] ] ] } },
{ "type": "Feature", "properties": { "GEOID": "06001423300", "ALAND": 726625, "AWATER": 0, "population": 3623.0, "households": 1476.0, "owner_households": 829.0, "renter_households": 647.0, "renter_household_pct": 43.8, "residents_owner_occupied": 2010.0, "residents_renter_occupied": 1613.0, "median_household_income": 101571.0, "per_capita_income": 62484.0, "hh_income_under_50k": 457.0, "hh_income_50k_100k": 259.0, "hh_income_100k_200k": 290.0, "hh_income_200k_plus": 470.0, "age_under_18": 650.0, "age_18_24": 215.0, "age_25_34": 573.0, "age_35_64": 1569.0, "age_65_plus": 616.0, "households_no_vehicle": 253.0, "no_vehicle_pct": 17.1, "vehicles_available_min": 1887.0, "median_gross_rent": 2137.0, "median_home_value": 1101900.0, "rent_burdened_30pct": 52.5, "rent_burdened_50pct": 33.4, "workers": 1923.0, "commute_drive_alone_pct": 33.2, "commute_carpool_pct": 3.1, "commute_transit_pct": 9.6, "commute_bicycle_pct": 11.2, "commute_walk_pct": 4.7, "commute_work_from_home_pct": 35.7, "housing_units": 1730.0, "vacant_units": 254.0, "units_1_detached_pct": 56.5, "units_1_attached_pct": 6.9, "units_2_4_pct": 26.3, "units_5_19_pct": 8.5, "units_20_plus_pct": 1.8, "built_before_1940_pct": 49.7, "built_2010_or_later_pct": 5.4, "hispanic_pct": 14.4, "white_nh_pct": 46.7, "black_nh_pct": 19.7, "asian_nh_pct": 7.4, "bachelors_or_higher_pct": 54.4, "below_poverty_pct": 17.0, "median_income_owners": 174408.0, "median_income_renters": 61991.0, "poor_3plus": 603.0, "poor_college": 100.0, "college_students": 282.0, "poor_not_enrolled": 314.0, "not_enrolled": 2708.0, "poor_children": 203.0, "children": 650.0, "poor_65plus": 104.0, "age_65plus_pov": 616.0, "median_household_income_moe": 19636.0, "population_moe": 584.0 }, "geometry": { "type": "Polygon", "coordinates": [ [ [ -122.289651, 37.861104 ], [ -122.281226, 37.862205 ], [ -122.281089, 37.861753 ], [ -122.28082, 37.861227 ], [ -122.280699, 37.860856 ], [ -122.279121, 37.853287 ], [ -122.281433, 37.85319 ], [ -122.286654, 37.852166 ], [ -122.286794, 37.852178 ], [ -122.288612, 37.857978 ], [ -122.289651, 37.861104 ] ] ] } },
{ "type": "Feature", "properties": { "GEOID": "06001423400", "ALAND": 755441, "AWATER": 0, "population": 5218.0, "households": 1974.0, "owner_households": 965.0, "renter_households": 1009.0, "renter_household_pct": 51.1, "residents_owner_occupied": 2716.0, "residents_renter_occupied": 2466.0, "median_household_income": 145789.0, "per_capita_income": 74470.0, "hh_income_under_50k": 449.0, "hh_income_50k_100k": 416.0, "hh_income_100k_200k": 349.0, "hh_income_200k_plus": 760.0, "age_under_18": 925.0, "age_18_24": 313.0, "age_25_34": 1384.0, "age_35_64": 1922.0, "age_65_plus": 674.0, "households_no_vehicle": 331.0, "no_vehicle_pct": 16.8, "vehicles_available_min": 2890.0, "median_gross_rent": 2311.0, "median_home_value": 1362400.0, "rent_burdened_30pct": 52.4, "rent_burdened_50pct": 24.4, "workers": 2906.0, "commute_drive_alone_pct": 39.6, "commute_carpool_pct": 0.0, "commute_transit_pct": 15.7, "commute_bicycle_pct": 10.0, "commute_walk_pct": 3.5, "commute_work_from_home_pct": 30.8, "housing_units": 2352.0, "vacant_units": 378.0, "units_1_detached_pct": 40.0, "units_1_attached_pct": 2.0, "units_2_4_pct": 25.8, "units_5_19_pct": 26.1, "units_20_plus_pct": 6.0, "built_before_1940_pct": 36.8, "built_2010_or_later_pct": 3.3, "hispanic_pct": 20.3, "white_nh_pct": 43.4, "black_nh_pct": 19.5, "asian_nh_pct": 10.6, "bachelors_or_higher_pct": 64.7, "below_poverty_pct": 17.8, "median_income_owners": 204978.0, "median_income_renters": 94067.0, "poor_3plus": 927.0, "poor_college": 79.0, "college_students": 236.0, "poor_not_enrolled": 583.0, "not_enrolled": 4145.0, "poor_children": 265.0, "children": 925.0, "poor_65plus": 102.0, "age_65plus_pov": 674.0, "median_household_income_moe": 70878.0, "population_moe": 807.0 }, "geometry": { "type": "Polygon", "coordinates": [ [ [ -122.281226, 37.862205 ], [ -122.272161, 37.863352 ], [ -122.271161, 37.854268 ], [ -122.279121, 37.853287 ], [ -122.280699, 37.860856 ], [ -122.28082, 37.861227 ], [ -122.281089, 37.861753 ], [ -122.281226, 37.862205 ] ] ] } },
{ "type": "Feature", "properties": { "GEOID": "06001423500", "ALAND": 635744, "AWATER": 0, "population": 3768.0, "households": 1587.0, "owner_households": 488.0, "renter_households": 1099.0, "renter_household_pct": 69.3, "residents_owner_occupied": 1264.0, "residents_renter_occupied": 2332.0, "median_household_income": 103702.0, "per_capita_income": 66770.0, "hh_income_under_50k": 435.0, "hh_income_50k_100k": 330.0, "hh_income_100k_200k": 423.0, "hh_income_200k_plus": 399.0, "age_under_18": 514.0, "age_18_24": 499.0, "age_25_34": 985.0, "age_35_64": 1110.0, "age_65_plus": 660.0, "households_no_vehicle": 346.0, "no_vehicle_pct": 21.8, "vehicles_available_min": 1807.0, "median_gross_rent": 2075.0, "median_home_value": 1162700.0, "rent_burdened_30pct": 54.9, "rent_burdened_50pct": 22.6, "workers": 2097.0, "commute_drive_alone_pct": 29.5, "commute_carpool_pct": 9.3, "commute_transit_pct": 11.9, "commute_bicycle_pct": 9.4, "commute_walk_pct": 7.6, "commute_work_from_home_pct": 27.4, "housing_units": 1694.0, "vacant_units": 107.0, "units_1_detached_pct": 29.4, "units_1_attached_pct": 3.8, "units_2_4_pct": 25.9, "units_5_19_pct": 23.4, "units_20_plus_pct": 17.6, "built_before_1940_pct": 44.6, "built_2010_or_later_pct": 14.7, "hispanic_pct": 16.7, "white_nh_pct": 55.9, "black_nh_pct": 8.3, "asian_nh_pct": 10.3, "bachelors_or_higher_pct": 71.1, "below_poverty_pct": 11.1, "median_income_owners": 218750.0, "median_income_renters": 77625.0, "poor_3plus": 403.0, "poor_college": 213.0, "college_students": 498.0, "poor_not_enrolled": 190.0, "not_enrolled": 2644.0, "poor_children": 0.0, "children": 514.0, "poor_65plus": 61.0, "age_65plus_pov": 556.0, "median_household_income_moe": 22429.0, "population_moe": 514.0 }, "geometry": { "type": "Polygon", "coordinates": [ [ [ -122.272161, 37.863352 ], [ -122.265277, 37.864265 ], [ -122.263515, 37.855732 ], [ -122.268356, 37.855064 ], [ -122.268604, 37.854986 ], [ -122.26922, 37.854605 ], [ -122.271161, 37.854268 ], [ -122.272161, 37.863352 ] ] ] } },
{ "type": "Feature", "properties": { "GEOID": "06001423602", "ALAND": 404545, "AWATER": 0, "population": 5621.0, "households": 2255.0, "owner_households": 664.0, "renter_households": 1591.0, "renter_household_pct": 70.6, "residents_owner_occupied": 1866.0, "residents_renter_occupied": 3629.0, "median_household_income": 53952.0, "per_capita_income": 39294.0, "hh_income_under_50k": 1070.0, "hh_income_50k_100k": 573.0, "hh_income_100k_200k": 378.0, "hh_income_200k_plus": 234.0, "age_under_18": 345.0, "age_18_24": 2614.0, "age_25_34": 985.0, "age_35_64": 893.0, "age_65_plus": 784.0, "households_no_vehicle": 908.0, "no_vehicle_pct": 40.3, "vehicles_available_min": 1971.0, "median_gross_rent": 2021.0, "median_home_value": 909500.0, "rent_burdened_30pct": 68.0, "rent_burdened_50pct": 49.0, "workers": 2584.0, "commute_drive_alone_pct": 23.1, "commute_carpool_pct": 1.6, "commute_transit_pct": 15.2, "commute_bicycle_pct": 0.9, "commute_walk_pct": 24.7, "commute_work_from_home_pct": 33.0, "housing_units": 2709.0, "vacant_units": 454.0, "units_1_detached_pct": 13.8, "units_1_attached_pct": 2.7, "units_2_4_pct": 18.3, "units_5_19_pct": 28.3, "units_20_plus_pct": 36.9, "built_before_1940_pct": 36.5, "built_2010_or_later_pct": 1.7, "hispanic_pct": 14.4, "white_nh_pct": 45.8, "black_nh_pct": 3.4, "asian_nh_pct": 28.6, "bachelors_or_higher_pct": 62.9, "below_poverty_pct": 41.8, "median_income_owners": 74137.0, "median_income_renters": 40696.0, "poor_3plus": 2257.0, "poor_college": 1915.0, "college_students": 2704.0, "poor_not_enrolled": 297.0, "not_enrolled": 2448.0, "poor_children": 83.0, "children": 345.0, "poor_65plus": 72.0, "age_65plus_pov": 784.0, "median_household_income_moe": 19702.0, "population_moe": 1270.0 }, "geometry": { "type": "Polygon", "coordinates": [ [ [ -122.265277, 37.864265 ], [ -122.253954, 37.865737 ], [ -122.253552, 37.861823 ], [ -122.257483, 37.861577 ], [ -122.258892, 37.861438 ], [ -122.264519, 37.860682 ], [ -122.265277, 37.864265 ] ] ] } },
{ "type": "Feature", "properties": { "GEOID": "06001990000", "ALAND": 0, "AWATER": 137191025, "population": 0.0, "households": 0.0, "owner_households": 0.0, "renter_households": 0.0, "renter_household_pct": null, "residents_owner_occupied": 0.0, "residents_renter_occupied": 0.0, "median_household_income": null, "per_capita_income": null, "hh_income_under_50k": 0.0, "hh_income_50k_100k": 0.0, "hh_income_100k_200k": 0.0, "hh_income_200k_plus": 0.0, "age_under_18": 0.0, "age_18_24": 0.0, "age_25_34": 0.0, "age_35_64": 0.0, "age_65_plus": 0.0, "households_no_vehicle": 0.0, "no_vehicle_pct": null, "vehicles_available_min": 0.0, "median_gross_rent": null, "median_home_value": null, "rent_burdened_30pct": null, "rent_burdened_50pct": null, "workers": 0.0, "commute_drive_alone_pct": null, "commute_carpool_pct": null, "commute_transit_pct": null, "commute_bicycle_pct": null, "commute_walk_pct": null, "commute_work_from_home_pct": null, "housing_units": 0.0, "vacant_units": 0.0, "units_1_detached_pct": null, "units_1_attached_pct": null, "units_2_4_pct": null, "units_5_19_pct": null, "units_20_plus_pct": null, "built_before_1940_pct": null, "built_2010_or_later_pct": null, "hispanic_pct": null, "white_nh_pct": null, "black_nh_pct": null, "asian_nh_pct": null, "bachelors_or_higher_pct": null, "below_poverty_pct": null, "median_income_owners": null, "median_income_renters": null, "poor_3plus": 0.0, "poor_college": 0.0, "college_students": 0.0, "poor_not_enrolled": 0.0, "not_enrolled": 0.0, "poor_children": 0.0, "children": 0.0, "poor_65plus": 0.0, "age_65plus_pov": 0.0, "median_household_income_moe": null, "population_moe": 14.0 }, "geometry": { "type": "MultiPolygon", "coordinates": [ [ [ [ -122.098588, 37.494884 ], [ -122.091073, 37.495033 ], [ -122.078016, 37.495107 ], [ -122.072849, 37.494512 ], [ -122.065898, 37.492946 ], [ -122.061484, 37.491605 ], [ -122.061578, 37.486685 ], [ -122.060749, 37.474931 ], [ -122.059886, 37.469467 ], [ -122.055941, 37.463951 ], [ -122.048707, 37.461639 ], [ -122.045707, 37.461806 ], [ -122.044587, 37.460666 ], [ -122.046574, 37.459526 ], [ -122.047825, 37.459007 ], [ -122.04897, 37.4589 ], [ -122.050313, 37.4589 ], [ -122.051244, 37.459007 ], [ -122.051931, 37.459251 ], [ -122.052648, 37.459656 ], [ -122.081473, 37.477838 ], [ -122.103995, 37.493706 ], [ -122.098588, 37.494884 ] ] ], [ [ [ -122.321342, 37.770881 ], [ -122.306751, 37.766772 ], [ -122.291808, 37.763008 ], [ -122.282265, 37.760179 ], [ -122.266906, 37.755304 ], [ -122.259468, 37.752594 ], [ -122.269116, 37.737983 ], [ -122.264426, 37.732948 ], [ -122.256542, 37.721242 ], [ -122.216153, 37.695543 ], [ -122.213327, 37.695394 ], [ -122.209088, 37.696138 ], [ -122.207391, 37.699194 ], [ -122.206012, 37.702032 ], [ -122.205473, 37.702619 ], [ -122.200476, 37.692592 ], [ -122.192282, 37.682735 ], [ -122.191549, 37.683335 ], [ -122.18058, 37.670657 ], [ -122.175288, 37.670742 ], [ -122.176785, 37.669396 ], [ -122.170687, 37.670811 ], [ -122.170627, 37.667403 ], [ -122.167289, 37.66745 ], [ -122.167076, 37.667231 ], [ -122.163861, 37.655367 ], [ -122.161132, 37.646795 ], [ -122.16019, 37.641055 ], [ -122.158496, 37.632931 ], [ -122.157553, 37.621601 ], [ -122.162477, 37.614758 ], [ -122.155859, 37.611537 ], [ -122.152417, 37.599099 ], [ -122.155013, 37.591114 ], [ -122.153507, 37.582169 ], [ -122.140998, 37.562193 ], [ -122.135769, 37.558852 ], [ -122.128578, 37.548105 ], [ -122.122092, 37.536105 ], [ -122.120401, 37.532824 ], [ -122.118521, 37.526413 ], [ -122.117298, 37.513667 ], [ -122.117393, 37.506894 ], [ -122.149175, 37.545835 ], [ -122.156075, 37.554635 ], [ -122.167276, 37.568735 ], [ -122.186676, 37.592734 ], [ -122.246679, 37.665731 ], [ -122.251979, 37.672431 ], [ -122.28088, 37.70723 ], [ -122.28178, 37.70823 ], [ -122.29188, 37.72413 ], [ -122.29448, 37.72803 ], [ -122.31048, 37.753829 ], [ -122.321342, 37.770881 ] ] ], [ [ [ -122.373782, 37.883725 ], [ -122.358981, 37.887225 ], [ -122.348581, 37.889425 ], [ -122.333398, 37.892794 ], [ -122.334735, 37.889576 ], [ -122.325893, 37.874367 ], [ -122.329231, 37.871257 ], [ -122.331368, 37.866408 ], [ -122.332636, 37.862666 ], [ -122.33237, 37.859293 ], [ -122.331234, 37.857185 ], [ -122.326161, 37.854549 ], [ -122.322356, 37.853601 ], [ -122.31401, 37.853601 ], [ -122.310806, 37.854022 ], [ -122.309592, 37.845543 ], [ -122.320093, 37.843278 ], [ -122.320248, 37.838493 ], [ -122.318746, 37.835417 ], [ -122.312273, 37.832201 ], [ -122.317478, 37.832307 ], [ -122.341039, 37.826457 ], [ -122.34093, 37.81953 ], [ -122.346681, 37.811027 ], [ -122.346881, 37.811427 ], [ -122.355881, 37.835727 ], [ -122.367781, 37.866726 ], [ -122.373782, 37.883725 ] ] ] ] } },
{ "type": "Feature", "properties": { "GEOID": "06001422000", "ALAND": 4504645, "AWATER": 5864364, "population": 2470.0, "households": 1295.0, "owner_households": 293.0, "renter_households": 1002.0, "renter_household_pct": 77.4, "residents_owner_occupied": 609.0, "residents_renter_occupied": 1736.0, "median_household_income": 116779.0, "per_capita_income": 79877.0, "hh_income_under_50k": 294.0, "hh_income_50k_100k": 271.0, "hh_income_100k_200k": 439.0, "hh_income_200k_plus": 291.0, "age_under_18": 282.0, "age_18_24": 101.0, "age_25_34": 695.0, "age_35_64": 890.0, "age_65_plus": 502.0, "households_no_vehicle": 145.0, "no_vehicle_pct": 11.2, "vehicles_available_min": 1546.0, "median_gross_rent": 3186.0, "median_home_value": 973000.0, "rent_burdened_30pct": 58.0, "rent_burdened_50pct": 30.4, "workers": 1588.0, "commute_drive_alone_pct": 32.1, "commute_carpool_pct": 7.5, "commute_transit_pct": 14.0, "commute_bicycle_pct": 0.8, "commute_walk_pct": 11.3, "commute_work_from_home_pct": 33.0, "housing_units": 1435.0, "vacant_units": 140.0, "units_1_detached_pct": 25.5, "units_1_attached_pct": 3.1, "units_2_4_pct": 12.1, "units_5_19_pct": 7.8, "units_20_plus_pct": 50.7, "built_before_1940_pct": 24.4, "built_2010_or_later_pct": 36.8, "hispanic_pct": 6.6, "white_nh_pct": 48.0, "black_nh_pct": 9.9, "asian_nh_pct": 24.2, "bachelors_or_higher_pct": 67.7, "below_poverty_pct": 6.3, "median_income_owners": 116979.0, "median_income_renters": 116607.0, "poor_3plus": 156.0, "poor_college": 24.0, "college_students": 230.0, "poor_not_enrolled": 132.0, "not_enrolled": 1958.0, "poor_children": 0.0, "children": 282.0, "poor_65plus": 24.0, "age_65plus_pov": 502.0, "median_household_income_moe": 27224.0, "population_moe": 254.0 }, "geometry": { "type": "Polygon", "coordinates": [ [ [ -122.332636, 37.862666 ], [ -122.331368, 37.866408 ], [ -122.329231, 37.871257 ], [ -122.325893, 37.874367 ], [ -122.32763, 37.877356 ], [ -122.312451, 37.881375 ], [ -122.308528, 37.882211 ], [ -122.307761, 37.881837 ], [ -122.307507, 37.881791 ], [ -122.306941, 37.881902 ], [ -122.304486, 37.882152 ], [ -122.303335, 37.882171 ], [ -122.303047, 37.882258 ], [ -122.302422, 37.88231 ], [ -122.302114, 37.882436 ], [ -122.300813, 37.882729 ], [ -122.30018, 37.882822 ], [ -122.299311, 37.882903 ], [ -122.298918, 37.882751 ], [ -122.298649, 37.882837 ], [ -122.298559, 37.882942 ], [ -122.296882, 37.883471 ], [ -122.295353, 37.878685 ], [ -122.300853, 37.877571 ], [ -122.300066, 37.87523 ], [ -122.297751, 37.867937 ], [ -122.296853, 37.865282 ], [ -122.295528, 37.861038 ], [ -122.295163, 37.860002 ], [ -122.293719, 37.860243 ], [ -122.289651, 37.861104 ], [ -122.288612, 37.857978 ], [ -122.287135, 37.853193 ], [ -122.286247, 37.850505 ], [ -122.291373, 37.849482 ], [ -122.291364, 37.849446 ], [ -122.291512, 37.849419 ], [ -122.291528, 37.849463 ], [ -122.291978, 37.849367 ], [ -122.291958, 37.849303 ], [ -122.293151, 37.849099 ], [ -122.293137, 37.849065 ], [ -122.293741, 37.84894 ], [ -122.293751, 37.84897 ], [ -122.294821, 37.848779 ], [ -122.309592, 37.845543 ], [ -122.310806, 37.854022 ], [ -122.31401, 37.853601 ], [ -122.322356, 37.853601 ], [ -122.326161, 37.854549 ], [ -122.331234, 37.857185 ], [ -122.33237, 37.859293 ], [ -122.332636, 37.862666 ] ] ] } },
{ "type": "Feature", "properties": { "GEOID": "06001421200", "ALAND": 1314935, "AWATER": 2266, "population": 3588.0, "households": 1437.0, "owner_households": 1378.0, "renter_households": 59.0, "renter_household_pct": 4.1, "residents_owner_occupied": 3417.0, "residents_renter_occupied": 171.0, "median_household_income": 250001.0, "per_capita_income": 140584.0, "hh_income_under_50k": 50.0, "hh_income_50k_100k": 149.0, "hh_income_100k_200k": 286.0, "hh_income_200k_plus": 952.0, "age_under_18": 618.0, "age_18_24": 72.0, "age_25_34": 250.0, "age_35_64": 1265.0, "age_65_plus": 1383.0, "households_no_vehicle": 60.0, "no_vehicle_pct": 4.2, "vehicles_available_min": 2686.0, "median_gross_rent": 3501.0, "median_home_value": 1960800.0, "rent_burdened_30pct": 12.2, "rent_burdened_50pct": 0.0, "workers": 1682.0, "commute_drive_alone_pct": 29.8, "commute_carpool_pct": 7.6, "commute_transit_pct": 10.2, "commute_bicycle_pct": 2.4, "commute_walk_pct": 3.4, "commute_work_from_home_pct": 45.2, "housing_units": 1490.0, "vacant_units": 53.0, "units_1_detached_pct": 98.9, "units_1_attached_pct": 1.1, "units_2_4_pct": 0.0, "units_5_19_pct": 0.0, "units_20_plus_pct": 0.0, "built_before_1940_pct": 70.9, "built_2010_or_later_pct": 0.3, "hispanic_pct": 7.5, "white_nh_pct": 59.3, "black_nh_pct": 0.0, "asian_nh_pct": 24.5, "bachelors_or_higher_pct": 90.1, "below_poverty_pct": 0.9, "median_income_owners": 250001.0, "median_income_renters": 250001.0, "poor_3plus": 31.0, "poor_college": 0.0, "college_students": 47.0, "poor_not_enrolled": 31.0, "not_enrolled": 2913.0, "poor_children": 0.0, "children": 610.0, "poor_65plus": 21.0, "age_65plus_pov": 1383.0, "median_household_income_moe": null, "population_moe": 507.0 }, "geometry": { "type": "Polygon", "coordinates": [ [ [ -122.285895, 37.898801 ], [ -122.284158, 37.8993 ], [ -122.283795, 37.899659 ], [ -122.283643, 37.899998 ], [ -122.280022, 37.900778 ], [ -122.278779, 37.900739 ], [ -122.277282, 37.901721 ], [ -122.27778, 37.902701 ], [ -122.27787, 37.90315 ], [ -122.274811, 37.903872 ], [ -122.273595, 37.905072 ], [ -122.272482, 37.905369 ], [ -122.272147, 37.905533 ], [ -122.27108, 37.905824 ], [ -122.271541, 37.904941 ], [ -122.270237, 37.904363 ], [ -122.2705, 37.904081 ], [ -122.27068, 37.901802 ], [ -122.27051, 37.901634 ], [ -122.270291, 37.90156 ], [ -122.269743, 37.901553 ], [ -122.269615, 37.901475 ], [ -122.269571, 37.90134 ], [ -122.269588, 37.901259 ], [ -122.270199, 37.900572 ], [ -122.271186, 37.899696 ], [ -122.270025, 37.898386 ], [ -122.269878, 37.897529 ], [ -122.269333, 37.896778 ], [ -122.269239, 37.896511 ], [ -122.269241, 37.896272 ], [ -122.269387, 37.895751 ], [ -122.269364, 37.895521 ], [ -122.269187, 37.895299 ], [ -122.26856, 37.894853 ], [ -122.268527, 37.894745 ], [ -122.268583, 37.894245 ], [ -122.268544, 37.8941 ], [ -122.268032, 37.893367 ], [ -122.267737, 37.893131 ], [ -122.268868, 37.89239 ], [ -122.26924, 37.89209 ], [ -122.270158, 37.89156 ], [ -122.272247, 37.890225 ], [ -122.272511, 37.890245 ], [ -122.272586, 37.890126 ], [ -122.272507, 37.889997 ], [ -122.272633, 37.889901 ], [ -122.273008, 37.889746 ], [ -122.275197, 37.889094 ], [ -122.275586, 37.888865 ], [ -122.276526, 37.888857 ], [ -122.276586, 37.888821 ], [ -122.277405, 37.892573 ], [ -122.277405, 37.892857 ], [ -122.277335, 37.893163 ], [ -122.27705, 37.893664 ], [ -122.277078, 37.893995 ], [ -122.277601, 37.894706 ], [ -122.27802, 37.895155 ], [ -122.278035, 37.895223 ], [ -122.278134, 37.895286 ], [ -122.278561, 37.895379 ], [ -122.280242, 37.895579 ], [ -122.280576, 37.895662 ], [ -122.280773, 37.89578 ], [ -122.281233, 37.896184 ], [ -122.28164, 37.89666 ], [ -122.281668, 37.89684 ], [ -122.281516, 37.897348 ], [ -122.281595, 37.898137 ], [ -122.281571, 37.898502 ], [ -122.281255, 37.899086 ], [ -122.281278, 37.899217 ], [ -122.281447, 37.899412 ], [ -122.281252, 37.899632 ], [ -122.282066, 37.899911 ], [ -122.282778, 37.899749 ], [ -122.282998, 37.89962 ], [ -122.283229, 37.899206 ], [ -122.283439, 37.899194 ], [ -122.285704, 37.89837 ], [ -122.285895, 37.898801 ] ] ] } },
{ "type": "Feature", "properties": { "GEOID": "06001422800", "ALAND": 408571, "AWATER": 0, "population": 9850.0, "households": 1614.0, "owner_households": 19.0, "renter_households": 1595.0, "renter_household_pct": 98.8, "residents_owner_occupied": 32.0, "residents_renter_occupied": 3613.0, "median_household_income": 32026.0, "per_capita_income": 17097.0, "hh_income_under_50k": 957.0, "hh_income_50k_100k": 338.0, "hh_income_100k_200k": 167.0, "hh_income_200k_plus": 152.0, "age_under_18": 181.0, "age_18_24": 8392.0, "age_25_34": 628.0, "age_35_64": 515.0, "age_65_plus": 134.0, "households_no_vehicle": 1239.0, "no_vehicle_pct": 76.8, "vehicles_available_min": 519.0, "median_gross_rent": 1810.0, "median_home_value": null, "rent_burdened_30pct": 69.9, "rent_burdened_50pct": 45.4, "workers": 3182.0, "commute_drive_alone_pct": 13.2, "commute_carpool_pct": 0.4, "commute_transit_pct": 13.8, "commute_bicycle_pct": 0.6, "commute_walk_pct": 35.6, "commute_work_from_home_pct": 31.6, "housing_units": 2041.0, "vacant_units": 427.0, "units_1_detached_pct": 0.5, "units_1_attached_pct": 1.1, "units_2_4_pct": 7.5, "units_5_19_pct": 24.8, "units_20_plus_pct": 65.5, "built_before_1940_pct": 36.7, "built_2010_or_later_pct": 20.5, "hispanic_pct": 23.0, "white_nh_pct": 22.8, "black_nh_pct": 7.1, "asian_nh_pct": 37.5, "bachelors_or_higher_pct": 76.2, "below_poverty_pct": 55.7, "median_income_owners": null, "median_income_renters": 32134.0, "poor_3plus": 2080.0, "poor_college": 1896.0, "college_students": 2570.0, "poor_not_enrolled": 184.0, "not_enrolled": 1126.0, "poor_children": 0.0, "children": 37.0, "poor_65plus": 12.0, "age_65plus_pov": 134.0, "median_household_income_moe": 14661.0, "population_moe": 608.0 }, "geometry": { "type": "Polygon", "coordinates": [ [ [ -122.26599, 37.867834 ], [ -122.254588, 37.869321 ], [ -122.254223, 37.866931 ], [ -122.253954, 37.865737 ], [ -122.265277, 37.864265 ], [ -122.265879, 37.867063 ], [ -122.26599, 37.867834 ] ] ] } },
{ "type": "Feature", "properties": { "GEOID": "06001421300", "ALAND": 1084032, "AWATER": 0, "population": 4131.0, "households": 1850.0, "owner_households": 1516.0, "renter_households": 334.0, "renter_household_pct": 18.1, "residents_owner_occupied": 3646.0, "residents_renter_occupied": 485.0, "median_household_income": 148235.0, "per_capita_income": 94814.0, "hh_income_under_50k": 385.0, "hh_income_50k_100k": 264.0, "hh_income_100k_200k": 463.0, "hh_income_200k_plus": 738.0, "age_under_18": 823.0, "age_18_24": 226.0, "age_25_34": 134.0, "age_35_64": 1714.0, "age_65_plus": 1234.0, "households_no_vehicle": 64.0, "no_vehicle_pct": 3.5, "vehicles_available_min": 2879.0, "median_gross_rent": 1225.0, "median_home_value": 1575200.0, "rent_burdened_30pct": 42.7, "rent_burdened_50pct": 20.4, "workers": 1915.0, "commute_drive_alone_pct": 26.2, "commute_carpool_pct": 6.5, "commute_transit_pct": 12.2, "commute_bicycle_pct": 5.2, "commute_walk_pct": 2.5, "commute_work_from_home_pct": 47.5, "housing_units": 1879.0, "vacant_units": 29.0, "units_1_detached_pct": 85.3, "units_1_attached_pct": 0.0, "units_2_4_pct": 7.7, "units_5_19_pct": 3.1, "units_20_plus_pct": 3.1, "built_before_1940_pct": 74.8, "built_2010_or_later_pct": 1.1, "hispanic_pct": 0.9, "white_nh_pct": 69.4, "black_nh_pct": 0.3, "asian_nh_pct": 13.9, "bachelors_or_higher_pct": 86.5, "below_poverty_pct": 4.7, "median_income_owners": 180667.0, "median_income_renters": 61250.0, "poor_3plus": 195.0, "poor_college": 18.0, "college_students": 210.0, "poor_not_enrolled": 168.0, "not_enrolled": 3105.0, "poor_children": 19.0, "children": 823.0, "poor_65plus": 44.0, "age_65plus_pov": 1234.0, "median_household_income_moe": 40238.0, "population_moe": 376.0 }, "geometry": { "type": "Polygon", "coordinates": [ [ [ -122.287047, 37.890918 ], [ -122.286693, 37.898513 ], [ -122.286366, 37.898677 ], [ -122.285895, 37.898801 ], [ -122.285704, 37.89837 ], [ -122.283439, 37.899194 ], [ -122.283229, 37.899206 ], [ -122.282958, 37.899664 ], [ -122.282514, 37.899819 ], [ -122.282066, 37.899911 ], [ -122.281252, 37.899632 ], [ -122.281447, 37.899412 ], [ -122.281278, 37.899217 ], [ -122.281255, 37.899086 ], [ -122.281571, 37.898502 ], [ -122.281595, 37.898137 ], [ -122.281516, 37.897348 ], [ -122.281668, 37.89684 ], [ -122.28164, 37.89666 ], [ -122.281233, 37.896184 ], [ -122.280773, 37.89578 ], [ -122.280576, 37.895662 ], [ -122.280242, 37.895579 ], [ -122.278561, 37.895379 ], [ -122.278134, 37.895286 ], [ -122.278035, 37.895223 ], [ -122.27802, 37.895155 ], [ -122.277601, 37.894706 ], [ -122.277078, 37.893995 ], [ -122.27705, 37.893664 ], [ -122.277335, 37.893163 ], [ -122.277405, 37.892857 ], [ -122.277405, 37.892573 ], [ -122.276836, 37.890049 ], [ -122.276362, 37.887648 ], [ -122.276153, 37.886984 ], [ -122.275882, 37.88642 ], [ -122.275531, 37.885904 ], [ -122.274963, 37.885341 ], [ -122.275673, 37.884755 ], [ -122.276705, 37.884169 ], [ -122.282678, 37.881249 ], [ -122.282983, 37.881598 ], [ -122.283059, 37.881777 ], [ -122.283057, 37.881977 ], [ -122.283139, 37.882063 ], [ -122.282868, 37.882312 ], [ -122.28279, 37.882502 ], [ -122.282918, 37.882511 ], [ -122.282028, 37.884368 ], [ -122.28185, 37.885025 ], [ -122.282171, 37.885054 ], [ -122.282624, 37.884981 ], [ -122.282738, 37.885375 ], [ -122.281672, 37.888242 ], [ -122.281639, 37.888487 ], [ -122.281888, 37.889406 ], [ -122.282372, 37.89081 ], [ -122.282409, 37.891171 ], [ -122.287047, 37.890918 ] ] ] } },
{ "type": "Feature", "properties": { "GEOID": "06001423200", "ALAND": 456778, "AWATER": 0, "population": 3049.0, "households": 1179.0, "owner_households": 339.0, "renter_households": 840.0, "renter_household_pct": 71.2, "residents_owner_occupied": 1047.0, "residents_renter_occupied": 1915.0, "median_household_income": 60563.0, "per_capita_income": 45395.0, "hh_income_under_50k": 514.0, "hh_income_50k_100k": 267.0, "hh_income_100k_200k": 209.0, "hh_income_200k_plus": 189.0, "age_under_18": 494.0, "age_18_24": 507.0, "age_25_34": 444.0, "age_35_64": 1224.0, "age_65_plus": 380.0, "households_no_vehicle": 256.0, "no_vehicle_pct": 21.7, "vehicles_available_min": 1693.0, "median_gross_rent": 2040.0, "median_home_value": 1221700.0, "rent_burdened_30pct": 62.3, "rent_burdened_50pct": 34.4, "workers": 1128.0, "commute_drive_alone_pct": 38.9, "commute_carpool_pct": 2.8, "commute_transit_pct": 9.4, "commute_bicycle_pct": 5.8, "commute_walk_pct": 2.7, "commute_work_from_home_pct": 40.4, "housing_units": 1324.0, "vacant_units": 145.0, "units_1_detached_pct": 31.8, "units_1_attached_pct": 2.8, "units_2_4_pct": 29.9, "units_5_19_pct": 13.1, "units_20_plus_pct": 22.4, "built_before_1940_pct": 34.5, "built_2010_or_later_pct": 2.6, "hispanic_pct": 45.9, "white_nh_pct": 25.7, "black_nh_pct": 16.4, "asian_nh_pct": 7.4, "bachelors_or_higher_pct": 50.6, "below_poverty_pct": 28.8, "median_income_owners": 149375.0, "median_income_renters": 46707.0, "poor_3plus": 813.0, "poor_college": 209.0, "college_students": 440.0, "poor_not_enrolled": 413.0, "not_enrolled": 2071.0, "poor_children": 255.0, "children": 490.0, "poor_65plus": 21.0, "age_65plus_pov": 380.0, "median_household_income_moe": 16888.0, "population_moe": 518.0 }, "geometry": { "type": "Polygon", "coordinates": [ [ [ -122.297751, 37.867937 ], [ -122.292226, 37.869042 ], [ -122.289651, 37.861104 ], [ -122.293719, 37.860243 ], [ -122.295163, 37.860002 ], [ -122.295528, 37.861038 ], [ -122.296853, 37.865282 ], [ -122.297751, 37.867937 ] ] ] } },
{ "type": "Feature", "properties": { "GEOID": "06001423902", "ALAND": 294981, "AWATER": 0, "population": 1537.0, "households": 702.0, "owner_households": 227.0, "renter_households": 475.0, "renter_household_pct": 67.7, "residents_owner_occupied": 636.0, "residents_renter_occupied": 846.0, "median_household_income": 165893.0, "per_capita_income": 97021.0, "hh_income_under_50k": 160.0, "hh_income_50k_100k": 106.0, "hh_income_100k_200k": 131.0, "hh_income_200k_plus": 305.0, "age_under_18": 169.0, "age_18_24": 268.0, "age_25_34": 201.0, "age_35_64": 605.0, "age_65_plus": 294.0, "households_no_vehicle": 71.0, "no_vehicle_pct": 10.1, "vehicles_available_min": 848.0, "median_gross_rent": 2609.0, "median_home_value": 1497200.0, "rent_burdened_30pct": 44.6, "rent_burdened_50pct": 27.9, "workers": 971.0, "commute_drive_alone_pct": 30.4, "commute_carpool_pct": 0.0, "commute_transit_pct": 14.0, "commute_bicycle_pct": 4.8, "commute_walk_pct": 8.9, "commute_work_from_home_pct": 38.8, "housing_units": 788.0, "vacant_units": 86.0, "units_1_detached_pct": 29.7, "units_1_attached_pct": 2.5, "units_2_4_pct": 36.5, "units_5_19_pct": 29.3, "units_20_plus_pct": 1.9, "built_before_1940_pct": 62.8, "built_2010_or_later_pct": 0.6, "hispanic_pct": 12.2, "white_nh_pct": 62.0, "black_nh_pct": 5.9, "asian_nh_pct": 14.0, "bachelors_or_higher_pct": 85.4, "below_poverty_pct": 18.2, "median_income_owners": 234250.0, "median_income_renters": null, "poor_3plus": 274.0, "poor_college": 207.0, "college_students": 302.0, "poor_not_enrolled": 67.0, "not_enrolled": 1031.0, "poor_children": 0.0, "children": 169.0, "poor_65plus": 27.0, "age_65plus_pov": 266.0, "median_household_income_moe": 52231.0, "population_moe": 254.0 }, "geometry": { "type": "Polygon", "coordinates": [ [ [ -122.262473, 37.855703 ], [ -122.262407, 37.855865 ], [ -122.253099, 37.857088 ], [ -122.253131, 37.857005 ], [ -122.252834, 37.853901 ], [ -122.253483, 37.853811 ], [ -122.253446, 37.853672 ], [ -122.253968, 37.853611 ], [ -122.253995, 37.853746 ], [ -122.254807, 37.853649 ], [ -122.257274, 37.853298 ], [ -122.257251, 37.853176 ], [ -122.258209, 37.853052 ], [ -122.258338, 37.853041 ], [ -122.258367, 37.853196 ], [ -122.259787, 37.853011 ], [ -122.259753, 37.852854 ], [ -122.261829, 37.85258 ], [ -122.262473, 37.855703 ] ] ] } },
{ "type": "Feature", "properties": { "GEOID": "06001421500", "ALAND": 1580941, "AWATER": 0, "population": 3989.0, "households": 1581.0, "owner_households": 1309.0, "renter_households": 272.0, "renter_household_pct": 17.2, "residents_owner_occupied": 3442.0, "residents_renter_occupied": 526.0, "median_household_income": 226181.0, "per_capita_income": 122842.0, "hh_income_under_50k": 128.0, "hh_income_50k_100k": 203.0, "hh_income_100k_200k": 374.0, "hh_income_200k_plus": 876.0, "age_under_18": 697.0, "age_18_24": 265.0, "age_25_34": 344.0, "age_35_64": 1462.0, "age_65_plus": 1221.0, "households_no_vehicle": 19.0, "no_vehicle_pct": 1.2, "vehicles_available_min": 3064.0, "median_gross_rent": 2929.0, "median_home_value": 1644000.0, "rent_burdened_30pct": 31.5, "rent_burdened_50pct": 10.0, "workers": 1922.0, "commute_drive_alone_pct": 37.3, "commute_carpool_pct": 3.5, "commute_transit_pct": 6.8, "commute_bicycle_pct": 0.4, "commute_walk_pct": 3.2, "commute_work_from_home_pct": 48.4, "housing_units": 1702.0, "vacant_units": 121.0, "units_1_detached_pct": 85.5, "units_1_attached_pct": 1.0, "units_2_4_pct": 5.5, "units_5_19_pct": 2.8, "units_20_plus_pct": 2.5, "built_before_1940_pct": 43.4, "built_2010_or_later_pct": 2.1, "hispanic_pct": 6.6, "white_nh_pct": 77.9, "black_nh_pct": 2.2, "asian_nh_pct": 7.7, "bachelors_or_higher_pct": 83.7, "below_poverty_pct": 3.7, "median_income_owners": 242153.0, "median_income_renters": 205682.0, "poor_3plus": 144.0, "poor_college": 25.0, "college_students": 253.0, "poor_not_enrolled": 119.0, "not_enrolled": 2999.0, "poor_children": 0.0, "children": 669.0, "poor_65plus": 61.0, "age_65plus_pov": 1221.0, "median_household_income_moe": 36787.0, "population_moe": 438.0 }, "geometry": { "type": "Polygon", "coordinates": [ [ [ -122.267737, 37.893131 ], [ -122.264432, 37.895242 ], [ -122.26347, 37.895804 ], [ -122.260784, 37.897553 ], [ -122.261959, 37.898485 ], [ -122.260703, 37.899639 ], [ -122.260043, 37.899888 ], [ -122.259685, 37.899876 ], [ -122.259357, 37.899685 ], [ -122.258689, 37.899032 ], [ -122.258419, 37.898981 ], [ -122.258151, 37.899056 ], [ -122.257169, 37.899824 ], [ -122.257005, 37.899864 ], [ -122.256906, 37.899823 ], [ -122.256642, 37.899515 ], [ -122.256219, 37.898633 ], [ -122.256063, 37.898421 ], [ -122.256068, 37.898236 ], [ -122.256283, 37.897922 ], [ -122.256325, 37.897751 ], [ -122.256305, 37.896795 ], [ -122.256222, 37.896484 ], [ -122.255936, 37.896031 ], [ -122.255701, 37.895904 ], [ -122.255156, 37.896258 ], [ -122.254933, 37.896345 ], [ -122.254479, 37.896216 ], [ -122.253842, 37.89623 ], [ -122.253702, 37.896193 ], [ -122.252884, 37.895359 ], [ -122.252685, 37.895015 ], [ -122.252668, 37.894569 ], [ -122.253082, 37.894116 ], [ -122.253104, 37.894008 ], [ -122.253047, 37.893863 ], [ -122.252867, 37.893732 ], [ -122.252563, 37.893671 ], [ -122.252201, 37.893498 ], [ -122.252059, 37.893484 ], [ -122.251827, 37.893535 ], [ -122.251384, 37.893835 ], [ -122.251154, 37.89384 ], [ -122.250162, 37.893356 ], [ -122.250049, 37.893148 ], [ -122.250077, 37.892977 ], [ -122.250007, 37.892811 ], [ -122.249857, 37.89277 ], [ -122.249666, 37.892824 ], [ -122.249145, 37.891128 ], [ -122.24963, 37.891139 ], [ -122.25032, 37.891299 ], [ -122.250811, 37.891306 ], [ -122.251199, 37.891238 ], [ -122.251877, 37.890955 ], [ -122.252419, 37.890396 ], [ -122.25227, 37.889947 ], [ -122.253123, 37.889774 ], [ -122.253278, 37.889676 ], [ -122.253165, 37.889558 ], [ -122.252818, 37.889385 ], [ -122.252732, 37.889224 ], [ -122.252698, 37.888435 ], [ -122.252753, 37.888303 ], [ -122.252889, 37.888196 ], [ -122.253257, 37.888135 ], [ -122.253458, 37.888213 ], [ -122.253788, 37.888789 ], [ -122.253961, 37.88902 ], [ -122.254143, 37.889163 ], [ -122.25415, 37.888819 ], [ -122.25438, 37.888421 ], [ -122.254357, 37.887941 ], [ -122.25451, 37.887658 ], [ -122.25475, 37.887768 ], [ -122.254848, 37.887953 ], [ -122.254962, 37.888053 ], [ -122.255162, 37.888106 ], [ -122.25537, 37.88802 ], [ -122.255422, 37.887654 ], [ -122.255596, 37.887571 ], [ -122.255746, 37.88761 ], [ -122.255865, 37.887942 ], [ -122.255951, 37.888012 ], [ -122.256202, 37.888036 ], [ -122.256533, 37.887978 ], [ -122.256524, 37.887694 ], [ -122.256616, 37.887588 ], [ -122.256833, 37.887493 ], [ -122.256946, 37.887356 ], [ -122.256938, 37.887228 ], [ -122.25681, 37.88697 ], [ -122.256826, 37.886907 ], [ -122.257849, 37.886539 ], [ -122.258062, 37.886548 ], [ -122.258675, 37.886788 ], [ -122.258927, 37.886708 ], [ -122.259143, 37.886471 ], [ -122.259194, 37.886165 ], [ -122.259176, 37.885757 ], [ -122.259793, 37.886049 ], [ -122.259828, 37.886198 ], [ -122.259756, 37.886448 ], [ -122.2598, 37.8865 ], [ -122.260184, 37.886349 ], [ -122.26027, 37.886203 ], [ -122.260229, 37.886032 ], [ -122.259029, 37.884749 ], [ -122.258904, 37.884491 ], [ -122.258907, 37.884223 ], [ -122.258964, 37.884133 ], [ -122.259112, 37.884051 ], [ -122.259797, 37.884019 ], [ -122.259908, 37.883941 ], [ -122.259964, 37.883795 ], [ -122.259856, 37.883278 ], [ -122.261699, 37.883053 ], [ -122.262651, 37.884183 ], [ -122.262776, 37.884364 ], [ -122.262842, 37.884604 ], [ -122.262793, 37.885108 ], [ -122.262402, 37.886527 ], [ -122.264513, 37.886315 ], [ -122.266609, 37.886035 ], [ -122.266846, 37.887923 ], [ -122.266838, 37.888193 ], [ -122.266715, 37.888744 ], [ -122.26672, 37.88895 ], [ -122.267113, 37.890126 ], [ -122.267246, 37.890888 ], [ -122.26721, 37.891602 ], [ -122.267161, 37.891794 ], [ -122.267007, 37.892072 ], [ -122.266941, 37.892459 ], [ -122.267084, 37.892744 ], [ -122.267737, 37.893131 ] ] ] } },
{ "type": "Feature", "properties": { "GEOID": "06001421600", "ALAND": 1324489, "AWATER": 0, "population": 4008.0, "households": 1609.0, "owner_households": 1293.0, "renter_households": 316.0, "renter_household_pct": 19.6, "residents_owner_occupied": 3285.0, "residents_renter_occupied": 686.0, "median_household_income": 232344.0, "per_capita_income": 95560.0, "hh_income_under_50k": 249.0, "hh_income_50k_100k": 81.0, "hh_income_100k_200k": 361.0, "hh_income_200k_plus": 918.0, "age_under_18": 641.0, "age_18_24": 351.0, "age_25_34": 425.0, "age_35_64": 1553.0, "age_65_plus": 1038.0, "households_no_vehicle": 69.0, "no_vehicle_pct": 4.3, "vehicles_available_min": 2686.0, "median_gross_rent": 2205.0, "median_home_value": 1387000.0, "rent_burdened_30pct": 43.9, "rent_burdened_50pct": 19.2, "workers": 1799.0, "commute_drive_alone_pct": 36.2, "commute_carpool_pct": 2.1, "commute_transit_pct": 9.7, "commute_bicycle_pct": 4.6, "commute_walk_pct": 6.1, "commute_work_from_home_pct": 40.2, "housing_units": 1732.0, "vacant_units": 123.0, "units_1_detached_pct": 82.2, "units_1_attached_pct": 2.0, "units_2_4_pct": 9.1, "units_5_19_pct": 6.4, "units_20_plus_pct": 0.2, "built_before_1940_pct": 44.1, "built_2010_or_later_pct": 0.4, "hispanic_pct": 7.1, "white_nh_pct": 68.2, "black_nh_pct": 1.8, "asian_nh_pct": 10.8, "bachelors_or_higher_pct": 91.1, "below_poverty_pct": 8.7, "median_income_owners": 234759.0, "median_income_renters": 104688.0, "poor_3plus": 344.0, "poor_college": 182.0, "college_students": 479.0, "poor_not_enrolled": 162.0, "not_enrolled": 2937.0, "poor_children": 0.0, "children": 590.0, "poor_65plus": 46.0, "age_65plus_pov": 1038.0, "median_household_income_moe": 44168.0, "population_moe": 525.0 }, "geometry": { "type": "Polygon", "coordinates": [ [ [ -122.266609, 37.886035 ], [ -122.264513, 37.886315 ], [ -122.262402, 37.886527 ], [ -122.262835, 37.884921 ], [ -122.262842, 37.884604 ], [ -122.262776, 37.884364 ], [ -122.262651, 37.884183 ], [ -122.261699, 37.883053 ], [ -122.259856, 37.883278 ], [ -122.259964, 37.883795 ], [ -122.259908, 37.883941 ], [ -122.259797, 37.884019 ], [ -122.259112, 37.884051 ], [ -122.258964, 37.884133 ], [ -122.258886, 37.884324 ], [ -122.258904, 37.884491 ], [ -122.259029, 37.884749 ], [ -122.260229, 37.886032 ], [ -122.26027, 37.886203 ], [ -122.260184, 37.886349 ], [ -122.2598, 37.8865 ], [ -122.259756, 37.886448 ], [ -122.259828, 37.886198 ], [ -122.259793, 37.886049 ], [ -122.259176, 37.885757 ], [ -122.259194, 37.886165 ], [ -122.259143, 37.886471 ], [ -122.258927, 37.886708 ], [ -122.258675, 37.886788 ], [ -122.258062, 37.886548 ], [ -122.257849, 37.886539 ], [ -122.256826, 37.886907 ], [ -122.25681, 37.88697 ], [ -122.256938, 37.887228 ], [ -122.256946, 37.887356 ], [ -122.256833, 37.887493 ], [ -122.256616, 37.887588 ], [ -122.256524, 37.887694 ], [ -122.256533, 37.887978 ], [ -122.256202, 37.888036 ], [ -122.255951, 37.888012 ], [ -122.255865, 37.887942 ], [ -122.255746, 37.88761 ], [ -122.255596, 37.887571 ], [ -122.255422, 37.887654 ], [ -122.25537, 37.88802 ], [ -122.255162, 37.888106 ], [ -122.254962, 37.888053 ], [ -122.254848, 37.887953 ], [ -122.25475, 37.887768 ], [ -122.25451, 37.887658 ], [ -122.254357, 37.887941 ], [ -122.25438, 37.888421 ], [ -122.25415, 37.888819 ], [ -122.254143, 37.889163 ], [ -122.253961, 37.88902 ], [ -122.253788, 37.888789 ], [ -122.253458, 37.888213 ], [ -122.253257, 37.888135 ], [ -122.252889, 37.888196 ], [ -122.252753, 37.888303 ], [ -122.252698, 37.888435 ], [ -122.252732, 37.889224 ], [ -122.252818, 37.889385 ], [ -122.253165, 37.889558 ], [ -122.253278, 37.889676 ], [ -122.253123, 37.889774 ], [ -122.25227, 37.889947 ], [ -122.252419, 37.890396 ], [ -122.251877, 37.890955 ], [ -122.251199, 37.891238 ], [ -122.250811, 37.891306 ], [ -122.25032, 37.891299 ], [ -122.24963, 37.891139 ], [ -122.249145, 37.891128 ], [ -122.249031, 37.890762 ], [ -122.250286, 37.889828 ], [ -122.249677, 37.88949 ], [ -122.249538, 37.889305 ], [ -122.249484, 37.888809 ], [ -122.249493, 37.888251 ], [ -122.249337, 37.887516 ], [ -122.249349, 37.88727 ], [ -122.249262, 37.886972 ], [ -122.247831, 37.88593 ], [ -122.247631, 37.885877 ], [ -122.24691, 37.885355 ], [ -122.246778, 37.884381 ], [ -122.246827, 37.884073 ], [ -122.246755, 37.883973 ], [ -122.246439, 37.881203 ], [ -122.247031, 37.881173 ], [ -122.24727, 37.881068 ], [ -122.251453, 37.880709 ], [ -122.255593, 37.880194 ], [ -122.25629, 37.880069 ], [ -122.256567, 37.87996 ], [ -122.256643, 37.879959 ], [ -122.257106, 37.880537 ], [ -122.257292, 37.880562 ], [ -122.257768, 37.880453 ], [ -122.258205, 37.880573 ], [ -122.258176, 37.880449 ], [ -122.258002, 37.880344 ], [ -122.257857, 37.880079 ], [ -122.25766, 37.879938 ], [ -122.257568, 37.879803 ], [ -122.257735, 37.879833 ], [ -122.258442, 37.879779 ], [ -122.265752, 37.878806 ], [ -122.266609, 37.886035 ] ] ] } },
{ "type": "Feature", "properties": { "GEOID": "06001423601", "ALAND": 523435, "AWATER": 0, "population": 2603.0, "households": 1136.0, "owner_households": 555.0, "renter_households": 581.0, "renter_household_pct": 51.1, "residents_owner_occupied": 1390.0, "residents_renter_occupied": 1163.0, "median_household_income": 166310.0, "per_capita_income": 90543.0, "hh_income_under_50k": 167.0, "hh_income_50k_100k": 265.0, "hh_income_100k_200k": 271.0, "hh_income_200k_plus": 433.0, "age_under_18": 305.0, "age_18_24": 252.0, "age_25_34": 548.0, "age_35_64": 782.0, "age_65_plus": 716.0, "households_no_vehicle": 81.0, "no_vehicle_pct": 7.1, "vehicles_available_min": 1516.0, "median_gross_rent": 2222.0, "median_home_value": 1421900.0, "rent_burdened_30pct": 38.4, "rent_burdened_50pct": 22.9, "workers": 1394.0, "commute_drive_alone_pct": 28.5, "commute_carpool_pct": 1.3, "commute_transit_pct": 12.8, "commute_bicycle_pct": 5.2, "commute_walk_pct": 12.7, "commute_work_from_home_pct": 39.1, "housing_units": 1247.0, "vacant_units": 111.0, "units_1_detached_pct": 41.8, "units_1_attached_pct": 2.9, "units_2_4_pct": 35.8, "units_5_19_pct": 19.3, "units_20_plus_pct": 0.2, "built_before_1940_pct": 63.2, "built_2010_or_later_pct": 0.0, "hispanic_pct": 11.4, "white_nh_pct": 60.6, "black_nh_pct": 2.2, "asian_nh_pct": 15.5, "bachelors_or_higher_pct": 76.1, "below_poverty_pct": 12.7, "median_income_owners": 205677.0, "median_income_renters": 111250.0, "poor_3plus": 326.0, "poor_college": 222.0, "college_students": 417.0, "poor_not_enrolled": 104.0, "not_enrolled": 1850.0, "poor_children": 0.0, "children": 305.0, "poor_65plus": 0.0, "age_65plus_pov": 681.0, "median_household_income_moe": 27394.0, "population_moe": 369.0 }, "geometry": { "type": "Polygon", "coordinates": [ [ [ -122.264519, 37.860682 ], [ -122.258892, 37.861438 ], [ -122.257483, 37.861577 ], [ -122.253552, 37.861823 ], [ -122.253099, 37.857088 ], [ -122.263515, 37.855732 ], [ -122.264519, 37.860682 ] ] ] } },
{ "type": "Feature", "properties": { "GEOID": "06001422100", "ALAND": 551942, "AWATER": 0, "population": 3027.0, "households": 1370.0, "owner_households": 770.0, "renter_households": 600.0, "renter_household_pct": 43.8, "residents_owner_occupied": 1963.0, "residents_renter_occupied": 1064.0, "median_household_income": 139250.0, "per_capita_income": 82629.0, "hh_income_under_50k": 295.0, "hh_income_50k_100k": 232.0, "hh_income_100k_200k": 326.0, "hh_income_200k_plus": 517.0, "age_under_18": 525.0, "age_18_24": 135.0, "age_25_34": 417.0, "age_35_64": 1332.0, "age_65_plus": 618.0, "households_no_vehicle": 74.0, "no_vehicle_pct": 5.4, "vehicles_available_min": 1961.0, "median_gross_rent": 2384.0, "median_home_value": 1022500.0, "rent_burdened_30pct": 51.9, "rent_burdened_50pct": 34.4, "workers": 1670.0, "commute_drive_alone_pct": 34.1, "commute_carpool_pct": 2.1, "commute_transit_pct": 5.0, "commute_bicycle_pct": 0.0, "commute_walk_pct": 11.7, "commute_work_from_home_pct": 47.1, "housing_units": 1493.0, "vacant_units": 123.0, "units_1_detached_pct": 47.0, "units_1_attached_pct": 10.0, "units_2_4_pct": 13.6, "units_5_19_pct": 7.6, "units_20_plus_pct": 21.8, "built_before_1940_pct": 28.3, "built_2010_or_later_pct": 23.0, "hispanic_pct": 18.4, "white_nh_pct": 50.1, "black_nh_pct": 11.2, "asian_nh_pct": 12.4, "bachelors_or_higher_pct": 66.9, "below_poverty_pct": 7.0, "median_income_owners": 208977.0, "median_income_renters": 88661.0, "poor_3plus": 210.0, "poor_college": 39.0, "college_students": 236.0, "poor_not_enrolled": 161.0, "not_enrolled": 2266.0, "poor_children": 10.0, "children": 515.0, "poor_65plus": 74.0, "age_65plus_pov": 618.0, "median_household_income_moe": 31031.0, "population_moe": 349.0 }, "geometry": { "type": "Polygon", "coordinates": [ [ [ -122.300853, 37.877571 ], [ -122.295353, 37.878685 ], [ -122.292634, 37.870418 ], [ -122.292226, 37.869042 ], [ -122.297751, 37.867937 ], [ -122.300066, 37.87523 ], [ -122.300853, 37.877571 ] ] ] } },
{ "type": "Feature", "properties": { "GEOID": "06001422200", "ALAND": 675011, "AWATER": 0, "population": 3313.0, "households": 1512.0, "owner_households": 684.0, "renter_households": 828.0, "renter_household_pct": 54.8, "residents_owner_occupied": 1995.0, "residents_renter_occupied": 1285.0, "median_household_income": 99379.0, "per_capita_income": 84056.0, "hh_income_under_50k": 307.0, "hh_income_50k_100k": 485.0, "hh_income_100k_200k": 280.0, "hh_income_200k_plus": 440.0, "age_under_18": 710.0, "age_18_24": 168.0, "age_25_34": 517.0, "age_35_64": 1505.0, "age_65_plus": 413.0, "households_no_vehicle": 173.0, "no_vehicle_pct": 11.4, "vehicles_available_min": 1732.0, "median_gross_rent": 1940.0, "median_home_value": 1235200.0, "rent_burdened_30pct": 40.1, "rent_burdened_50pct": 17.4, "workers": 1755.0, "commute_drive_alone_pct": 37.4, "commute_carpool_pct": 1.7, "commute_transit_pct": 10.3, "commute_bicycle_pct": 5.6, "commute_walk_pct": 2.2, "commute_work_from_home_pct": 40.1, "housing_units": 1664.0, "vacant_units": 152.0, "units_1_detached_pct": 42.4, "units_1_attached_pct": 8.0, "units_2_4_pct": 22.9, "units_5_19_pct": 17.7, "units_20_plus_pct": 9.0, "built_before_1940_pct": 35.4, "built_2010_or_later_pct": 0.6, "hispanic_pct": 10.1, "white_nh_pct": 59.8, "black_nh_pct": 2.8, "asian_nh_pct": 13.8, "bachelors_or_higher_pct": 72.6, "below_poverty_pct": 5.7, "median_income_owners": 195526.0, "median_income_renters": 74091.0, "poor_3plus": 188.0, "poor_college": 17.0, "college_students": 209.0, "poor_not_enrolled": 171.0, "not_enrolled": 2410.0, "poor_children": 0.0, "children": 705.0, "poor_65plus": 87.0, "age_65plus_pov": 413.0, "median_household_income_moe": 10900.0, "population_moe": 546.0 }, "geometry": { "type": "Polygon", "coordinates": [ [ [ -122.294223, 37.875168 ], [ -122.293168, 37.875275 ], [ -122.292356, 37.87542 ], [ -122.288817, 37.875872 ], [ -122.287945, 37.876052 ], [ -122.282793, 37.87666 ], [ -122.282594, 37.875282 ], [ -122.28204, 37.870353 ], [ -122.292226, 37.869042 ], [ -122.292634, 37.870418 ], [ -122.294223, 37.875168 ] ] ] } },
{ "type": "Feature", "properties": { "GEOID": "06001422300", "ALAND": 560048, "AWATER": 0, "population": 3770.0, "households": 1692.0, "owner_households": 564.0, "renter_households": 1128.0, "renter_household_pct": 66.7, "residents_owner_occupied": 1369.0, "residents_renter_occupied": 2365.0, "median_household_income": 86071.0, "per_capita_income": 63251.0, "hh_income_under_50k": 420.0, "hh_income_50k_100k": 515.0, "hh_income_100k_200k": 374.0, "hh_income_200k_plus": 383.0, "age_under_18": 566.0, "age_18_24": 482.0, "age_25_34": 848.0, "age_35_64": 1221.0, "age_65_plus": 653.0, "households_no_vehicle": 355.0, "no_vehicle_pct": 21.0, "vehicles_available_min": 1897.0, "median_gross_rent": 2310.0, "median_home_value": 1544000.0, "rent_burdened_30pct": 51.4, "rent_burdened_50pct": 28.1, "workers": 1767.0, "commute_drive_alone_pct": 18.8, "commute_carpool_pct": 10.0, "commute_transit_pct": 15.8, "commute_bicycle_pct": 11.7, "commute_walk_pct": 11.7, "commute_work_from_home_pct": 31.5, "housing_units": 1972.0, "vacant_units": 280.0, "units_1_detached_pct": 28.1, "units_1_attached_pct": 5.9, "units_2_4_pct": 11.7, "units_5_19_pct": 27.1, "units_20_plus_pct": 27.2, "built_before_1940_pct": 37.0, "built_2010_or_later_pct": 7.3, "hispanic_pct": 8.6, "white_nh_pct": 41.9, "black_nh_pct": 16.5, "asian_nh_pct": 22.5, "bachelors_or_higher_pct": 71.4, "below_poverty_pct": 9.8, "median_income_owners": 176250.0, "median_income_renters": 67908.0, "poor_3plus": 368.0, "poor_college": 181.0, "college_students": 590.0, "poor_not_enrolled": 187.0, "not_enrolled": 2606.0, "poor_children": 0.0, "children": 566.0, "poor_65plus": 36.0, "age_65plus_pov": 653.0, "median_household_income_moe": 22667.0, "population_moe": 444.0 }, "geometry": { "type": "Polygon", "coordinates": [ [ [ -122.282793, 37.87666 ], [ -122.273746, 37.877788 ], [ -122.273067, 37.871512 ], [ -122.28204, 37.870353 ], [ -122.282594, 37.875282 ], [ -122.282793, 37.87666 ] ] ] } },
{ "type": "Feature", "properties": { "GEOID": "06001422400", "ALAND": 475566, "AWATER": 0, "population": 4096.0, "households": 2013.0, "owner_households": 403.0, "renter_households": 1610.0, "renter_household_pct": 80.0, "residents_owner_occupied": 1034.0, "residents_renter_occupied": 3062.0, "median_household_income": 88902.0, "per_capita_income": 78172.0, "hh_income_under_50k": 586.0, "hh_income_50k_100k": 554.0, "hh_income_100k_200k": 350.0, "hh_income_200k_plus": 523.0, "age_under_18": 185.0, "age_18_24": 1090.0, "age_25_34": 1568.0, "age_35_64": 790.0, "age_65_plus": 463.0, "households_no_vehicle": 816.0, "no_vehicle_pct": 40.5, "vehicles_available_min": 1938.0, "median_gross_rent": 2269.0, "median_home_value": 1184100.0, "rent_burdened_30pct": 55.5, "rent_burdened_50pct": 25.2, "workers": 2542.0, "commute_drive_alone_pct": 25.0, "commute_carpool_pct": 0.7, "commute_transit_pct": 11.0, "commute_bicycle_pct": 0.0, "commute_walk_pct": 20.9, "commute_work_from_home_pct": 40.2, "housing_units": 2436.0, "vacant_units": 423.0, "units_1_detached_pct": 5.5, "units_1_attached_pct": 2.9, "units_2_4_pct": 20.9, "units_5_19_pct": 43.8, "units_20_plus_pct": 27.0, "built_before_1940_pct": 44.3, "built_2010_or_later_pct": 3.4, "hispanic_pct": 3.8, "white_nh_pct": 44.1, "black_nh_pct": 3.7, "asian_nh_pct": 37.0, "bachelors_or_higher_pct": 88.8, "below_poverty_pct": 14.5, "median_income_owners": null, "median_income_renters": 78625.0, "poor_3plus": 593.0, "poor_college": 427.0, "college_students": 1306.0, "poor_not_enrolled": 166.0, "not_enrolled": 2577.0, "poor_children": 0.0, "children": 185.0, "poor_65plus": 56.0, "age_65plus_pov": 463.0, "median_household_income_moe": 20498.0, "population_moe": 761.0 }, "geometry": { "type": "Polygon", "coordinates": [ [ [ -122.273746, 37.877788 ], [ -122.265752, 37.878806 ], [ -122.26565, 37.876971 ], [ -122.265447, 37.876515 ], [ -122.265427, 37.876305 ], [ -122.265574, 37.875608 ], [ -122.265383, 37.874297 ], [ -122.266329, 37.874188 ], [ -122.266367, 37.874107 ], [ -122.266159, 37.872389 ], [ -122.273067, 37.871512 ], [ -122.273746, 37.877788 ] ] ] } }
]
}
