<?xml version="1.0" encoding="UTF-8"?>
<kml xmlns="http://www.opengis.net/kml/2.2">
<Document>
  <name>Berkeley Built — Landmark Buildings by Year</name>
  <description><![CDATA[181 City-designated landmarks, each carrying a TimeSpan that begins at its true build year. Drag the Google Earth TIME SLIDER (top toolbar) to watch the landmarks appear chronologically and accumulate; click any placemark, then use Street View / 3D / historical imagery.]]></description>
  <Style id="lm">
    <IconStyle><scale>0.9</scale><color>ff4fc4fe</color><Icon><href>http://maps.google.com/mapfiles/kml/shapes/placemark_circle.png</href></Icon></IconStyle>
    <LabelStyle><scale>0.7</scale></LabelStyle>
  </Style>
  <Placemark>
    <name>834 Delaware Street (1853)</name>
    <description><![CDATA[<b>834 Delaware Street</b><br>Built <b>1853</b> (City landmark date)<br>Designated 6/17/1985 &middot; LM]]></description>
    <TimeSpan><begin>1853-01-01T00:00:00Z</begin></TimeSpan>
    <styleUrl>#lm</styleUrl>
    <Point><coordinates>-122.297798,37.870437,0</coordinates></Point>
  </Placemark>
  <Placemark>
    <name>2314 Dwight Way (1868)</name>
    <description><![CDATA[<b>2314 Dwight Way</b><br>Built <b>1868</b> (City landmark date)<br>Designated 1/26/1987 &middot; LM]]></description>
    <TimeSpan><begin>1868-01-01T00:00:00Z</begin></TimeSpan>
    <styleUrl>#lm</styleUrl>
    <Point><coordinates>-122.262323,37.864298,0</coordinates></Point>
  </Placemark>
  <Placemark>
    <name>1301 Oxford Street (1868)</name>
    <description><![CDATA[<b>1301 Oxford Street</b><br>Built <b>1868</b> (City landmark date)<br>Designated 6/21/1976 &middot; LM]]></description>
    <TimeSpan><begin>1868-01-01T00:00:00Z</begin></TimeSpan>
    <styleUrl>#lm</styleUrl>
    <Point><coordinates>-122.267207,37.884009,0</coordinates></Point>
  </Placemark>
  <Placemark>
    <name>1317 Shattuck Avenue (1870)</name>
    <description><![CDATA[<b>1317 Shattuck Avenue</b><br>Built <b>1870</b> (City landmark date)<br>Designated 12/20/1982 &middot; LM]]></description>
    <TimeSpan><begin>1870-01-01T00:00:00Z</begin></TimeSpan>
    <styleUrl>#lm</styleUrl>
    <Point><coordinates>-122.269263,37.883135,0</coordinates></Point>
  </Placemark>
  <Placemark>
    <name>921 University   S Avenue       P (1875)</name>
    <description><![CDATA[<b>921 University   S Avenue       P</b><br>Built <b>1875</b> (City landmark date)<br>Designated 11/18/1985 &middot; LM]]></description>
    <TimeSpan><begin>1875-01-01T00:00:00Z</begin></TimeSpan>
    <styleUrl>#lm</styleUrl>
    <Point><coordinates>-122.295912,37.868664,0</coordinates></Point>
  </Placemark>
  <Placemark>
    <name>2227 Parker Street (1877)</name>
    <description><![CDATA[<b>2227 Parker Street</b><br>Built <b>1877</b> (City landmark date)<br>Designated 7/8/2024 &middot; SOM]]></description>
    <TimeSpan><begin>1877-01-01T00:00:00Z</begin></TimeSpan>
    <styleUrl>#lm</styleUrl>
    <Point><coordinates>-122.263560,37.862909,0</coordinates></Point>
  </Placemark>
  <Placemark>
    <name>2201 Blake Stre (1877)</name>
    <description><![CDATA[<b>2201 Blake Stre</b><br>Built <b>1877</b> (City landmark date)<br>Designated 12/5/2005 &middot; LM]]></description>
    <TimeSpan><begin>1877-01-01T00:00:00Z</begin></TimeSpan>
    <styleUrl>#lm</styleUrl>
    <Point><coordinates>-122.264810,37.863679,0</coordinates></Point>
  </Placemark>
  <Placemark>
    <name>2029 Durant Avenue (1877)</name>
    <description><![CDATA[<b>2029 Durant Avenue</b><br>Built <b>1877</b> (City landmark date)<br>Designated 3/16/1981 &middot; LM]]></description>
    <TimeSpan><begin>1877-01-01T00:00:00Z</begin></TimeSpan>
    <styleUrl>#lm</styleUrl>
    <Point><coordinates>-122.268794,37.866921,0</coordinates></Point>
  </Placemark>
  <Placemark>
    <name>926 Hearst Avenue (1879)</name>
    <description><![CDATA[<b>926 Hearst Avenue</b><br>Built <b>1879</b> (City landmark date)<br>Designated 12/15/1975 &middot; LM]]></description>
    <TimeSpan><begin>1879-01-01T00:00:00Z</begin></TimeSpan>
    <styleUrl>#lm</styleUrl>
    <Point><coordinates>-122.295651,37.869560,0</coordinates></Point>
  </Placemark>
  <Placemark>
    <name>2730 Dwight Way (1880)</name>
    <description><![CDATA[<b>2730 Dwight Way</b><br>Built <b>1880</b> (City landmark date)<br>Designated 2/6/1995 &middot; LM]]></description>
    <TimeSpan><begin>1880-01-01T00:00:00Z</begin></TimeSpan>
    <styleUrl>#lm</styleUrl>
    <Point><coordinates>-122.252259,37.865574,0</coordinates></Point>
  </Placemark>
  <Placemark>
    <name>1545 Dwight Way (1883)</name>
    <description><![CDATA[<b>1545 Dwight Way</b><br>Built <b>1883</b> (City landmark date)<br>Designated 8/5/2010 &middot; LM]]></description>
    <TimeSpan><begin>1883-01-01T00:00:00Z</begin></TimeSpan>
    <styleUrl>#lm</styleUrl>
    <Point><coordinates>-122.279466,37.862706,0</coordinates></Point>
  </Placemark>
  <Placemark>
    <name>2424 Fulton Str (1884)</name>
    <description><![CDATA[<b>2424 Fulton Str</b><br>Built <b>1884</b> (City landmark date)<br>Designated 6/2/2003 &middot; LM]]></description>
    <TimeSpan><begin>1884-01-01T00:00:00Z</begin></TimeSpan>
    <styleUrl>#lm</styleUrl>
    <Point><coordinates>-122.265623,37.864963,0</coordinates></Point>
  </Placemark>
  <Placemark>
    <name>2426 Fulton Str (1884)</name>
    <description><![CDATA[<b>2426 Fulton Str</b><br>Built <b>1884</b> (City landmark date)<br>Designated 6/2/2003 &middot; LM]]></description>
    <TimeSpan><begin>1884-01-01T00:00:00Z</begin></TimeSpan>
    <styleUrl>#lm</styleUrl>
    <Point><coordinates>-122.265743,37.864844,0</coordinates></Point>
  </Placemark>
  <Placemark>
    <name>2530 Dwight Way (1886)</name>
    <description><![CDATA[<b>2530 Dwight Way</b><br>Built <b>1886</b> (City landmark date)<br>Designated 4/6/1998 &middot; LM]]></description>
    <TimeSpan><begin>1886-01-01T00:00:00Z</begin></TimeSpan>
    <styleUrl>#lm</styleUrl>
    <Point><coordinates>-122.257079,37.864983,0</coordinates></Point>
  </Placemark>
  <Placemark>
    <name>21 Mosswood Lane Mosswood Road (1888)</name>
    <description><![CDATA[<b>21 Mosswood Lane Mosswood Road</b><br>Built <b>1888</b> (City landmark date)<br>Designated 3/6/2025 &middot; LM]]></description>
    <TimeSpan><begin>1888-01-01T00:00:00Z</begin></TimeSpan>
    <styleUrl>#lm</styleUrl>
    <Point><coordinates>-122.248522,37.870177,0</coordinates></Point>
  </Placemark>
  <Placemark>
    <name>1536 Oxford Street (1889)</name>
    <description><![CDATA[<b>1536 Oxford Street</b><br>Built <b>1889</b> (City landmark date)<br>Designated 6/21/1976 &middot; LM]]></description>
    <TimeSpan><begin>1889-01-01T00:00:00Z</begin></TimeSpan>
    <styleUrl>#lm</styleUrl>
    <Point><coordinates>-122.267369,37.879095,0</coordinates></Point>
  </Placemark>
  <Placemark>
    <name>2328 Channing Way (1889)</name>
    <description><![CDATA[<b>2328 Channing Way</b><br>Built <b>1889</b> (City landmark date)<br>Designated 7/2/2020 &middot; LM]]></description>
    <TimeSpan><begin>1889-01-01T00:00:00Z</begin></TimeSpan>
    <styleUrl>#lm</styleUrl>
    <Point><coordinates>-122.261903,37.866212,0</coordinates></Point>
  </Placemark>
  <Placemark>
    <name>839 Channing Way (1889)</name>
    <description><![CDATA[<b>839 Channing Way</b><br>Built <b>1889</b> (City landmark date)<br>Designated 6/21/1976 &middot; LM]]></description>
    <TimeSpan><begin>1889-01-01T00:00:00Z</begin></TimeSpan>
    <styleUrl>#lm</styleUrl>
    <Point><coordinates>-122.295139,37.862200,0</coordinates></Point>
  </Placemark>
  <Placemark>
    <name>2524 Dwight Way (1891)</name>
    <description><![CDATA[<b>2524 Dwight Way</b><br>Built <b>1891</b> (City landmark date)<br>Designated 9/13/1999 &middot; LM]]></description>
    <TimeSpan><begin>1891-01-01T00:00:00Z</begin></TimeSpan>
    <styleUrl>#lm</styleUrl>
    <Point><coordinates>-122.257372,37.864935,0</coordinates></Point>
  </Placemark>
  <Placemark>
    <name>1124 Addison Street (1891)</name>
    <description><![CDATA[<b>1124 Addison Street</b><br>Built <b>1891</b> (City landmark date)<br>Designated 7/9/2001 &middot; LM]]></description>
    <TimeSpan><begin>1891-01-01T00:00:00Z</begin></TimeSpan>
    <styleUrl>#lm</styleUrl>
    <Point><coordinates>-122.290486,37.868075,0</coordinates></Point>
  </Placemark>
  <Placemark>
    <name>2919 Lorina Street (1891)</name>
    <description><![CDATA[<b>2919 Lorina Street</b><br>Built <b>1891</b> (City landmark date)<br>Designated 9/8/1998 &middot; LM]]></description>
    <TimeSpan><begin>1891-01-01T00:00:00Z</begin></TimeSpan>
    <styleUrl>#lm</styleUrl>
    <Point><coordinates>-122.265306,37.856126,0</coordinates></Point>
  </Placemark>
  <Placemark>
    <name>2430 Fulton Str (1891)</name>
    <description><![CDATA[<b>2430 Fulton Str</b><br>Built <b>1891</b> (City landmark date)<br>Designated 5/5/2003 &middot; LM]]></description>
    <TimeSpan><begin>1891-01-01T00:00:00Z</begin></TimeSpan>
    <styleUrl>#lm</styleUrl>
    <Point><coordinates>-122.265707,37.864683,0</coordinates></Point>
  </Placemark>
  <Placemark>
    <name>1410 Bonita Avenue (1892)</name>
    <description><![CDATA[<b>1410 Bonita Avenue</b><br>Built <b>1892</b> (City landmark date)<br>Designated 10/5/1992 &middot; LM]]></description>
    <TimeSpan><begin>1892-01-01T00:00:00Z</begin></TimeSpan>
    <styleUrl>#lm</styleUrl>
    <Point><coordinates>-122.273390,37.881060,0</coordinates></Point>
  </Placemark>
  <Placemark>
    <name>2607 Hearst Avenue (1893)</name>
    <description><![CDATA[<b>2607 Hearst Avenue</b><br>Built <b>1893</b> (City landmark date)<br>Designated 11/15/1982 &middot; LM]]></description>
    <TimeSpan><begin>1893-01-01T00:00:00Z</begin></TimeSpan>
    <styleUrl>#lm</styleUrl>
    <Point><coordinates>-122.257140,37.875684,0</coordinates></Point>
  </Placemark>
  <Placemark>
    <name>1675 La Loma Avenue (1893)</name>
    <description><![CDATA[<b>1675 La Loma Avenue</b><br>Built <b>1893</b> (City landmark date)<br>Designated 10/7/1996 &middot; LM]]></description>
    <TimeSpan><begin>1893-01-01T00:00:00Z</begin></TimeSpan>
    <styleUrl>#lm</styleUrl>
    <Point><coordinates>-122.256820,37.878889,0</coordinates></Point>
  </Placemark>
  <Placemark>
    <name>1915 Addison 5      Street (1893)</name>
    <description><![CDATA[<b>1915 Addison 5      Street</b><br>Built <b>1893</b> (City landmark date)<br>Designated 1/5/2012 &middot; SOM]]></description>
    <TimeSpan><begin>1893-01-01T00:00:00Z</begin></TimeSpan>
    <styleUrl>#lm</styleUrl>
    <Point><coordinates>-122.272215,37.870913,0</coordinates></Point>
  </Placemark>
  <Placemark>
    <name>1335 Shattuck Avenue (1894)</name>
    <description><![CDATA[<b>1335 Shattuck Avenue</b><br>Built <b>1894</b> (City landmark date)<br>Designated 12/1/2016 &middot; LM]]></description>
    <TimeSpan><begin>1894-01-01T00:00:00Z</begin></TimeSpan>
    <styleUrl>#lm</styleUrl>
    <Point><coordinates>-122.269253,37.882695,0</coordinates></Point>
  </Placemark>
  <Placemark>
    <name>2375 Shattuck    Wa Avenue      Bu (1894)</name>
    <description><![CDATA[<b>2375 Shattuck    Wa Avenue      Bu</b><br>Built <b>1894</b> (City landmark date)<br>Designated 7/11/2005 &middot; LM]]></description>
    <TimeSpan><begin>1894-01-01T00:00:00Z</begin></TimeSpan>
    <styleUrl>#lm</styleUrl>
    <Point><coordinates>-122.267234,37.866226,0</coordinates></Point>
  </Placemark>
  <Placemark>
    <name>2117 Kittredge Street (1894)</name>
    <description><![CDATA[<b>2117 Kittredge Street</b><br>Built <b>1894</b> (City landmark date)<br>Designated 10/1/2001 &middot; SOM]]></description>
    <TimeSpan><begin>1894-01-01T00:00:00Z</begin></TimeSpan>
    <styleUrl>#lm</styleUrl>
    <Point><coordinates>-122.266941,37.868896,0</coordinates></Point>
  </Placemark>
  <Placemark>
    <name>2527 Piedmont Avenue (1894)</name>
    <description><![CDATA[<b>2527 Piedmont Avenue</b><br>Built <b>1894</b> (City landmark date)<br>Designated 11/2/1998 &middot; SOM]]></description>
    <TimeSpan><begin>1894-01-01T00:00:00Z</begin></TimeSpan>
    <styleUrl>#lm</styleUrl>
    <Point><coordinates>-122.251114,37.864786,0</coordinates></Point>
  </Placemark>
  <Placemark>
    <name>1770 Highland Place (1895)</name>
    <description><![CDATA[<b>1770 Highland Place</b><br>Built <b>1895</b> (City landmark date)<br>Designated 3/6/1995 &middot; LM]]></description>
    <TimeSpan><begin>1895-01-01T00:00:00Z</begin></TimeSpan>
    <styleUrl>#lm</styleUrl>
    <Point><coordinates>-122.256398,37.877158,0</coordinates></Point>
  </Placemark>
  <Placemark>
    <name>1755 Le Roy Avenue (1896)</name>
    <description><![CDATA[<b>1755 Le Roy Avenue</b><br>Built <b>1896</b> (City landmark date)<br>Designated 8/20/1990 &middot; SOM]]></description>
    <TimeSpan><begin>1896-01-01T00:00:00Z</begin></TimeSpan>
    <styleUrl>#lm</styleUrl>
    <Point><coordinates>-122.258289,37.876972,0</coordinates></Point>
  </Placemark>
  <Placemark>
    <name>2530 Shattuck Avenue      Un (1897)</name>
    <description><![CDATA[<b>2530 Shattuck Avenue      Un</b><br>Built <b>1897</b> (City landmark date)<br>Designated 9/28/2017 &middot; LM]]></description>
    <TimeSpan><begin>1897-01-01T00:00:00Z</begin></TimeSpan>
    <styleUrl>#lm</styleUrl>
    <Point><coordinates>-122.267811,37.863145,0</coordinates></Point>
  </Placemark>
  <Placemark>
    <name>2639 Durant Avenue (1897)</name>
    <description><![CDATA[<b>2639 Durant Avenue</b><br>Built <b>1897</b> (City landmark date)<br>Designated 11/3/1997 &middot; LM]]></description>
    <TimeSpan><begin>1897-01-01T00:00:00Z</begin></TimeSpan>
    <styleUrl>#lm</styleUrl>
    <Point><coordinates>-122.255067,37.868606,0</coordinates></Point>
  </Placemark>
  <Placemark>
    <name>2601 Hillegass Avenue (1897)</name>
    <description><![CDATA[<b>2601 Hillegass Avenue</b><br>Built <b>1897</b> (City landmark date)<br>Designated 3/3/2003 &middot; LM]]></description>
    <TimeSpan><begin>1897-01-01T00:00:00Z</begin></TimeSpan>
    <styleUrl>#lm</styleUrl>
    <Point><coordinates>-122.256063,37.863251,0</coordinates></Point>
  </Placemark>
  <Placemark>
    <name>2545 Benvenue Avenue (1897)</name>
    <description><![CDATA[<b>2545 Benvenue Avenue</b><br>Built <b>1897</b> (City landmark date)<br>Designated 7/7/1997 &middot; LM]]></description>
    <TimeSpan><begin>1897-01-01T00:00:00Z</begin></TimeSpan>
    <styleUrl>#lm</styleUrl>
    <Point><coordinates>-122.254610,37.863961,0</coordinates></Point>
  </Placemark>
  <Placemark>
    <name>2539 Benvenue Avenue (1897)</name>
    <description><![CDATA[<b>2539 Benvenue Avenue</b><br>Built <b>1897</b> (City landmark date)<br>Designated 7/7/1997 &middot; LM]]></description>
    <TimeSpan><begin>1897-01-01T00:00:00Z</begin></TimeSpan>
    <styleUrl>#lm</styleUrl>
    <Point><coordinates>-122.254641,37.864106,0</coordinates></Point>
  </Placemark>
  <Placemark>
    <name>2528 Benvenue Avenue (1899)</name>
    <description><![CDATA[<b>2528 Benvenue Avenue</b><br>Built <b>1899</b> (City landmark date)<br>Designated 6/18/1990 &middot; LM]]></description>
    <TimeSpan><begin>1899-01-01T00:00:00Z</begin></TimeSpan>
    <styleUrl>#lm</styleUrl>
    <Point><coordinates>-122.255433,37.864378,0</coordinates></Point>
  </Placemark>
  <Placemark>
    <name>2401 Dwight Way (1899)</name>
    <description><![CDATA[<b>2401 Dwight Way</b><br>Built <b>1899</b> (City landmark date)<br>Designated 12/15/1975 &middot; LM]]></description>
    <TimeSpan><begin>1899-01-01T00:00:00Z</begin></TimeSpan>
    <styleUrl>#lm</styleUrl>
    <Point><coordinates>-122.260561,37.865091,0</coordinates></Point>
  </Placemark>
  <Placemark>
    <name>2683 Le Conte Avenue (1900)</name>
    <description><![CDATA[<b>2683 Le Conte Avenue</b><br>Built <b>1900</b> (City landmark date)<br>Designated 2/2/1998 &middot; LM]]></description>
    <TimeSpan><begin>1900-01-01T00:00:00Z</begin></TimeSpan>
    <styleUrl>#lm</styleUrl>
    <Point><coordinates>-122.257433,37.877579,0</coordinates></Point>
  </Placemark>
  <Placemark>
    <name>1820 Scenic Avenue (1900)</name>
    <description><![CDATA[<b>1820 Scenic Avenue</b><br>Built <b>1900</b> (City landmark date)<br>Designated 1/13/1986 &middot; LM]]></description>
    <TimeSpan><begin>1900-01-01T00:00:00Z</begin></TimeSpan>
    <styleUrl>#lm</styleUrl>
    <Point><coordinates>-122.262573,37.875180,0</coordinates></Point>
  </Placemark>
  <Placemark>
    <name>2744 Telegraph Avenue (1901)</name>
    <description><![CDATA[<b>2744 Telegraph Avenue</b><br>Built <b>1901</b> (City landmark date)<br>Designated 9/18/1989 &middot; LM]]></description>
    <TimeSpan><begin>1901-01-01T00:00:00Z</begin></TimeSpan>
    <styleUrl>#lm</styleUrl>
    <Point><coordinates>-122.259697,37.859690,0</coordinates></Point>
  </Placemark>
  <Placemark>
    <name>1940 Hearst Avenue (1901)</name>
    <description><![CDATA[<b>1940 Hearst Avenue</b><br>Built <b>1901</b> (City landmark date)<br>Designated 3/3/2022 &middot; LM]]></description>
    <TimeSpan><begin>1901-01-01T00:00:00Z</begin></TimeSpan>
    <styleUrl>#lm</styleUrl>
    <Point><coordinates>-122.271188,37.873323,0</coordinates></Point>
  </Placemark>
  <Placemark>
    <name>1770 La Loma Avenue (1901)</name>
    <description><![CDATA[<b>1770 La Loma Avenue</b><br>Built <b>1901</b> (City landmark date)<br>Designated 8/3/2006 &middot; LM]]></description>
    <TimeSpan><begin>1901-01-01T00:00:00Z</begin></TimeSpan>
    <styleUrl>#lm</styleUrl>
    <Point><coordinates>-122.257268,37.876664,0</coordinates></Point>
  </Placemark>
  <Placemark>
    <name>2318 Durant Avenue (1901)</name>
    <description><![CDATA[<b>2318 Durant Avenue</b><br>Built <b>1901</b> (City landmark date)<br>Designated 8/18/1986 &middot; LM]]></description>
    <TimeSpan><begin>1901-01-01T00:00:00Z</begin></TimeSpan>
    <styleUrl>#lm</styleUrl>
    <Point><coordinates>-122.262474,37.866989,0</coordinates></Point>
  </Placemark>
  <Placemark>
    <name>936 Channing Way (1901)</name>
    <description><![CDATA[<b>936 Channing Way</b><br>Built <b>1901</b> (City landmark date)<br>Designated 2/22/1982 &middot; LM]]></description>
    <TimeSpan><begin>1901-01-01T00:00:00Z</begin></TimeSpan>
    <styleUrl>#lm</styleUrl>
    <Point><coordinates>-122.292992,37.862035,0</coordinates></Point>
  </Placemark>
  <Placemark>
    <name>2523 Piedmont Avenue (1901)</name>
    <description><![CDATA[<b>2523 Piedmont Avenue</b><br>Built <b>1901</b> (City landmark date)<br>Designated 2/3/2022 &middot; SOM]]></description>
    <TimeSpan><begin>1901-01-01T00:00:00Z</begin></TimeSpan>
    <styleUrl>#lm</styleUrl>
    <Point><coordinates>-122.251120,37.864958,0</coordinates></Point>
  </Placemark>
  <Placemark>
    <name>2517 Regent Street (1901)</name>
    <description><![CDATA[<b>2517 Regent Street</b><br>Built <b>1901</b> (City landmark date)<br>Designated 11/1/2012 &middot; SOM]]></description>
    <TimeSpan><begin>1901-01-01T00:00:00Z</begin></TimeSpan>
    <styleUrl>#lm</styleUrl>
    <Point><coordinates>-122.257322,37.864569,0</coordinates></Point>
  </Placemark>
  <Placemark>
    <name>2502 Dwight Way (1901)</name>
    <description><![CDATA[<b>2502 Dwight Way</b><br>Built <b>1901</b> (City landmark date)<br>Designated 1/12/2004 &middot; LM]]></description>
    <TimeSpan><begin>1901-01-01T00:00:00Z</begin></TimeSpan>
    <styleUrl>#lm</styleUrl>
    <Point><coordinates>-122.258132,37.864980,0</coordinates></Point>
  </Placemark>
  <Placemark>
    <name>2503 Regent Street (1902)</name>
    <description><![CDATA[<b>2503 Regent Street</b><br>Built <b>1902</b> (City landmark date)<br>Designated 10/2/2014 &middot; SOM]]></description>
    <TimeSpan><begin>1902-01-01T00:00:00Z</begin></TimeSpan>
    <styleUrl>#lm</styleUrl>
    <Point><coordinates>-122.257579,37.865050,0</coordinates></Point>
  </Placemark>
  <Placemark>
    <name>2124 Center Str (1902)</name>
    <description><![CDATA[<b>2124 Center Str</b><br>Built <b>1902</b> (City landmark date)<br>Designated 12/19/1983 &middot; LM]]></description>
    <TimeSpan><begin>1902-01-01T00:00:00Z</begin></TimeSpan>
    <styleUrl>#lm</styleUrl>
    <Point><coordinates>-122.267222,37.870115,0</coordinates></Point>
  </Placemark>
  <Placemark>
    <name>1736 Highland Place (1902)</name>
    <description><![CDATA[<b>1736 Highland Place</b><br>Built <b>1902</b> (City landmark date)<br>Designated 3/6/1995 &middot; LM]]></description>
    <TimeSpan><begin>1902-01-01T00:00:00Z</begin></TimeSpan>
    <styleUrl>#lm</styleUrl>
    <Point><coordinates>-122.256191,37.876975,0</coordinates></Point>
  </Placemark>
  <Placemark>
    <name>2811 Benvenue Avenue (1903)</name>
    <description><![CDATA[<b>2811 Benvenue Avenue</b><br>Built <b>1903</b> (City landmark date)<br>Designated 9/7/2006 &middot; LM]]></description>
    <TimeSpan><begin>1903-01-01T00:00:00Z</begin></TimeSpan>
    <styleUrl>#lm</styleUrl>
    <Point><coordinates>-122.254036,37.859442,0</coordinates></Point>
  </Placemark>
  <Placemark>
    <name>1777 Le Roy Avenue (1903)</name>
    <description><![CDATA[<b>1777 Le Roy Avenue</b><br>Built <b>1903</b> (City landmark date)<br>Designated 11/17/1986 &middot; LM]]></description>
    <TimeSpan><begin>1903-01-01T00:00:00Z</begin></TimeSpan>
    <styleUrl>#lm</styleUrl>
    <Point><coordinates>-122.258197,37.876677,0</coordinates></Point>
  </Placemark>
  <Placemark>
    <name>2509 Regent Street (1903)</name>
    <description><![CDATA[<b>2509 Regent Street</b><br>Built <b>1903</b> (City landmark date)<br>Designated 10/2/2014 &middot; SOM]]></description>
    <TimeSpan><begin>1903-01-01T00:00:00Z</begin></TimeSpan>
    <styleUrl>#lm</styleUrl>
    <Point><coordinates>-122.257547,37.864862,0</coordinates></Point>
  </Placemark>
  <Placemark>
    <name>3228 Adeline Street (1903)</name>
    <description><![CDATA[<b>3228 Adeline Street</b><br>Built <b>1903</b> (City landmark date)<br>Designated 7/19/1982 &middot; LM]]></description>
    <TimeSpan><begin>1903-01-01T00:00:00Z</begin></TimeSpan>
    <styleUrl>#lm</styleUrl>
    <Point><coordinates>-122.271441,37.849971,0</coordinates></Point>
  </Placemark>
  <Placemark>
    <name>3250 Adeline Street (1903)</name>
    <description><![CDATA[<b>3250 Adeline Street</b><br>Built <b>1903</b> (City landmark date)<br>Designated 7/19/1982 &middot; LM]]></description>
    <TimeSpan><begin>1903-01-01T00:00:00Z</begin></TimeSpan>
    <styleUrl>#lm</styleUrl>
    <Point><coordinates>-122.271617,37.849487,0</coordinates></Point>
  </Placemark>
  <Placemark>
    <name>1525 Shattuck Avenue (1903)</name>
    <description><![CDATA[<b>1525 Shattuck Avenue</b><br>Built <b>1903</b> (City landmark date)<br>Designated 5/1/2000 &middot; SOM]]></description>
    <TimeSpan><begin>1903-01-01T00:00:00Z</begin></TimeSpan>
    <styleUrl>#lm</styleUrl>
    <Point><coordinates>-122.268745,37.879289,0</coordinates></Point>
  </Placemark>
  <Placemark>
    <name>2511 Regent Street (1903)</name>
    <description><![CDATA[<b>2511 Regent Street</b><br>Built <b>1903</b> (City landmark date)<br>Designated 10/2/2014 &middot; SOM]]></description>
    <TimeSpan><begin>1903-01-01T00:00:00Z</begin></TimeSpan>
    <styleUrl>#lm</styleUrl>
    <Point><coordinates>-122.257513,37.864731,0</coordinates></Point>
  </Placemark>
  <Placemark>
    <name>2053 Berkeley W (1904)</name>
    <description><![CDATA[<b>2053 Berkeley W</b><br>Built <b>1904</b> (City landmark date)<br>Designated 1/12/2004 &middot; LM]]></description>
    <TimeSpan><begin>1904-01-01T00:00:00Z</begin></TimeSpan>
    <styleUrl>#lm</styleUrl>
    <Point><coordinates>-122.268834,37.873076,0</coordinates></Point>
  </Placemark>
  <Placemark>
    <name>15 Canyon Roa (1904)</name>
    <description><![CDATA[<b>15 Canyon Roa</b><br>Built <b>1904</b> (City landmark date)<br>Designated 6/7/1999 &middot; LM]]></description>
    <TimeSpan><begin>1904-01-01T00:00:00Z</begin></TimeSpan>
    <styleUrl>#lm</styleUrl>
    <Point><coordinates>-122.249460,37.870032,0</coordinates></Point>
  </Placemark>
  <Placemark>
    <name>2901 Benvenue Avenue (1904)</name>
    <description><![CDATA[<b>2901 Benvenue Avenue</b><br>Built <b>1904</b> (City landmark date)<br>Designated 3/1/2018 &middot; LM]]></description>
    <TimeSpan><begin>1904-01-01T00:00:00Z</begin></TimeSpan>
    <styleUrl>#lm</styleUrl>
    <Point><coordinates>-122.254084,37.858197,0</coordinates></Point>
  </Placemark>
  <Placemark>
    <name>1310 University Avenue (1904)</name>
    <description><![CDATA[<b>1310 University Avenue</b><br>Built <b>1904</b> (City landmark date)<br>Designated 9/10/2001 &middot; LM]]></description>
    <TimeSpan><begin>1904-01-01T00:00:00Z</begin></TimeSpan>
    <styleUrl>#lm</styleUrl>
    <Point><coordinates>-122.286280,37.869401,0</coordinates></Point>
  </Placemark>
  <Placemark>
    <name>2740 Telegraph Avenue (1905)</name>
    <description><![CDATA[<b>2740 Telegraph Avenue</b><br>Built <b>1905</b> (City landmark date)<br>Designated 9/18/1989 &middot; LM]]></description>
    <TimeSpan><begin>1905-01-01T00:00:00Z</begin></TimeSpan>
    <styleUrl>#lm</styleUrl>
    <Point><coordinates>-122.259506,37.859928,0</coordinates></Point>
  </Placemark>
  <Placemark>
    <name>2484 Shattuck Avenue      Ba (1905)</name>
    <description><![CDATA[<b>2484 Shattuck Avenue      Ba</b><br>Built <b>1905</b> (City landmark date)<br>Designated 1/16/1978 &middot; LM]]></description>
    <TimeSpan><begin>1905-01-01T00:00:00Z</begin></TimeSpan>
    <styleUrl>#lm</styleUrl>
    <Point><coordinates>-122.268054,37.864107,0</coordinates></Point>
  </Placemark>
  <Placemark>
    <name>2071 Addison Street (1905)</name>
    <description><![CDATA[<b>2071 Addison Street</b><br>Built <b>1905</b> (City landmark date)<br>Designated 12/19/1977 &middot; LM]]></description>
    <TimeSpan><begin>1905-01-01T00:00:00Z</begin></TimeSpan>
    <styleUrl>#lm</styleUrl>
    <Point><coordinates>-122.269032,37.871270,0</coordinates></Point>
  </Placemark>
  <Placemark>
    <name>1340 Arch Street (1905)</name>
    <description><![CDATA[<b>1340 Arch Street</b><br>Built <b>1905</b> (City landmark date)<br>Designated 11/2/2006 &middot; LM]]></description>
    <TimeSpan><begin>1905-01-01T00:00:00Z</begin></TimeSpan>
    <styleUrl>#lm</styleUrl>
    <Point><coordinates>-122.265270,37.882915,0</coordinates></Point>
  </Placemark>
  <Placemark>
    <name>2901 Channing Way (1905)</name>
    <description><![CDATA[<b>2901 Channing Way</b><br>Built <b>1905</b> (City landmark date)<br>Designated 8/6/1985 &middot; LM]]></description>
    <TimeSpan><begin>1905-01-01T00:00:00Z</begin></TimeSpan>
    <styleUrl>#lm</styleUrl>
    <Point><coordinates>-122.250470,37.868146,0</coordinates></Point>
  </Placemark>
  <Placemark>
    <name>1985 Ashby Avenue (1905)</name>
    <description><![CDATA[<b>1985 Ashby Avenue</b><br>Built <b>1905</b> (City landmark date)<br>Designated 12/6/2004 &middot; LM]]></description>
    <TimeSpan><begin>1905-01-01T00:00:00Z</begin></TimeSpan>
    <styleUrl>#lm</styleUrl>
    <Point><coordinates>-122.269674,37.854676,0</coordinates></Point>
  </Placemark>
  <Placemark>
    <name>3027 Adeline Street (1905)</name>
    <description><![CDATA[<b>3027 Adeline Street</b><br>Built <b>1905</b> (City landmark date)<br>Designated 9/7/2006 &middot; LM]]></description>
    <TimeSpan><begin>1905-01-01T00:00:00Z</begin></TimeSpan>
    <styleUrl>#lm</styleUrl>
    <Point><coordinates>-122.268791,37.854362,0</coordinates></Point>
  </Placemark>
  <Placemark>
    <name>2119 Addison Street (1906)</name>
    <description><![CDATA[<b>2119 Addison Street</b><br>Built <b>1906</b> (City landmark date)<br>Designated 4/7/2003 &middot; LM]]></description>
    <TimeSpan><begin>1906-01-01T00:00:00Z</begin></TimeSpan>
    <styleUrl>#lm</styleUrl>
    <Point><coordinates>-122.267172,37.871655,0</coordinates></Point>
  </Placemark>
  <Placemark>
    <name>2750 Adeline Street (1906)</name>
    <description><![CDATA[<b>2750 Adeline Street</b><br>Built <b>1906</b> (City landmark date)<br>Designated 8/9/2004 &middot; LM]]></description>
    <TimeSpan><begin>1906-01-01T00:00:00Z</begin></TimeSpan>
    <styleUrl>#lm</styleUrl>
    <Point><coordinates>-122.268194,37.858516,0</coordinates></Point>
  </Placemark>
  <Placemark>
    <name>3286 Adeline Street (1906)</name>
    <description><![CDATA[<b>3286 Adeline Street</b><br>Built <b>1906</b> (City landmark date)<br>Designated 7/19/1982 &middot; LM]]></description>
    <TimeSpan><begin>1906-01-01T00:00:00Z</begin></TimeSpan>
    <styleUrl>#lm</styleUrl>
    <Point><coordinates>-122.271966,37.848841,0</coordinates></Point>
  </Placemark>
  <Placemark>
    <name>2161 Shattuck Avenue      Th (1906)</name>
    <description><![CDATA[<b>2161 Shattuck Avenue      Th</b><br>Built <b>1906</b> (City landmark date)<br>Designated 9/8/2003 &middot; LM]]></description>
    <TimeSpan><begin>1906-01-01T00:00:00Z</begin></TimeSpan>
    <styleUrl>#lm</styleUrl>
    <Point><coordinates>-122.267387,37.870152,0</coordinates></Point>
  </Placemark>
  <Placemark>
    <name>2276 Shattuck Avenue      Mo (1906)</name>
    <description><![CDATA[<b>2276 Shattuck Avenue      Mo</b><br>Built <b>1906</b> (City landmark date)<br>Designated 6/18/1979 &middot; LM]]></description>
    <TimeSpan><begin>1906-01-01T00:00:00Z</begin></TimeSpan>
    <styleUrl>#lm</styleUrl>
    <Point><coordinates>-122.268278,37.867715,0</coordinates></Point>
  </Placemark>
  <Placemark>
    <name>2231 Shattuck    Br Avenue      Bl (1906)</name>
    <description><![CDATA[<b>2231 Shattuck    Br Avenue      Bl</b><br>Built <b>1906</b> (City landmark date)<br>Designated 4/7/2003 &middot; LM]]></description>
    <TimeSpan><begin>1906-01-01T00:00:00Z</begin></TimeSpan>
    <styleUrl>#lm</styleUrl>
    <Point><coordinates>-122.267459,37.868718,0</coordinates></Point>
  </Placemark>
  <Placemark>
    <name>1772 Le Roy Avenue (1907)</name>
    <description><![CDATA[<b>1772 Le Roy Avenue</b><br>Built <b>1907</b> (City landmark date)<br>Designated 3/19/1990 &middot; LM]]></description>
    <TimeSpan><begin>1907-01-01T00:00:00Z</begin></TimeSpan>
    <styleUrl>#lm</styleUrl>
    <Point><coordinates>-122.258857,37.876739,0</coordinates></Point>
  </Placemark>
  <Placemark>
    <name>1515 La Loma Avenue (1907)</name>
    <description><![CDATA[<b>1515 La Loma Avenue</b><br>Built <b>1907</b> (City landmark date)<br>Designated 6/21/1976 &middot; LM]]></description>
    <TimeSpan><begin>1907-01-01T00:00:00Z</begin></TimeSpan>
    <styleUrl>#lm</styleUrl>
    <Point><coordinates>-122.258018,37.881201,0</coordinates></Point>
  </Placemark>
  <Placemark>
    <name>1325 Arch Street (1907)</name>
    <description><![CDATA[<b>1325 Arch Street</b><br>Built <b>1907</b> (City landmark date)<br>Designated 8/5/2021 &middot; LM]]></description>
    <TimeSpan><begin>1907-01-01T00:00:00Z</begin></TimeSpan>
    <styleUrl>#lm</styleUrl>
    <Point><coordinates>-122.264794,37.883580,0</coordinates></Point>
  </Placemark>
  <Placemark>
    <name>2640 College Avenue (1908)</name>
    <description><![CDATA[<b>2640 College Avenue</b><br>Built <b>1908</b> (City landmark date)<br>Designated 12/15/1975 &middot; LM]]></description>
    <TimeSpan><begin>1908-01-01T00:00:00Z</begin></TimeSpan>
    <styleUrl>#lm</styleUrl>
    <Point><coordinates>-122.254249,37.862215,0</coordinates></Point>
  </Placemark>
  <Placemark>
    <name>2911 Russell Street (1908)</name>
    <description><![CDATA[<b>2911 Russell Street</b><br>Built <b>1908</b> (City landmark date)<br>Designated 5/14/1979 &middot; LM]]></description>
    <TimeSpan><begin>1908-01-01T00:00:00Z</begin></TimeSpan>
    <styleUrl>#lm</styleUrl>
    <Point><coordinates>-122.247887,37.859182,0</coordinates></Point>
  </Placemark>
  <Placemark>
    <name>2211 Rose Street (1908)</name>
    <description><![CDATA[<b>2211 Rose Street</b><br>Built <b>1908</b> (City landmark date)<br>Designated 9/19/1988 &middot; SOM]]></description>
    <TimeSpan><begin>1908-01-01T00:00:00Z</begin></TimeSpan>
    <styleUrl>#lm</styleUrl>
    <Point><coordinates>-122.266734,37.882660,0</coordinates></Point>
  </Placemark>
  <Placemark>
    <name>2611 Ashby Avenue (1908)</name>
    <description><![CDATA[<b>2611 Ashby Avenue</b><br>Built <b>1908</b> (City landmark date)<br>Designated 4/5/2007 &middot; LM]]></description>
    <TimeSpan><begin>1908-01-01T00:00:00Z</begin></TimeSpan>
    <styleUrl>#lm</styleUrl>
    <Point><coordinates>-122.255004,37.857037,0</coordinates></Point>
  </Placemark>
  <Placemark>
    <name>2624 Hillegass Avenue (1908)</name>
    <description><![CDATA[<b>2624 Hillegass Avenue</b><br>Built <b>1908</b> (City landmark date)<br>Designated 5/15/1989 &middot; LM]]></description>
    <TimeSpan><begin>1908-01-01T00:00:00Z</begin></TimeSpan>
    <styleUrl>#lm</styleUrl>
    <Point><coordinates>-122.256723,37.862422,0</coordinates></Point>
  </Placemark>
  <Placemark>
    <name>45 Oak Ridge Road (1909)</name>
    <description><![CDATA[<b>45 Oak Ridge Road</b><br>Built <b>1909</b> (City landmark date)<br>Designated 2/2/2004 &middot; LM]]></description>
    <TimeSpan><begin>1909-01-01T00:00:00Z</begin></TimeSpan>
    <styleUrl>#lm</styleUrl>
    <Point><coordinates>-122.241879,37.856630,0</coordinates></Point>
  </Placemark>
  <Placemark>
    <name>920 Shattuck Avenue (1909)</name>
    <description><![CDATA[<b>920 Shattuck Avenue</b><br>Built <b>1909</b> (City landmark date)<br>Designated 6/6/1994 &middot; LM]]></description>
    <TimeSpan><begin>1909-01-01T00:00:00Z</begin></TimeSpan>
    <styleUrl>#lm</styleUrl>
    <Point><coordinates>-122.270495,37.890493,0</coordinates></Point>
  </Placemark>
  <Placemark>
    <name>2307 Piedmont Avenue (1909)</name>
    <description><![CDATA[<b>2307 Piedmont Avenue</b><br>Built <b>1909</b> (City landmark date)<br>Designated 12/15/1975 &middot; LM]]></description>
    <TimeSpan><begin>1909-01-01T00:00:00Z</begin></TimeSpan>
    <styleUrl>#lm</styleUrl>
    <Point><coordinates>-122.251820,37.868987,0</coordinates></Point>
  </Placemark>
  <Placemark>
    <name>2001 Allston Way (1910)</name>
    <description><![CDATA[<b>2001 Allston Way</b><br>Built <b>1910</b> (City landmark date)<br>Designated 2/22/1990 &middot; LM]]></description>
    <TimeSpan><begin>1910-01-01T00:00:00Z</begin></TimeSpan>
    <styleUrl>#lm</styleUrl>
    <Point><coordinates>-122.269849,37.869524,0</coordinates></Point>
  </Placemark>
  <Placemark>
    <name>18 Alvarado Street (1910)</name>
    <description><![CDATA[<b>18 Alvarado Street</b><br>Built <b>1910</b> (City landmark date)<br>Designated 10/3/2013 &middot; LM]]></description>
    <TimeSpan><begin>1910-01-01T00:00:00Z</begin></TimeSpan>
    <styleUrl>#lm</styleUrl>
    <Point><coordinates>-122.239404,37.856304,0</coordinates></Point>
  </Placemark>
  <Placemark>
    <name>2119 Marin Avenue (1910)</name>
    <description><![CDATA[<b>2119 Marin Avenue</b><br>Built <b>1910</b> (City landmark date)<br>Designated 9/1/2022 &middot; SOM]]></description>
    <TimeSpan><begin>1910-01-01T00:00:00Z</begin></TimeSpan>
    <styleUrl>#lm</styleUrl>
    <Point><coordinates>-122.270702,37.891570,0</coordinates></Point>
  </Placemark>
  <Placemark>
    <name>2619 Dwight Way (1910)</name>
    <description><![CDATA[<b>2619 Dwight Way</b><br>Built <b>1910</b> (City landmark date)<br>Designated 12/15/1975 &middot; LM]]></description>
    <TimeSpan><begin>1910-01-01T00:00:00Z</begin></TimeSpan>
    <styleUrl>#lm</styleUrl>
    <Point><coordinates>-122.255731,37.865753,0</coordinates></Point>
  </Placemark>
  <Placemark>
    <name>2154 University Avenue (1911)</name>
    <description><![CDATA[<b>2154 University Avenue</b><br>Built <b>1911</b> (City landmark date)<br>Designated 6/7/2004 &middot; LM]]></description>
    <TimeSpan><begin>1911-01-01T00:00:00Z</begin></TimeSpan>
    <styleUrl>#lm</styleUrl>
    <Point><coordinates>-122.266990,37.871910,0</coordinates></Point>
  </Placemark>
  <Placemark>
    <name>883 Arlington (1911)</name>
    <description><![CDATA[<b>883 Arlington</b><br>Built <b>1911</b> (City landmark date)<br>Designated 7/14/2003 &middot; LM]]></description>
    <TimeSpan><begin>1911-01-01T00:00:00Z</begin></TimeSpan>
    <styleUrl>#lm</styleUrl>
    <Point><coordinates>-122.274071,37.892591,0</coordinates></Point>
  </Placemark>
  <Placemark>
    <name>2520 Durant Avenue (1911)</name>
    <description><![CDATA[<b>2520 Durant Avenue</b><br>Built <b>1911</b> (City landmark date)<br>Designated 9/13/1999 &middot; LM]]></description>
    <TimeSpan><begin>1911-01-01T00:00:00Z</begin></TimeSpan>
    <styleUrl>#lm</styleUrl>
    <Point><coordinates>-122.257922,37.867703,0</coordinates></Point>
  </Placemark>
  <Placemark>
    <name>2429 Shattuck Avenue      Mo (1911)</name>
    <description><![CDATA[<b>2429 Shattuck Avenue      Mo</b><br>Built <b>1911</b> (City landmark date)<br>Designated 5/21/1984 &middot; LM]]></description>
    <TimeSpan><begin>1911-01-01T00:00:00Z</begin></TimeSpan>
    <styleUrl>#lm</styleUrl>
    <Point><coordinates>-122.267071,37.865204,0</coordinates></Point>
  </Placemark>
  <Placemark>
    <name>1865 Euclid Avenue (1912)</name>
    <description><![CDATA[<b>1865 Euclid Avenue</b><br>Built <b>1912</b> (City landmark date)<br>Designated 9/8/1998 &middot; LM]]></description>
    <TimeSpan><begin>1912-01-01T00:00:00Z</begin></TimeSpan>
    <styleUrl>#lm</styleUrl>
    <Point><coordinates>-122.259958,37.875316,0</coordinates></Point>
  </Placemark>
  <Placemark>
    <name>1802 Fairview Street (1912)</name>
    <description><![CDATA[<b>1802 Fairview Street</b><br>Built <b>1912</b> (City landmark date)<br>Designated 6/21/1976 &middot; LM]]></description>
    <TimeSpan><begin>1912-01-01T00:00:00Z</begin></TimeSpan>
    <styleUrl>#lm</styleUrl>
    <Point><coordinates>-122.272500,37.850177,0</coordinates></Point>
  </Placemark>
  <Placemark>
    <name>2724 Haste Stre (1912)</name>
    <description><![CDATA[<b>2724 Haste Stre</b><br>Built <b>1912</b> (City landmark date)<br>Designated 3/7/2005 &middot; LM]]></description>
    <TimeSpan><begin>1912-01-01T00:00:00Z</begin></TimeSpan>
    <styleUrl>#lm</styleUrl>
    <Point><coordinates>-122.252792,37.866369,0</coordinates></Point>
  </Placemark>
  <Placemark>
    <name>1401 Le Roy Avenue (1912)</name>
    <description><![CDATA[<b>1401 Le Roy Avenue</b><br>Built <b>1912</b> (City landmark date)<br>Designated 3/21/1977 &middot; LM]]></description>
    <TimeSpan><begin>1912-01-01T00:00:00Z</begin></TimeSpan>
    <styleUrl>#lm</styleUrl>
    <Point><coordinates>-122.260353,37.883039,0</coordinates></Point>
  </Placemark>
  <Placemark>
    <name>1960 San Antoni Avenue (1912)</name>
    <description><![CDATA[<b>1960 San Antoni Avenue</b><br>Built <b>1912</b> (City landmark date)<br>Designated 7/10/2000 &middot; LM]]></description>
    <TimeSpan><begin>1912-01-01T00:00:00Z</begin></TimeSpan>
    <styleUrl>#lm</styleUrl>
    <Point><coordinates>-122.275758,37.898892,0</coordinates></Point>
  </Placemark>
  <Placemark>
    <name>2138 Cedar Stre (1913)</name>
    <description><![CDATA[<b>2138 Cedar Stre</b><br>Built <b>1913</b> (City landmark date)<br>Designated 1/4/1999 &middot; LM]]></description>
    <TimeSpan><begin>1913-01-01T00:00:00Z</begin></TimeSpan>
    <styleUrl>#lm</styleUrl>
    <Point><coordinates>-122.267419,37.878432,0</coordinates></Point>
  </Placemark>
  <Placemark>
    <name>2409 College Avenue (1913)</name>
    <description><![CDATA[<b>2409 College Avenue</b><br>Built <b>1913</b> (City landmark date)<br>Designated 2/5/2015 &middot; LM]]></description>
    <TimeSpan><begin>1913-01-01T00:00:00Z</begin></TimeSpan>
    <styleUrl>#lm</styleUrl>
    <Point><coordinates>-122.253822,37.867201,0</coordinates></Point>
  </Placemark>
  <Placemark>
    <name>60 Panoramic Way (1913)</name>
    <description><![CDATA[<b>60 Panoramic Way</b><br>Built <b>1913</b> (City landmark date)<br>Designated 7/6/2023 &middot; SOM]]></description>
    <TimeSpan><begin>1913-01-01T00:00:00Z</begin></TimeSpan>
    <styleUrl>#lm</styleUrl>
    <Point><coordinates>-122.248092,37.868065,0</coordinates></Point>
  </Placemark>
  <Placemark>
    <name>1841 Marin Avenue (1913)</name>
    <description><![CDATA[<b>1841 Marin Avenue</b><br>Built <b>1913</b> (City landmark date)<br>Designated 1/8/2001 &middot; LM]]></description>
    <TimeSpan><begin>1913-01-01T00:00:00Z</begin></TimeSpan>
    <styleUrl>#lm</styleUrl>
    <Point><coordinates>-122.277023,37.889078,0</coordinates></Point>
  </Placemark>
  <Placemark>
    <name>2018 Allston Way (1913)</name>
    <description><![CDATA[<b>2018 Allston Way</b><br>Built <b>1913</b> (City landmark date)<br>Designated 10/7/1991 &middot; LM]]></description>
    <TimeSpan><begin>1913-01-01T00:00:00Z</begin></TimeSpan>
    <styleUrl>#lm</styleUrl>
    <Point><coordinates>-122.269499,37.868919,0</coordinates></Point>
  </Placemark>
  <Placemark>
    <name>2500 Rose Walk (1913)</name>
    <description><![CDATA[<b>2500 Rose Walk</b><br>Built <b>1913</b> (City landmark date)<br>Designated 12/15/1975 &middot; LM]]></description>
    <TimeSpan><begin>1913-01-01T00:00:00Z</begin></TimeSpan>
    <styleUrl>#lm</styleUrl>
    <Point><coordinates>-122.261470,37.882987,0</coordinates></Point>
  </Placemark>
  <Placemark>
    <name>2126 Bancroft Way (1913)</name>
    <description><![CDATA[<b>2126 Bancroft Way</b><br>Built <b>1913</b> (City landmark date)<br>Designated 4/12/1993 &middot; LM]]></description>
    <TimeSpan><begin>1913-01-01T00:00:00Z</begin></TimeSpan>
    <styleUrl>#lm</styleUrl>
    <Point><coordinates>-122.266441,37.867564,0</coordinates></Point>
  </Placemark>
  <Placemark>
    <name>1730 Spruce Street (1914)</name>
    <description><![CDATA[<b>1730 Spruce Street</b><br>Built <b>1914</b> (City landmark date)<br>Designated 10/16/1989 &middot; LM]]></description>
    <TimeSpan><begin>1914-01-01T00:00:00Z</begin></TimeSpan>
    <styleUrl>#lm</styleUrl>
    <Point><coordinates>-122.265671,37.876497,0</coordinates></Point>
  </Placemark>
  <Placemark>
    <name>1317 San Pablo Avenue (1914)</name>
    <description><![CDATA[<b>1317 San Pablo Avenue</b><br>Built <b>1914</b> (City landmark date)<br>Designated 9/8/1992 &middot; LM]]></description>
    <TimeSpan><begin>1914-01-01T00:00:00Z</begin></TimeSpan>
    <styleUrl>#lm</styleUrl>
    <Point><coordinates>-122.295355,37.880109,0</coordinates></Point>
  </Placemark>
  <Placemark>
    <name>2717 Hearst Avenue (1914)</name>
    <description><![CDATA[<b>2717 Hearst Avenue</b><br>Built <b>1914</b> (City landmark date)<br>Designated 5/24/1982 &middot; LM]]></description>
    <TimeSpan><begin>1914-01-01T00:00:00Z</begin></TimeSpan>
    <styleUrl>#lm</styleUrl>
    <Point><coordinates>-122.256033,37.875897,0</coordinates></Point>
  </Placemark>
  <Placemark>
    <name>2500 Durant Avenue (1914)</name>
    <description><![CDATA[<b>2500 Durant Avenue</b><br>Built <b>1914</b> (City landmark date)<br>Designated 9/6/2007 &middot; LM]]></description>
    <TimeSpan><begin>1914-01-01T00:00:00Z</begin></TimeSpan>
    <styleUrl>#lm</styleUrl>
    <Point><coordinates>-122.258658,37.867587,0</coordinates></Point>
  </Placemark>
  <Placemark>
    <name>2966 College Avenue (1914)</name>
    <description><![CDATA[<b>2966 College Avenue</b><br>Built <b>1914</b> (City landmark date)<br>Designated 5/24/1982 &middot; LM]]></description>
    <TimeSpan><begin>1914-01-01T00:00:00Z</begin></TimeSpan>
    <styleUrl>#lm</styleUrl>
    <Point><coordinates>-122.253268,37.856675,0</coordinates></Point>
  </Placemark>
  <Placemark>
    <name>1730 La Loma Avenue (1914)</name>
    <description><![CDATA[<b>1730 La Loma Avenue</b><br>Built <b>1914</b> (City landmark date)<br>Designated 1/4/1999 &middot; LM]]></description>
    <TimeSpan><begin>1914-01-01T00:00:00Z</begin></TimeSpan>
    <styleUrl>#lm</styleUrl>
    <Point><coordinates>-122.257398,37.877059,0</coordinates></Point>
  </Placemark>
  <Placemark>
    <name>2118 Marin Avenue (1914)</name>
    <description><![CDATA[<b>2118 Marin Avenue</b><br>Built <b>1914</b> (City landmark date)<br>Designated 8/2/1999 &middot; LM]]></description>
    <TimeSpan><begin>1914-01-01T00:00:00Z</begin></TimeSpan>
    <styleUrl>#lm</styleUrl>
    <Point><coordinates>-122.270219,37.891148,0</coordinates></Point>
  </Placemark>
  <Placemark>
    <name>1414 Walnut Avenue (1915)</name>
    <description><![CDATA[<b>1414 Walnut Avenue</b><br>Built <b>1915</b> (City landmark date)<br>Designated 5/20/1980 &middot; LM]]></description>
    <TimeSpan><begin>1915-01-01T00:00:00Z</begin></TimeSpan>
    <styleUrl>#lm</styleUrl>
    <Point><coordinates>-122.268638,37.881337,0</coordinates></Point>
  </Placemark>
  <Placemark>
    <name>2508 Ridge Road (1915)</name>
    <description><![CDATA[<b>2508 Ridge Road</b><br>Built <b>1915</b> (City landmark date)<br>Designated 2/4/2016 &middot; LM]]></description>
    <TimeSpan><begin>1915-01-01T00:00:00Z</begin></TimeSpan>
    <styleUrl>#lm</styleUrl>
    <Point><coordinates>-122.259768,37.875717,0</coordinates></Point>
  </Placemark>
  <Placemark>
    <name>2030 Bancroft Way (1915)</name>
    <description><![CDATA[<b>2030 Bancroft Way</b><br>Built <b>1915</b> (City landmark date)<br>Designated 4/6/2017 &middot; LM]]></description>
    <TimeSpan><begin>1915-01-01T00:00:00Z</begin></TimeSpan>
    <styleUrl>#lm</styleUrl>
    <Point><coordinates>-122.268686,37.867140,0</coordinates></Point>
  </Placemark>
  <Placemark>
    <name>740 Heinz Street (1916)</name>
    <description><![CDATA[<b>740 Heinz Street</b><br>Built <b>1916</b> (City landmark date)<br>Designated 8/6/1985 &middot; LM]]></description>
    <TimeSpan><begin>1916-01-01T00:00:00Z</begin></TimeSpan>
    <styleUrl>#lm</styleUrl>
    <Point><coordinates>-122.294841,37.852639,0</coordinates></Point>
  </Placemark>
  <Placemark>
    <name>2014 Shattuck Avenue      He (1917)</name>
    <description><![CDATA[<b>2014 Shattuck Avenue      He</b><br>Built <b>1917</b> (City landmark date)<br>Designated 4/12/1993 &middot; LM]]></description>
    <TimeSpan><begin>1917-01-01T00:00:00Z</begin></TimeSpan>
    <styleUrl>#lm</styleUrl>
    <Point><coordinates>-122.268681,37.871643,0</coordinates></Point>
  </Placemark>
  <Placemark>
    <name>1962 Yosemite Road (1920)</name>
    <description><![CDATA[<b>1962 Yosemite Road</b><br>Built <b>1920</b> (City landmark date)<br>Designated 6/3/2002 &middot; LM]]></description>
    <TimeSpan><begin>1920-01-01T00:00:00Z</begin></TimeSpan>
    <styleUrl>#lm</styleUrl>
    <Point><coordinates>-122.276570,37.895749,0</coordinates></Point>
  </Placemark>
  <Placemark>
    <name>2944 Elmwood 4      Court (1920)</name>
    <description><![CDATA[<b>2944 Elmwood 4      Court</b><br>Built <b>1920</b> (City landmark date)<br>Designated 7/1/2002 &middot; SOM]]></description>
    <TimeSpan><begin>1920-01-01T00:00:00Z</begin></TimeSpan>
    <styleUrl>#lm</styleUrl>
    <Point><coordinates>-122.247621,37.857090,0</coordinates></Point>
  </Placemark>
  <Placemark>
    <name>1475 Rose Stree (1921)</name>
    <description><![CDATA[<b>1475 Rose Stree</b><br>Built <b>1921</b> (City landmark date)<br>Designated 3/16/1987 &middot; LM]]></description>
    <TimeSpan><begin>1921-01-01T00:00:00Z</begin></TimeSpan>
    <styleUrl>#lm</styleUrl>
    <Point><coordinates>-122.283603,37.879146,0</coordinates></Point>
  </Placemark>
  <Placemark>
    <name>2300 Shattuck Avenue      Co (1921)</name>
    <description><![CDATA[<b>2300 Shattuck Avenue      Co</b><br>Built <b>1921</b> (City landmark date)<br>Designated 10/19/1981 &middot; LM]]></description>
    <TimeSpan><begin>1921-01-01T00:00:00Z</begin></TimeSpan>
    <styleUrl>#lm</styleUrl>
    <Point><coordinates>-122.268376,37.867191,0</coordinates></Point>
  </Placemark>
  <Placemark>
    <name>1952 University Avenue (1922)</name>
    <description><![CDATA[<b>1952 University Avenue</b><br>Built <b>1922</b> (City landmark date)<br>Designated 10/8/2003 &middot; LM]]></description>
    <TimeSpan><begin>1922-01-01T00:00:00Z</begin></TimeSpan>
    <styleUrl>#lm</styleUrl>
    <Point><coordinates>-122.271485,37.871408,0</coordinates></Point>
  </Placemark>
  <Placemark>
    <name>1500 Derby Stre (1922)</name>
    <description><![CDATA[<b>1500 Derby Stre</b><br>Built <b>1922</b> (City landmark date)<br>Designated 12/2/1996 &middot; LM]]></description>
    <TimeSpan><begin>1922-01-01T00:00:00Z</begin></TimeSpan>
    <styleUrl>#lm</styleUrl>
    <Point><coordinates>-122.278981,37.858399,0</coordinates></Point>
  </Placemark>
  <Placemark>
    <name>147 Tunnel Road (1922)</name>
    <description><![CDATA[<b>147 Tunnel Road</b><br>Built <b>1922</b> (City landmark date)<br>Designated 7/9/2001 &middot; SOM]]></description>
    <TimeSpan><begin>1922-01-01T00:00:00Z</begin></TimeSpan>
    <styleUrl>#lm</styleUrl>
    <Point><coordinates>-122.238658,37.855499,0</coordinates></Point>
  </Placemark>
  <Placemark>
    <name>2947 College Avenue (1923)</name>
    <description><![CDATA[<b>2947 College Avenue</b><br>Built <b>1923</b> (City landmark date)<br>Designated 4/6/2006 &middot; LM]]></description>
    <TimeSpan><begin>1923-01-01T00:00:00Z</begin></TimeSpan>
    <styleUrl>#lm</styleUrl>
    <Point><coordinates>-122.252726,37.857452,0</coordinates></Point>
  </Placemark>
  <Placemark>
    <name>2130 Center Str (1923)</name>
    <description><![CDATA[<b>2130 Center Str</b><br>Built <b>1923</b> (City landmark date)<br>Designated 11/2/2006 &middot; LM]]></description>
    <TimeSpan><begin>1923-01-01T00:00:00Z</begin></TimeSpan>
    <styleUrl>#lm</styleUrl>
    <Point><coordinates>-122.267025,37.870120,0</coordinates></Point>
  </Placemark>
  <Placemark>
    <name>2500 Shattuck Avenue (1923)</name>
    <description><![CDATA[<b>2500 Shattuck Avenue</b><br>Built <b>1923</b> (City landmark date)<br>Designated 2/1/2018 &middot; SOM]]></description>
    <TimeSpan><begin>1923-01-01T00:00:00Z</begin></TimeSpan>
    <styleUrl>#lm</styleUrl>
    <Point><coordinates>-122.267765,37.863756,0</coordinates></Point>
  </Placemark>
  <Placemark>
    <name>1537 Euclid Avenue (1923)</name>
    <description><![CDATA[<b>1537 Euclid Avenue</b><br>Built <b>1923</b> (City landmark date)<br>Designated 7/21/1986 &middot; LM]]></description>
    <TimeSpan><begin>1923-01-01T00:00:00Z</begin></TimeSpan>
    <styleUrl>#lm</styleUrl>
    <Point><coordinates>-122.261283,37.880687,0</coordinates></Point>
  </Placemark>
  <Placemark>
    <name>2222 Harold Way (1923)</name>
    <description><![CDATA[<b>2222 Harold Way</b><br>Built <b>1923</b> (City landmark date)<br>Designated 9/6/1994 &middot; LM]]></description>
    <TimeSpan><begin>1923-01-01T00:00:00Z</begin></TimeSpan>
    <styleUrl>#lm</styleUrl>
    <Point><coordinates>-122.269540,37.868500,0</coordinates></Point>
  </Placemark>
  <Placemark>
    <name>1427 Hawthorne Terrace (1924)</name>
    <description><![CDATA[<b>1427 Hawthorne Terrace</b><br>Built <b>1924</b> (City landmark date)<br>Designated 7/14/2003 &middot; LM]]></description>
    <TimeSpan><begin>1924-01-01T00:00:00Z</begin></TimeSpan>
    <styleUrl>#lm</styleUrl>
    <Point><coordinates>-122.262412,37.882284,0</coordinates></Point>
  </Placemark>
  <Placemark>
    <name>1440 Hawthorne Terrace (1924)</name>
    <description><![CDATA[<b>1440 Hawthorne Terrace</b><br>Built <b>1924</b> (City landmark date)<br>Designated 7/2/2019 &middot; LM]]></description>
    <TimeSpan><begin>1924-01-01T00:00:00Z</begin></TimeSpan>
    <styleUrl>#lm</styleUrl>
    <Point><coordinates>-122.262964,37.881637,0</coordinates></Point>
  </Placemark>
  <Placemark>
    <name>1500 Le Roy Avenue (1924)</name>
    <description><![CDATA[<b>1500 Le Roy Avenue</b><br>Built <b>1924</b> (City landmark date)<br>Designated 10/2/1995 &middot; LM]]></description>
    <TimeSpan><begin>1924-01-01T00:00:00Z</begin></TimeSpan>
    <styleUrl>#lm</styleUrl>
    <Point><coordinates>-122.260634,37.881788,0</coordinates></Point>
  </Placemark>
  <Placemark>
    <name>2054 University Avenue (1924)</name>
    <description><![CDATA[<b>2054 University Avenue</b><br>Built <b>1924</b> (City landmark date)<br>Designated 9/3/2009 &middot; LM]]></description>
    <TimeSpan><begin>1924-01-01T00:00:00Z</begin></TimeSpan>
    <styleUrl>#lm</styleUrl>
    <Point><coordinates>-122.269435,37.871630,0</coordinates></Point>
  </Placemark>
  <Placemark>
    <name>2286 Cedar Stre (1924)</name>
    <description><![CDATA[<b>2286 Cedar Stre</b><br>Built <b>1924</b> (City landmark date)<br>Designated 1/12/2004 &middot; LM]]></description>
    <TimeSpan><begin>1924-01-01T00:00:00Z</begin></TimeSpan>
    <styleUrl>#lm</styleUrl>
    <Point><coordinates>-122.264887,37.878758,0</coordinates></Point>
  </Placemark>
  <Placemark>
    <name>1450 Hawthorne Terrace (1924)</name>
    <description><![CDATA[<b>1450 Hawthorne Terrace</b><br>Built <b>1924</b> (City landmark date)<br>Designated 9/5/2019 &middot; LM]]></description>
    <TimeSpan><begin>1924-01-01T00:00:00Z</begin></TimeSpan>
    <styleUrl>#lm</styleUrl>
    <Point><coordinates>-122.262895,37.881299,0</coordinates></Point>
  </Placemark>
  <Placemark>
    <name>2800 Buena Vist Way (1924)</name>
    <description><![CDATA[<b>2800 Buena Vist Way</b><br>Built <b>1924</b> (City landmark date)<br>Designated 1/6/1992 &middot; LM]]></description>
    <TimeSpan><begin>1924-01-01T00:00:00Z</begin></TimeSpan>
    <styleUrl>#lm</styleUrl>
    <Point><coordinates>-122.256137,37.880735,0</coordinates></Point>
  </Placemark>
  <Placemark>
    <name>2271 Shattuck    Tu Avenue      Bu (1925)</name>
    <description><![CDATA[<b>2271 Shattuck    Tu Avenue      Bu</b><br>Built <b>1925</b> (City landmark date)<br>Designated 3/19/1984 &middot; LM]]></description>
    <TimeSpan><begin>1925-01-01T00:00:00Z</begin></TimeSpan>
    <styleUrl>#lm</styleUrl>
    <Point><coordinates>-122.267383,37.868174,0</coordinates></Point>
  </Placemark>
  <Placemark>
    <name>2277 Shattuck    Th Avenue      St (1925)</name>
    <description><![CDATA[<b>2277 Shattuck    Th Avenue      St</b><br>Built <b>1925</b> (City landmark date)<br>Designated 3/6/2008 &middot; LM]]></description>
    <TimeSpan><begin>1925-01-01T00:00:00Z</begin></TimeSpan>
    <styleUrl>#lm</styleUrl>
    <Point><coordinates>-122.267370,37.868084,0</coordinates></Point>
  </Placemark>
  <Placemark>
    <name>2959 College Avenue (1925)</name>
    <description><![CDATA[<b>2959 College Avenue</b><br>Built <b>1925</b> (City landmark date)<br>Designated 3/15/1982 &middot; LM]]></description>
    <TimeSpan><begin>1925-01-01T00:00:00Z</begin></TimeSpan>
    <styleUrl>#lm</styleUrl>
    <Point><coordinates>-122.252736,37.857285,0</coordinates></Point>
  </Placemark>
  <Placemark>
    <name>2140 Shattuck    Am Avenue      Bu (1925)</name>
    <description><![CDATA[<b>2140 Shattuck    Am Avenue      Bu</b><br>Built <b>1925</b> (City landmark date)<br>Designated 12/17/1984 &middot; LM]]></description>
    <TimeSpan><begin>1925-01-01T00:00:00Z</begin></TimeSpan>
    <styleUrl>#lm</styleUrl>
    <Point><coordinates>-122.268799,37.870541,0</coordinates></Point>
  </Placemark>
  <Placemark>
    <name>1581 Le Roy Avenue (1925)</name>
    <description><![CDATA[<b>1581 Le Roy Avenue</b><br>Built <b>1925</b> (City landmark date)<br>Designated 6/21/1982 &middot; LM]]></description>
    <TimeSpan><begin>1925-01-01T00:00:00Z</begin></TimeSpan>
    <styleUrl>#lm</styleUrl>
    <Point><coordinates>-122.259104,37.880758,0</coordinates></Point>
  </Placemark>
  <Placemark>
    <name>1987 Shattuck Avenue (1925)</name>
    <description><![CDATA[<b>1987 Shattuck Avenue</b><br>Built <b>1925</b> (City landmark date)<br>Designated 9/15/1986 &middot; LM]]></description>
    <TimeSpan><begin>1925-01-01T00:00:00Z</begin></TimeSpan>
    <styleUrl>#lm</styleUrl>
    <Point><coordinates>-122.268076,37.872521,0</coordinates></Point>
  </Placemark>
  <Placemark>
    <name>1861 Solano Avenue (1925)</name>
    <description><![CDATA[<b>1861 Solano Avenue</b><br>Built <b>1925</b> (City landmark date)<br>Designated 2/2/2006 &middot; LM]]></description>
    <TimeSpan><begin>1925-01-01T00:00:00Z</begin></TimeSpan>
    <styleUrl>#lm</styleUrl>
    <Point><coordinates>-122.278175,37.891701,0</coordinates></Point>
  </Placemark>
  <Placemark>
    <name>2323 Shattuck    Fi Avenue      Bu (1925)</name>
    <description><![CDATA[<b>2323 Shattuck    Fi Avenue      Bu</b><br>Built <b>1925</b> (City landmark date)<br>Designated 10/17/1983 &middot; LM]]></description>
    <TimeSpan><begin>1925-01-01T00:00:00Z</begin></TimeSpan>
    <styleUrl>#lm</styleUrl>
    <Point><coordinates>-122.267228,37.867224,0</coordinates></Point>
  </Placemark>
  <Placemark>
    <name>22 Roble Road (1926)</name>
    <description><![CDATA[<b>22 Roble Road</b><br>Built <b>1926</b> (City landmark date)<br>Designated 3/3/2011 &middot; LM]]></description>
    <TimeSpan><begin>1926-01-01T00:00:00Z</begin></TimeSpan>
    <styleUrl>#lm</styleUrl>
    <Point><coordinates>-122.237442,37.853379,0</coordinates></Point>
  </Placemark>
  <Placemark>
    <name>2700 Bancroft Way (1926)</name>
    <description><![CDATA[<b>2700 Bancroft Way</b><br>Built <b>1926</b> (City landmark date)<br>Designated 4/3/2000 &middot; LM]]></description>
    <TimeSpan><begin>1926-01-01T00:00:00Z</begin></TimeSpan>
    <styleUrl>#lm</styleUrl>
    <Point><coordinates>-122.254344,37.869037,0</coordinates></Point>
  </Placemark>
  <Placemark>
    <name>1900 Addison Street (1927)</name>
    <description><![CDATA[<b>1900 Addison Street</b><br>Built <b>1927</b> (City landmark date)<br>Designated 4/7/1997 &middot; LM]]></description>
    <TimeSpan><begin>1927-01-01T00:00:00Z</begin></TimeSpan>
    <styleUrl>#lm</styleUrl>
    <Point><coordinates>-122.272397,37.870354,0</coordinates></Point>
  </Placemark>
  <Placemark>
    <name>2527 Hillegass Avenue (1927)</name>
    <description><![CDATA[<b>2527 Hillegass Avenue</b><br>Built <b>1927</b> (City landmark date)<br>Designated 1/21/1980 &middot; LM]]></description>
    <TimeSpan><begin>1927-01-01T00:00:00Z</begin></TimeSpan>
    <styleUrl>#lm</styleUrl>
    <Point><coordinates>-122.256150,37.864322,0</coordinates></Point>
  </Placemark>
  <Placemark>
    <name>1619 Walnut 9      Avenue (1927)</name>
    <description><![CDATA[<b>1619 Walnut 9      Avenue</b><br>Built <b>1927</b> (City landmark date)<br>Designated 6/6/2019 &middot; SOM]]></description>
    <TimeSpan><begin>1927-01-01T00:00:00Z</begin></TimeSpan>
    <styleUrl>#lm</styleUrl>
    <Point><coordinates>-122.267541,37.877881,0</coordinates></Point>
  </Placemark>
  <Placemark>
    <name>2900 Buena Vist Way (1928)</name>
    <description><![CDATA[<b>2900 Buena Vist Way</b><br>Built <b>1928</b> (City landmark date)<br>Designated 6/17/1985 &middot; LM]]></description>
    <TimeSpan><begin>1928-01-01T00:00:00Z</begin></TimeSpan>
    <styleUrl>#lm</styleUrl>
    <Point><coordinates>-122.256635,37.882927,0</coordinates></Point>
  </Placemark>
  <Placemark>
    <name>2605 Haste Stre (1928)</name>
    <description><![CDATA[<b>2605 Haste Stre</b><br>Built <b>1928</b> (City landmark date)<br>Designated 11/1/1999 &middot; LM]]></description>
    <TimeSpan><begin>1928-01-01T00:00:00Z</begin></TimeSpan>
    <styleUrl>#lm</styleUrl>
    <Point><coordinates>-122.256028,37.866520,0</coordinates></Point>
  </Placemark>
  <Placemark>
    <name>1835 Spruce Street (1928)</name>
    <description><![CDATA[<b>1835 Spruce Street</b><br>Built <b>1928</b> (City landmark date)<br>Designated 12/19/1983 &middot; LM]]></description>
    <TimeSpan><begin>1928-01-01T00:00:00Z</begin></TimeSpan>
    <styleUrl>#lm</styleUrl>
    <Point><coordinates>-122.265146,37.874778,0</coordinates></Point>
  </Placemark>
  <Placemark>
    <name>1815 Spruce Street (1928)</name>
    <description><![CDATA[<b>1815 Spruce Street</b><br>Built <b>1928</b> (City landmark date)<br>Designated 12/19/1983 &middot; LM]]></description>
    <TimeSpan><begin>1928-01-01T00:00:00Z</begin></TimeSpan>
    <styleUrl>#lm</styleUrl>
    <Point><coordinates>-122.265182,37.875285,0</coordinates></Point>
  </Placemark>
  <Placemark>
    <name>1785 Spruce Street (1928)</name>
    <description><![CDATA[<b>1785 Spruce Street</b><br>Built <b>1928</b> (City landmark date)<br>Designated 12/19/1983 &middot; LM]]></description>
    <TimeSpan><begin>1928-01-01T00:00:00Z</begin></TimeSpan>
    <styleUrl>#lm</styleUrl>
    <Point><coordinates>-122.264838,37.875500,0</coordinates></Point>
  </Placemark>
  <Placemark>
    <name>2680 Bancroft Way (1928)</name>
    <description><![CDATA[<b>2680 Bancroft Way</b><br>Built <b>1928</b> (City landmark date)<br>Designated 11/19/1979 &middot; LM]]></description>
    <TimeSpan><begin>1928-01-01T00:00:00Z</begin></TimeSpan>
    <styleUrl>#lm</styleUrl>
    <Point><coordinates>-122.254849,37.869020,0</coordinates></Point>
  </Placemark>
  <Placemark>
    <name>2395 Piedmont Avenue (1928)</name>
    <description><![CDATA[<b>2395 Piedmont Avenue</b><br>Built <b>1928</b> (City landmark date)<br>Designated 5/21/1990 &middot; LM]]></description>
    <TimeSpan><begin>1928-01-01T00:00:00Z</begin></TimeSpan>
    <styleUrl>#lm</styleUrl>
    <Point><coordinates>-122.251543,37.868103,0</coordinates></Point>
  </Placemark>
  <Placemark>
    <name>2600 Durant 0      Avenue (1929)</name>
    <description><![CDATA[<b>2600 Durant 0      Avenue</b><br>Built <b>1929</b> (City landmark date)<br>Designated 2/1/1993 &middot; SOM]]></description>
    <TimeSpan><begin>1929-01-01T00:00:00Z</begin></TimeSpan>
    <styleUrl>#lm</styleUrl>
    <Point><coordinates>-122.256202,37.867823,0</coordinates></Point>
  </Placemark>
  <Placemark>
    <name>2526 Hawthorne Terrace (1929)</name>
    <description><![CDATA[<b>2526 Hawthorne Terrace</b><br>Built <b>1929</b> (City landmark date)<br>Designated 9/5/2019 &middot; LM]]></description>
    <TimeSpan><begin>1929-01-01T00:00:00Z</begin></TimeSpan>
    <styleUrl>#lm</styleUrl>
    <Point><coordinates>-122.261074,37.881674,0</coordinates></Point>
  </Placemark>
  <Placemark>
    <name>2315 Durant Avenue (1929)</name>
    <description><![CDATA[<b>2315 Durant Avenue</b><br>Built <b>1929</b> (City landmark date)<br>Designated 12/15/1975 &middot; LM]]></description>
    <TimeSpan><begin>1929-01-01T00:00:00Z</begin></TimeSpan>
    <styleUrl>#lm</styleUrl>
    <Point><coordinates>-122.262303,37.867682,0</coordinates></Point>
  </Placemark>
  <Placemark>
    <name>2113 Vine Street (1930)</name>
    <description><![CDATA[<b>2113 Vine Street</b><br>Built <b>1930</b> (City landmark date)<br>Designated 10/4/1999 &middot; LM]]></description>
    <TimeSpan><begin>1930-01-01T00:00:00Z</begin></TimeSpan>
    <styleUrl>#lm</styleUrl>
    <Point><coordinates>-122.268527,37.880535,0</coordinates></Point>
  </Placemark>
  <Placemark>
    <name>2134 Allston Way (1930)</name>
    <description><![CDATA[<b>2134 Allston Way</b><br>Built <b>1930</b> (City landmark date)<br>Designated 1/6/1992 &middot; LM]]></description>
    <TimeSpan><begin>1930-01-01T00:00:00Z</begin></TimeSpan>
    <styleUrl>#lm</styleUrl>
    <Point><coordinates>-122.266808,37.869326,0</coordinates></Point>
  </Placemark>
  <Placemark>
    <name>2001 San Pablo Avenue (1930)</name>
    <description><![CDATA[<b>2001 San Pablo Avenue</b><br>Built <b>1930</b> (City landmark date)<br>Designated 7/15/1985 &middot; SOM]]></description>
    <TimeSpan><begin>1930-01-01T00:00:00Z</begin></TimeSpan>
    <styleUrl>#lm</styleUrl>
    <Point><coordinates>-122.291581,37.868940,0</coordinates></Point>
  </Placemark>
  <Placemark>
    <name>2140 Durant Avenue (1930)</name>
    <description><![CDATA[<b>2140 Durant Avenue</b><br>Built <b>1930</b> (City landmark date)<br>Designated 10/17/1983 &middot; LM]]></description>
    <TimeSpan><begin>1930-01-01T00:00:00Z</begin></TimeSpan>
    <styleUrl>#lm</styleUrl>
    <Point><coordinates>-122.266208,37.866501,0</coordinates></Point>
  </Placemark>
  <Placemark>
    <name>2090 Kittredge Street (1930)</name>
    <description><![CDATA[<b>2090 Kittredge Street</b><br>Built <b>1930</b> (City landmark date)<br>Designated 4/19/1982 &middot; LM]]></description>
    <TimeSpan><begin>1930-01-01T00:00:00Z</begin></TimeSpan>
    <styleUrl>#lm</styleUrl>
    <Point><coordinates>-122.268587,37.868065,0</coordinates></Point>
  </Placemark>
  <Placemark>
    <name>2733 Buena Vist Way (1931)</name>
    <description><![CDATA[<b>2733 Buena Vist Way</b><br>Built <b>1931</b> (City landmark date)<br>Designated 7/1/2002 &middot; LM]]></description>
    <TimeSpan><begin>1931-01-01T00:00:00Z</begin></TimeSpan>
    <styleUrl>#lm</styleUrl>
    <Point><coordinates>-122.257175,37.881715,0</coordinates></Point>
  </Placemark>
  <Placemark>
    <name>2274 Shattuck Avenue      UA (1932)</name>
    <description><![CDATA[<b>2274 Shattuck Avenue      UA</b><br>Built <b>1932</b> (City landmark date)<br>Designated 2/1/2024 &middot; LM]]></description>
    <TimeSpan><begin>1932-01-01T00:00:00Z</begin></TimeSpan>
    <styleUrl>#lm</styleUrl>
    <Point><coordinates>-122.268484,37.867882,0</coordinates></Point>
  </Placemark>
  <Placemark>
    <name>3075 Telegraph Avenue (1932)</name>
    <description><![CDATA[<b>3075 Telegraph Avenue</b><br>Built <b>1932</b> (City landmark date)<br>Designated 9/8/2003 &middot; LM]]></description>
    <TimeSpan><begin>1932-01-01T00:00:00Z</begin></TimeSpan>
    <styleUrl>#lm</styleUrl>
    <Point><coordinates>-122.259521,37.854134,0</coordinates></Point>
  </Placemark>
  <Placemark>
    <name>2036 Shattuck Avenue      Kr (1933)</name>
    <description><![CDATA[<b>2036 Shattuck Avenue      Kr</b><br>Built <b>1933</b> (City landmark date)<br>Designated 4/20/1981 &middot; LM]]></description>
    <TimeSpan><begin>1933-01-01T00:00:00Z</begin></TimeSpan>
    <styleUrl>#lm</styleUrl>
    <Point><coordinates>-122.268766,37.871255,0</coordinates></Point>
  </Placemark>
  <Placemark>
    <name>2780 Buena Vist Way (1933)</name>
    <description><![CDATA[<b>2780 Buena Vist Way</b><br>Built <b>1933</b> (City landmark date)<br>Designated 3/19/1990 &middot; LM]]></description>
    <TimeSpan><begin>1933-01-01T00:00:00Z</begin></TimeSpan>
    <styleUrl>#lm</styleUrl>
    <Point><coordinates>-122.256960,37.880885,0</coordinates></Point>
  </Placemark>
  <Placemark>
    <name>1170 The Alameda (1936)</name>
    <description><![CDATA[<b>1170 The Alameda</b><br>Built <b>1936</b> (City landmark date)<br>Designated 10/1/2001 &middot; LM]]></description>
    <TimeSpan><begin>1936-01-01T00:00:00Z</begin></TimeSpan>
    <styleUrl>#lm</styleUrl>
    <Point><coordinates>-122.275455,37.885590,0</coordinates></Point>
  </Placemark>
  <Placemark>
    <name>1650 La Vereda (1937)</name>
    <description><![CDATA[<b>1650 La Vereda</b><br>Built <b>1937</b> (City landmark date)<br>Designated 12/6/2004 &middot; LM]]></description>
    <TimeSpan><begin>1937-01-01T00:00:00Z</begin></TimeSpan>
    <styleUrl>#lm</styleUrl>
    <Point><coordinates>-122.256503,37.878976,0</coordinates></Point>
  </Placemark>
  <Placemark>
    <name>70 Twain Avenue (1938)</name>
    <description><![CDATA[<b>70 Twain Avenue</b><br>Built <b>1938</b> (City landmark date)<br>Designated 4/3/1995 &middot; LM]]></description>
    <TimeSpan><begin>1938-01-01T00:00:00Z</begin></TimeSpan>
    <styleUrl>#lm</styleUrl>
    <Point><coordinates>-122.257426,37.889961,0</coordinates></Point>
  </Placemark>
  <Placemark>
    <name>2180 Milvia Street (1938)</name>
    <description><![CDATA[<b>2180 Milvia Street</b><br>Built <b>1938</b> (City landmark date)<br>Designated 4/15/1985 &middot; LM]]></description>
    <TimeSpan><begin>1938-01-01T00:00:00Z</begin></TimeSpan>
    <styleUrl>#lm</styleUrl>
    <Point><coordinates>-122.270886,37.869414,0</coordinates></Point>
  </Placemark>
  <Placemark>
    <name>2125 Durant Avenue (1939)</name>
    <description><![CDATA[<b>2125 Durant Avenue</b><br>Built <b>1939</b> (City landmark date)<br>Designated 7/21/1986 &middot; LM]]></description>
    <TimeSpan><begin>1939-01-01T00:00:00Z</begin></TimeSpan>
    <styleUrl>#lm</styleUrl>
    <Point><coordinates>-122.266370,37.867021,0</coordinates></Point>
  </Placemark>
  <Placemark>
    <name>2727 Milvia Street (1939)</name>
    <description><![CDATA[<b>2727 Milvia Street</b><br>Built <b>1939</b> (City landmark date)<br>Designated 4/5/2007 &middot; LM]]></description>
    <TimeSpan><begin>1939-01-01T00:00:00Z</begin></TimeSpan>
    <styleUrl>#lm</styleUrl>
    <Point><coordinates>-122.268704,37.859656,0</coordinates></Point>
  </Placemark>
  <Placemark>
    <name>10 Greenwood Common Greenwood Common Greenwood Common Greenwood Common Greenwood Common Greenwood Common Greenwood Common (1952)</name>
    <description><![CDATA[<b>10 Greenwood Common Greenwood Common Greenwood Common Greenwood Common Greenwood Common Greenwood Common Greenwood Common</b><br>Built <b>1952</b> (City landmark date)<br>Designated 3/19/1990 &middot; LM]]></description>
    <TimeSpan><begin>1952-01-01T00:00:00Z</begin></TimeSpan>
    <styleUrl>#lm</styleUrl>
    <Point><coordinates>-122.259772,37.882471,0</coordinates></Point>
  </Placemark>
  <Placemark>
    <name>771 San Diego (1954)</name>
    <description><![CDATA[<b>771 San Diego</b><br>Built <b>1954</b> (City landmark date)<br>Designated 3/5/2009 &middot; LM]]></description>
    <TimeSpan><begin>1954-01-01T00:00:00Z</begin></TimeSpan>
    <styleUrl>#lm</styleUrl>
    <Point><coordinates>-122.272347,37.896027,0</coordinates></Point>
  </Placemark>
  <Placemark>
    <name>2600 Bancroft Way (1958)</name>
    <description><![CDATA[<b>2600 Bancroft Way</b><br>Built <b>1958</b> (City landmark date)<br>Designated 5/6/2010 &middot; LM]]></description>
    <TimeSpan><begin>1958-01-01T00:00:00Z</begin></TimeSpan>
    <styleUrl>#lm</styleUrl>
    <Point><coordinates>-122.256527,37.868741,0</coordinates></Point>
  </Placemark>
  <Placemark>
    <name>2415 Blake Stre (1979)</name>
    <description><![CDATA[<b>2415 Blake Stre</b><br>Built <b>1979</b> (City landmark date)<br>Designated 12/6/2018 &middot; LM]]></description>
    <TimeSpan><begin>1979-01-01T00:00:00Z</begin></TimeSpan>
    <styleUrl>#lm</styleUrl>
    <Point><coordinates>-122.259868,37.864262,0</coordinates></Point>
  </Placemark>
</Document>
</kml>
