{"type":"FeatureCollection","crs":{"type":"name","properties":{"name":"EPSG:4326"}},"features":[{"type":"Feature","id":1,"geometry":{"type":"MultiPolygon","coordinates":[[[[-122.253117019589,37.8566327206645],[-122.253103379904,37.8564955961588],[-122.253083040547,37.856294681599],[-122.253065881575,37.856154857016],[-122.253255767505,37.8561273146662],[-122.253286869355,37.8562703758616],[-122.253308186457,37.8563661932104],[-122.253382479537,37.8563582210014],[-122.253391885937,37.8563903603668],[-122.253474808555,37.8563802013014],[-122.253488449737,37.8564445427661],[-122.253583422881,37.8564321500096],[-122.253609179532,37.8565691043196],[-122.25377312951,37.8565433218939],[-122.253780866892,37.8565775362424],[-122.253835473414,37.8568356250444],[-122.253590286305,37.8568687798254],[-122.253510845563,37.8568788871374],[-122.253141252374,37.8569255800623],[-122.253132704529,37.8567842472801],[-122.253117019589,37.8566327206645]]],[[[-122.2526945135,37.8569322145703],[-122.252676062303,37.8567381545584],[-122.25250657477,37.8567496030892],[-122.252493494294,37.8566351090285],[-122.252526270272,37.8566298210149],[-122.252525901063,37.8566140379336],[-122.252522178372,37.8566031014469],[-122.252502682933,37.8565113729773],[-122.252498717444,37.8564901475909],[-122.252481405515,37.8564904072176],[-122.252465724201,37.8563395592102],[-122.252456245523,37.856253159675],[-122.252288927497,37.8562618429853],[-122.25225436887,37.8558984078682],[-122.252420364163,37.8558863363563],[-122.252431517719,37.8558856762208],[-122.252716153403,37.85586888842],[-122.252752523139,37.8558683558386],[-122.25279927077,37.8558676529632],[-122.252828915409,37.8558761428875],[-122.252839791169,37.8558965847269],[-122.252859269436,37.8560611050712],[-122.252870161677,37.856175759169],[-122.252870806602,37.856182477894],[-122.252882548099,37.8563134552864],[-122.252896950517,37.8564828626639],[-122.252908196336,37.8565925672907],[-122.252923341179,37.8567200746557],[-122.252941864195,37.8569175572969],[-122.2526945135,37.8569322145703]]],[[[-122.253223408656,37.8576893366491],[-122.253223070844,37.8576756096201],[-122.253205762292,37.8575296003688],[-122.253196351347,37.8574246716566],[-122.253170650943,37.8571428248948],[-122.253400295964,37.8571119491561],[-122.253852730575,37.8570530370276],[-122.253912347785,37.8573762714312],[-122.253748183723,37.8573931172656],[-122.253763879789,37.857471181278],[-122.253724101485,37.8574738322342],[-122.25355652484,37.8574921189693],[-122.253577384148,37.857642192079],[-122.253684547545,37.8576323631931],[-122.253688705472,37.8576618257706],[-122.253667991103,37.8576648859525],[-122.253608940756,37.8576582089075],[-122.253598528851,37.8576576688261],[-122.253223408656,37.8576893366491]]],[[[-122.253223408656,37.8576893366491],[-122.253517771433,37.8576849671618],[-122.253523177462,37.8577672948741],[-122.253459172997,37.8577709872647],[-122.253465330208,37.8578848893226],[-122.25351208584,37.8578841952334],[-122.253764916837,37.857881121958],[-122.253769239732,37.8579174534281],[-122.25377616413,37.8579908255906],[-122.253780487019,37.8580271588621],[-122.253808250586,37.8583220115709],[-122.253506030322,37.8583608532709],[-122.253471462145,37.8583641058866],[-122.253291860588,37.8583873749484],[-122.253262261586,37.8580870450503],[-122.253240223523,37.8578882288195],[-122.253223408656,37.8576893366491]]],[[[-122.25260543735,37.8575611787942],[-122.252594178236,37.8574514722706],[-122.252421144653,37.8574595408456],[-122.252372692735,37.8574616342553],[-122.252364784496,37.8574198568903],[-122.252352128378,37.8573239096209],[-122.252350940749,37.8572738001147],[-122.252364200503,37.8572481983652],[-122.252381181775,37.8572342117702],[-122.252401639774,37.8572201742426],[-122.252423889258,37.8572081669815],[-122.252567434971,37.8571991658509],[-122.252572001152,37.8572457907734],[-122.252969777467,37.8572192880566],[-122.252981363545,37.8573427179071],[-122.252998069269,37.857536810044],[-122.253009549257,37.8576561176006],[-122.253027129552,37.8578138003413],[-122.253038921276,37.8579461569811],[-122.2530502388,37.858058595645],[-122.253066679424,37.8582410260452],[-122.253081911741,37.8583733260852],[-122.253073658271,37.8583899296175],[-122.253049735758,37.8584040209889],[-122.253018614807,37.8584065436617],[-122.252672729717,37.858430217746],[-122.252656609464,37.8582608472621],[-122.252640253248,37.8580818656911],[-122.252637828489,37.8580523708191],[-122.252628906046,37.8579680370091],[-122.252615322545,37.8578329605739],[-122.252599578389,37.8576800671838],[-122.25258813756,37.8575621252976],[-122.25260543735,37.8575611787942]]],[[[-122.253323400422,37.8586959188957],[-122.253322852634,37.858672579153],[-122.25331116985,37.8585450271358],[-122.253449375498,37.8585292322841],[-122.253461219912,37.8586636621766],[-122.253463126562,37.8586711874408],[-122.253466986328,37.8586876046233],[-122.253678046181,37.8586762343795],[-122.25368552867,37.8587729472457],[-122.253334374982,37.8587939517882],[-122.253323400422,37.8586959188957]]],[[[-122.252682201517,37.8586106823979],[-122.253100803646,37.858585922964],[-122.253134486607,37.8589116033],[-122.252714048195,37.858932952416],[-122.252702918654,37.858828056046],[-122.252682201517,37.8586106823979]]]]},"properties":{"OBJECTID":1,"BID":"Elmwood","Shape__Area":21249.943603515625,"Shape__Length":1794.7184606694093}}]}